Prj_Code,SiteCode,SiteName,PropertyName,RefugeCode,Ownership,Region,City,County,State,PrimaryContact,SecondContact,PhoneNumber,Latitude,Longitude,Elevation,Class,Longevity,Origin
3,0,Jasons Deli,,,OSMP,,Broomfield,Broomfield,CO,OSMP,,,39.940651,-105.143095,1658,Lake,Semi-permanent,Artificial
3,0000,The Pincher (K4-11),OSMP,,OSMP,,Boulder,Boulder,CO,OSMP,,,39.96764,-105.23079,1660,Pond,Permanent,Artificial
,10412,Wedding Pond,,,,,Lyons,,CO,,,,40.2457,-105.28621,1682,Pond,Permanent,Artificial
,104601,Leaky Wader Pond,,,,,White River,Rio Blanco,CO,,,,40.03251,-107.58081,2534,Pond,Temporary,Natural
3,10488,Daisy Duke,,,,,,,CO,,,,39.989936,-105.530194,10488,Pond,Permanent,Artificial
,10511,Stained Glass,,,,,Boulder,Boulder,CO,,,,40.13446,-105.20704,1585,Pond,Permanent,
3,10559,Zoolander,,,Private,,Superior,Broomfield,CO,Private,,,39.94576,-105.16245,1719,Pond,Permanent,Artificial
3,10585,IQ Pond,,,OSMP,,Boulder,Boulder,CO,OSMP,,,39.92301,-105.2392,1824,Pond,Permanent,Artificial
3,10725,Paddle Boat Pond,,,Private,,Superoir,Broomfield,CO,OSMP,,,39.92072,-105.16513,1719,Pond,Semi-permanent,Artificial
3,10757,Goose Pond,,,Private,,Arvada,Broomfield,CO,Tom and Claudette Hertner (son in law & daughter),Helen Druse lives here,3032380289,39.96429,-105.09127,1598,Pond,Permanent,Artificial
,10820,Mating Pelican,,,,,,,CO,,,,40.2215,-105.0571,1562,Pond,Permanent,Natural
3,10846,Lil Nibbler,,,Private,,Boulder,Boulder,CO,Private,,,39.95211,-105.24023,1685,Pond,Semi-permanent,Artificial
3,10909,Glacier Pond,,,,,,,CO,,,,40.318747,-105.608691,2668,Pond,Permanent,Natural
,10964,Totem Pole,,,,,,,CO,,,,40.21397,-105.05963,1538,Pond,,Artificial
,10983,Electric Fence,,,,,,,CO,,,,40.21166,-105.1852,,Pond,Permanent,Artificial
,11307,Bubbly,,,,,Hygiene,,CO,,,,40.165923,-105.192712,1569,Pond,Permanent,
3,11444,Sangria,,,,,,,CO,,,,40.149816,-105.253643,1664,Pond,Permanent,Artificial
,11508,Teal Barn Pond,,,,,,,CO,,,,40.13721,-105.20856,1580,Pond,Permanent,Artificial
3,11518,Hectic Hummingbird,,,,,,,CO,,,,40.126798,-105.554399,2617,Pond,Other,Artificial
,11651,N. 95th Pond,,,,,,,CO,,,,40.11204,-105.13158,1542,Pond,Permanent,Artificial
,11655,Conversation pond,,,,,Boulder,Boulder,CO,,,,40.11101,-105.06776,1543,Pond,Permanent,Artificial
,11660,Randy's Pond,,,,,Boulder,Boulder,CO,,,,40.11046,-105.24081,1615,Pond,Permanent,Artificial
3,11722,Hangover Pond,,,,,Niwot,,CO,,,,40.102018,-105.163002,1543,Pond,Permanent,Artificial
3,11747,The Beave,,,,,,,CO,,,,40.075243,-105.518943,2908,Pond,Permanent,Natural
3,11755,Adobe House Pond,,,,,Niwot,Boulder,CO,,,,40.075858,-105.082589,1534,Pond,Permanent,Artificial
3,11799,Storm Pond,,,,,,,CO,,,,40.092893,-105.556407,3134,Pond,Permanent,Natural
3,11820,Sun Pond,,,,,,,CO,,,,40.090537,-105.557059,3122,Pond,Permanent,Natural
3,11928,Happy Lilly Pond,,,,,,Boulder,CO,,,,40.080155,-105.543396,3123,Pond,Permanent,
,11967,By The Res,,,,,Boulder,Boulder,CO,,,,40.06817,-105.24866,1629,Pond,Permanent,Artificial
3,12231,Allergy,,,OSMP,,Boulder,Boulder,CO,OSMP,,,40.03379,-105.15383,1566,Pond,Permanent,Artificial
3,12306,Water Warming,,,,,,,CO,,,,40.014479,-105.561183,,Pond/Pool,Permanent,Natural
,12333,FAC MAN pond,,,,,Boulder,Boulder,CO,,,,40.01318,-105.24355,1606,Pond,Permanent,
3,12341,Bad MoJo,,,,,,,CO,,,,40.009807,-105.577034,3132,Pond,Permanent,Natural
,12376,Giant Satellite,,,,,Boulder,Boulder,CO,,,,40.00898,-105.2466,1607,Pond,Permanent,Artificial
3,12532,Full O' Fish Pond,,,,,,,CO,,,,39.980166,-105.613276,2958,Pond,Permanent,
,12552,Caboose Pond,,,,,Boulder,Boulder,CO,,,,39.97942,-105.19118,1660,Pond,Permanent,Artificial
3,12563,Nice Little Pond,,,,,,,CO,,,,39.975435,-105.608776,2995,Pond,Permanent,Natural
3,12573,36 Pond,OSMP,,OSMP,,Boulder,Boulder,CO,OSMP,,,39.97069,-105.20219,1693,Pond,Permanent,Artificial
,12585,,,,,,,,,,,,,,,,,
3,12588,Smooth Criminal,,,OSMP,,Boulder,Boulder,CO,OSMP,,,39.967297,-105.228176,1659,Pond,Permanent,Artificial
3,12598,Cherryvale East,,,OSMP,,Boulder,Boulder,CO,OSMP,,,39.96465,-105.21254,1697,Pond,Temporary,Artificial
3,12607,Yellow Head Pond,,,Private,,Arvada,Broomfield,CO,Private,,,39.96167,-105.09112,1601,Pond,Permanent,Artificial
3,12608,Bush Pond,,,Boulder County,,Boulder,Boulder,CO,Will Keeley,,3036786203,39.96183,-105.19322,1715,Pond,Temporary,Artificial
3,12611,Bullfrog Madness,,12611,OSMP,,Boulder,Boulder,CO,OSMP,,,39.96046,-105.20056,1701,Stream,Temporary,Artificial
3,12612,GBH Pond,OSMP,,OSMP,,Boulder,Boulder,CO,OSMP,,,39.95999,-105.2373,1672,Pond,Permanent,Artificial
3,12653,Discovery,,,Private,,Superior,Broomfield,CO,Private,,,39.94825,-105.162984,1695,Pond,Permanent,Artificial
3,12658,Red Tailed Hawk,,,Private,,Superior,Boulder,CO,Private,,,39.94774,-105.15212,1678,Pond,Permanent,Artificial
3,12678,Big Bird,,12678,Boulder County,,Broomfield,Boulder,CO,Will Keeley,,3036786203,39.94295,-105.17326,1744,Pond,Temporary,Artificial
,12688,Coyote Coolness,,,,,,,CO,,,,39.941656,-105.094387,1619,Pond,Temporary,Other
3,12765,HOA Pond,,,,,Broomfield,,CO,,,,39.934759,-105.091536,1659,Pond,Permanent,Artificial
3,12770,Telleen,,,,,Boulder,Boulder,CO,,,,39.93367,-105.19891,1741,Stream,Temporary,Natural
3,12776,Powerline Pond,,,OSMP,,Eldorado Springs,Boulder,CO,OSMP,,,39.93103,-105.25716,1764,Pond,Permanent,Natural
3,127848,Middle Wise Man,,,Private,,,Broomfield,CO,Private,,,39.935568,-105.141805,1648,Pond,Permanent,Artificial
3,12820,Pipeline Pond,,,OSMP,,Boulder,Boulder,CO,OSMP,,,39.914764,-105.262357,1857,Pond,Permanent,Artificial
3,12914,Lindsay Pond,,,,,Boulder,,CO,Amy Thorinton,,,39.901603,-105.215156,1825,Pond,Permanent,Artificial
3,12939,Factory Pond,,,Jefferson County Open Space,,Boulder,Jefferson,CO,Jefferson County Open Space,,,39.89853,-105.26098,1908,Pond,Permanent,Artificial
3,12958,Pleasantville,,,Jefferson County Open Space,,Boulder,Jefferson,CO,Jefferson County Open Space,,,39.88641,-105.26447,1958,Pond,Permanent,Artificial
3,12968,Dos Doggs,,,,,,,CO,,,,39.883958,-105.445527,2693,Pond,Permanent,Artificial
3,12981,Buttercup Pond,,,,,,,CO,,,,39.87882,-105.513283,2816,Pond,Permanent,Natural
3,12983,Rumple Pond,,,,,,Gilpin,CO,,,,39.878843,-105.511874,2805,Pond,Permanent,
3,13486,Christmas Pond,,,,,,,CO,,,,40.417233,-105.678852,2810,Pond,Temporary,Natural
3,13493,Impending Doom Pond,,,,,,,CO,,,,40.416106,-105.676542,2806,Pond,Temporary,Natural
3,1553,Circulation Pond,,,Private,,Lakewood,Arapahoe,CO,Private,,,39.60538,-105.04593,1658,Pond,Permanent,Artificial
3,16264,Rusty Cage Pond,,16264,,,,,CO,,,,40.626788,-104.969767,1569,Pond,Permanent,Artificial
3,16504,Dead Crayfish,,,,,Ft. Collins,Larimer,CO,,,,40.571873,-105.108722,1550,Pond,Permanent,Artificial
3,16559,Pee Pond,,,,,,,CO,,,,40.56217,-105.072152,1530,Pond,Permanent,Natural
3,16626,Crocodile Pond,,,,,Ft. Collins,Larimer,CO,,,,40.549635,-105.117884,1562,Pond,Permanent,Natural
3,16673,The Finale,,,,,,,CO,,,,40.537249,-105.054878,1532,Pond,Permanent,Artificial
,205767,Rooster 1,,,,,Meeker,Rio Blanco,CO,,,,40.06417,-107.81142,2059,Pond,Permanent,Artificial
,206150,Aqua Verde,,,,,,,CO,,,,40.03896,-107.58428,,Pool,Permanent,Natural
,206237,Ring of Shit,,,,,Meeker,Rio Blanco,CO,,,,40.01081,-107.85215,1980,Pond,Permanent,Artificial
,206522,Dead Sheep,,,,,Meeker,Rio Blanco,CO,,,,40.00033,-107.84176,1996,Pond,Permanent,Artificial
,207750,Aspen Lodge Pond,,,,,White River National Forest,Rio Blanco,CO,,,,39.92495,-107.62425,2603,Pond,Permanent,Natural
,207763,Norhtern Harrier Pond,,,,,White River National Forest,Rio Blanco,CO,,,,39.9316,-107.62667,2567,Pond,Permanent,Natural
,207862,White River # 1,,,,,Buford,Rio Blanco,CO,,,,39.92953,-107.62827,2571,Pond,Permanent,Natural
,208019,Tear Drop Pond,,,,,White River National Forest,Rio Blanco,CO,,,,39.92548,-107.62329,2603,Pond,Permanent,
1,20MDSP,Bob's Pond,Mount Diablo State Park,MDS,California State Parks,,Diablo,Contra Costa,CA,Roland Gaebert,Cyndy Schafer,9256732895,37.852177,-121.870544,490,Pond,Permanent,Artificial
3,2231,Scooter Pond,,,Private,,Lakewood,Jefferson,CO,Private,,,39.55835,-105.09255,1700,Pond,Permanent,Artificial
3,2319,Number 15,,,,,,,CO,,,,39.548297,-105.281428,2454,Pond,Permanent,Natural
,3893,Pamona,,,,,Arvada,,CO,,,,39.8458,-105.07777,1663,Pond,Permanent,Artificial
,3897,Lake Arbor Park,,,,,Arvada,,CO,,,,39.8443,-105.0713,1648,Pond,Permanent,Artificial
3,50,Valmont,,,,,Boulder,Boulder,CO,,,,40.047519,-105.15451,1553,Lake,Permanent,Natural
,5344,Unsafe Ice Pond,,,,,Arvada,Jefferson,CO,,,,39.83956,-104.97285,5344,Pond,Permanent,Natural
3,5568,South Midline,,,,,,,CO,,,,39.922416,-105.081501,1639,Pond,Temporary,Artificial
1,5CN1,5 Canyons 1,5 Canyons Regional Park,5CN,East Bay Regional Park District,,Fairview,Alameda,CA,James Silliman,,5105381148,37.687079,-122.027621,214,Pond,Permanent,Artificial
1,5CN2,5 Canyons 2,5 Canyons Regional Park,5CN,East Bay Regional Park District,,Fairview,Alameda,CA,James Silliman,,5105381148,37.687453,-122.028454,220,Pond,Permanent,Artificial
1,5CN3,5 Canyons 3,5 Canyons Regional Park,5CN,East Bay Regional Park District,,Fairview,Alameda,CA,James Silliman,,5105381148,37.685451,-122.035217,134,Pond,Semi-permanent,Artificial
1,5CN4,5 Canyons 4,5 Canyons Regional Park,5CN,East Bay Regional Park District,,Fairview,Alameda,CA,James Silliman,,5105381148,37.677956,-122.035447,181,Pond,Semi-permanent,Artificial
1,5MDSP,5 MDSP,Mount Diablo State Park,MDS,California State Parks,,Diablo,Contra Costa,CA,Roland Gaebert,Cyndy Schafer,9256732895,37.850722,-121.855427,405,Pond,Temporary,Artificial
3,6567,Dinosaur Skin Pond,,,,,,,CO,,,,39.93766,-105.03036,1609,Pond,Permanent,Artificial
,6782,Pink Algae,,,,,Westminster,,CO,,,,39.893809,-105.021522,1641,Pond,Permanent,
,6833,Grandview Pond # 1,,,,,,,CO,,,,39.88441,-104.93184,1567,Pond,Permanent,Artificial
,6839,Grandview Pond # 3,,,,,,,CO,,,,39.8826,-104.93443,1569,Pond,Permanent,Artificial
3,6844,Trailer Trash,,,,,,,CO,,,,39.881846,-104.937088,1580,Pond,Permanent,Artificial
1,6MDSP,6 MDSP,Mount Diablo State Park,MDS,California State Parks,,Diablo,Contra Costa,CA,Roland Gaebert,Cyndy Schafer,9256732895,37.841305,-121.877697,547,Pond,Permanent,Artificial
1,8AMDSP,Upper Chase,Mount Diablo State Park,MDS,California State Parks,,Diablo,Contra Costa,CA,Roland Gaebert,Cyndy Schafer,9256732895,37.861568,-121.916087,538,Pond,Permanent,Natural
3,9131,4 Little Goldfish,,,,,,,CO,,,,39.870522,-105.472073,2778,Pond,Permanent,Artificial
3,9178,Stealth Mission,,,,,,,CO,,,,39.847209,-105.364093,2357,Pool,Permanent,Natural
,9241,Art Center Pond,,,,,Arvada,,CO,,,,39.82262,-105.08283,1687,Pond,Permanent,Artificial
,9422,Infinity Pond,,,,,Arvada,,CO,,,,39.8222,-105.12476,1648,Pond,Permanent,Artificial
,9487,West Woods 9th,,,,,Arvada,Jefferson,CO,,,,39.818,-105.18507,1715,Pond,Permanent,Artificial
,9511,West Woods 19 Pond,,,,,Arvada,Jefferson,CO,,,,39.81544,-105.18605,1722,Pond,Permanent,Artificial
3,9940,Choo Choo Pond,,,,,Broomfield,Boulder,CO,Boulder County Open Space,,,39.934024,-105.116171,1630,Pond,Permanent,Natural
3,9942,Transformer,OSMP,,OSMP,,Eldorado Springs,Boulder,CO,OSMP,,,39.93372,-105.26376,1751,Pond,Permanent,Artificial
,9953,Josh's Pond,,,,,Broomfield,Broomfield,CO,,,,39.93247,-105.1092,1620,Pond,Permanent,Artificial
3,9965,Fanwort,,,Jefferson County Open Space,,Boulder,Jefferson,CO,Jefferson County Open Space,,,39.89512,-105.22594,1910,Pond,Permanent,Artificial
1,ACPND001,ACPND001,Anthony Chabot Regional Park,AC,East Bay Regional Park District,,San Leandro,Alameda,CA,Janet Gomes,,5106906675,37.748474,-122.089956,222,Pond,Permanent,Artificial
5,AK-ANC02,ANC02,,,,,,,AK,,,,61.14347,-149.99189,,,,
5,AK-ARC25,ARC25,Arctic National Refuge National Wildlife Refuge,ARC,,7,,,AK,,,,67.19441,-142.18454,,,,
5,AK-KENUK,UNKNOWN KENAI NWR,Kenai National Wildlife Refuge,KNA,,7,,,AK,,,,,,,,,
5,AK-KNA01,KNA01,Kenai National Wildlife Refuge,KNA,,7,,,AK,,,,60.73792,-150.87207,,,,
5,AK-KNA02,KNA02,Kenai National Wildlife Refuge,KNA,,7,,,AK,,,,60.71805,-150.88445,,,,
5,AK-KNA03,KNA03,Kenai National Wildlife Refuge,KNA,,7,,,AK,,,,60.72587,-150.88974,,,,
5,AK-KNA04,KNA04,Kenai National Wildlife Refuge,KNA,,7,,,AK,,,,60.74318,-150.86391,,,,
5,AK-KNA05,KNA05,Kenai National Wildlife Refuge,KNA,,7,,,AK,,,,60.70667,-150.89082,,,,
5,AK-KNA08,KNA08,Kenai National Wildlife Refuge,KNA,,7,,,AK,,,,60.6265,-150.80745,,,,
5,AK-KNA10,KNA10,Kenai National Wildlife Refuge,KNA,,7,,,AK,,,,60.51236,-150.05821,,,,
5,AK-KNA11,KNA111,Kenai National Wildlife Refuge,KNA,,7,,,AK,,,,60.48316,-150.45578,,,,
5,AK-KNA12,KNA12,Kenai National Wildlife Refuge,KNA,,7,,,AK,,,,60.71423,-150.81541,,,,
5,AK-KNA13,KNA13,Kenai National Wildlife Refuge,KNA,,7,,,AK,,,,60.75108,-150.5023,,,,
5,AK-KNA14,KNA14,Kenai National Wildlife Refuge,KNA,,7,,,AK,,,,60.75134,-150.50377,,,,
5,AK-KNA16,KNA16,Kenai National Wildlife Refuge,KNA,,7,,,AK,,,,60.74432,-150.51752,,,,
5,AK-KNA17,KNA17,Kenai National Wildlife Refuge,KNA,,7,,,AK,,,,60.73238,-150.61914,,,,
5,AK-KNA21,KNA21,Kenai National Wildlife Refuge,KNA,,7,,,AK,,,,60.65625,-151.02934,,,,
5,AK-KNA24,KNA24,Kenai National Wildlife Refuge,KNA,,7,,,AK,,,,60.48722,-150.00838,,,,
5,AK-KNA31,KNA31,Kenai National Wildlife Refuge,KNA,,7,,,AK,,,,60.20227,-151.0425,,,,
5,AK-KNA46,KNA46,Kenai National Wildlife Refuge,KNA,,7,,,AK,,,,60.77655,-150.53915,,,,
5,AK-KNA47,KNA47,Kenai National Wildlife Refuge,KNA,,7,,,AK,,,,60.77681,-150.54729,,,,
5,AK-KNA51,KNA51,Kenai National Wildlife Refuge,KNA,,7,,,AK,,,,60.51236,-150.05821,,,,
5,AK-KNA54,KNA54,Kenai National Wildlife Refuge,KNA,,7,,,AK,,,,60.5161,-150.0611,,,,
5,AK-KNA55,KNA55,Kenai National Wildlife Refuge,KNA,,7,,,AK,,,,60.52696,-150.06953,,,,
5,AK-KNA56,KNA56,Kenai National Wildlife Refuge,KNA,,7,,,AK,,,,60.52369,-150.06409,,,,
5,AK-KNA60,KNA60,Kenai National Wildlife Refuge,KNA,,7,,,AK,,,,60.43626,-150.50771,,,,
5,AK-KNA62,KNA62,Kenai National Wildlife Refuge,KNA,,7,,,AK,,,,60.43449,-150.5195,,,,
5,AK-KNA72,KNA72,Kenai National Wildlife Refuge,KNA,,7,,,AK,,,,60.76591,-150.54276,,,,
5,AK-KNA90,KNA90,Kenai National Wildlife Refuge,KNA,,7,,,AK,,,,60.46187,-151.09351,,,,
5,AK-KNA95,KNA95,Kenai National Wildlife Refuge,KNA,,7,,,AK,,,,60.53101,-150.46449,,,,
5,AK-KNA97,KNA97,Kenai National Wildlife Refuge,KNA,,7,,,AK,,,,60.5316,-150.42769,,,,
5,AK-KNAUK,UNKNOWN KENAI NWR,Kenai National Wildlife Refuge,KNA,,7,,,AK,,,,,,,,,
5,AK-TET45,TET45,Tetlin National Wildlife Refuge,TET,,7,,,AK,,,,62.61821,-141.97986,,,,
5,AK-TET66,TET66,Tetlin National Wildlife Refuge,TET,,7,,,AK,,,,62.60333,-142.05103,,,,
5,AK-TET70,TET70,Tetlin National Wildlife Refuge,TET,,7,,,AK,,,,62.63839,-142.02206,,,,
5,AK-TET71,TET71,Tetlin National Wildlife Refuge,TET,,7,,,AK,,,,62.63444,-142.02321,,,,
5,AK-TETUK,UNKNOWN TETLIN NWR,Tetlin National Wildlife Refuge,TET,,7,,,AK,,,,,,,,,
5,AK-UNK,Unknown Alaska,,,,,,,AK,,,,,,,,,
3,AlaGolf1,Alamosa Golf Course #1,Alamosa Golf Course,,Alamosa Golf Course,,Alamosa,Alamosa,CO,Alamosa Golf Course,,,37.48011,-105.8718,2309,Pond,Temporary,Artificial
3,AlaGolf2,Alamosa Golf Course #2,Alamosa Golf Course,,Alamosa Golf Course,,Alamosa,Alamosa,CO,Alamosa Golf Course,,,37.47987,-105.89392,2308,Pond,Temporary,Artificial
3,Alamosa1,Daves Alamosa NWR #1,Alamosa National Wildlife Refuge,,US Fish and Game,6,Alamosa,Alamosa,CO,US Fish and Game,,,37.43863,-105.80187,2298,Pond,Temporary,Artificial
3,Alamosa2,Daves Alamosa NWR #2,Alamosa National Wildlife Refuge,,US Fish and Game,6,Alamosa,Alamosa,CO,US Fish and Game,,,37.41737,-105.77985,2299,Pond,Temporary,Artificial
3,Alamosa3,Daves Alamosa NWR #3,Alamosa National Wildlife Refuge,,US Fish and Game,6,Alamosa,Alamosa,CO,US Fish and Game,,,37.41013,-105.7822,2300,River,Permanent,Natural
3,Alamosa4,Daves Alamosa NWR #4,Alamosa National Wildlife Refuge,,US Fish and Game,6,Alamosa,Alamosa,CO,US Fish and Game,,,37.39708,-105.77979,2306,Pond,Temporary,Artificial
3,Alamosa5,Daves Alamosa NWR #5,Alamosa National Wildlife Refuge,,US Fish and Game,6,Alamosa,Alamosa,CO,US Fish and Game,,,37.38289,-105.77423,2304,Pond,Permanent,Artificial
3,Alamosa6,Daves Alamosa NWR #6,Alamosa National Wildlife Refuge,,Us Fish and Game,6,Alamosa,Alamosa,CO,US Fish and Game,,,37.37793,-105.7688,2297,Pond,Temporary,Artificial
3,Alamosa7,Daves Alamosa NWR #7,Alamosa National Wildlife Refuge,,US Fish and Game,6,Alamosa,Alamosa,CO,US Fish and Game,,,37.41393,-105.75793,2303,Pond,Temporary,Artificial
5,AL-WLR14,WLR14,Wheeler National Wildlife Refuge,WLR,,4,,,AL,,,,34.55419,-86.72837,,,,
3,Anderson,Anderson Pond #62,,,OSMP,,Boulder,Boulder,CO,OSMP,,,40.01593,-105.15278,1610,Pond,Permanent,Artificial
5,AR-BLD06,BLD06,Bald Knob National Wildlife Refuge,BLD,,4,,,AR,,,,35.22289,-91.59908,,,,
5,AR-BLD07,BLD07,Bald Knob National Wildlife Refuge,BLD,,4,,,AR,,,,35.23281,-91.59214,,,,
5,AR-CCH01,CCH01,Cache River National Wildlife Refuge,CCH,,4,,,AR,,,,35.115667,-91.166444,,,,
5,AR-CCH02,CCH02,Cache River National Wildlife Refuge,CCH,,4,,,AR,,,,35.115194,-91.166917,,,,
5,AR-FSL01,FSL01,Felsenthal National Wildlife Refuge,FSL,,4,,,AR,,,,33.25145,-92.18905,,,,
5,AR-FSL05,FSL05,Felsenthal National Wildlife Refuge,FSL,,4,,,AR,,,,33.152,-92.18766,,,,
5,AR-FSL2B,FSL2B,Felsenthal National Wildlife Refuge,FSL,,4,,,AR,,,,33.25126,-92.18727,,,,
5,AR-OVF07,OVF07,Overflow National Wildlife Refuge,OVF,,4,,,AR,,,,33.14751,-91.60339,,,,
5,AR-WHR02,WHR02,White River National Wildlife Refuge,WHR,,4,,,AR,,,,34.31221,-91.12175,,,,
5,AR-WHR04,WHR04,White River National Wildlife Refuge,WHR,,4,,,AR,,,,34.11833,-91.20073,,,,
5,AZ-BATH,Bath House,SAN BERNARDINO NATIONAL WILDLIFE REFUGE,SBR,,2,,,AZ,,,,31.33695,-109.27215,,,,
5,AZ-BKDW,Black Draw Wash,SAN BERNARDINO NATIONAL WILDLIFE REFUGE,SBR,,2,,,AZ,,,,31.34059,-109.26419,,,,
5,AZ-CARP,Carpenter Tank,BUENOS AIRES NATIONAL WILDLIFE REFUGE,BAR,,2,,,AZ,,,,31.52818,-111.45422,,,,
5,AZ-FISH2,FISH TANK #2,BUENOS AIRES NATIONAL WILDLIFE REFUGE,BAR,,2,,,AZ,,,,31.63932,-111.46446,,,,
5,AZ-HIPPY,HIPPY TANK,BUENOS AIRES NATIONAL WILDLIFE REFUGE,BAR,,2,,,AZ,,,,31.70675,-111.46666,,,,
5,AZ-KNW01,Horse Tank 1 (main),Kofa National Wildlife Refuge,KNW,,2,,,AZ,,,,33.21122,-114.20548,,,,
5,AZ-KNW02,Grey Tank 2 (lower),Kofa National Wildlife Refuge,KNW,,2,,,AZ,,,,33.20784,-114.20024,,,,
5,AZ-KNW03,Grey Tank 3 (south),Kofa National Wildlife Refuge,KNW,,2,,,AZ,,,,33.2077,-114.19875,,,,
5,AZ-KNW04,Horse Tank 2 (lower),Kofa National Wildlife Refuge,KNW,,2,,,AZ,,,,33.21127,-114.20506,,,,
5,AZ-MIDDL,MIDDLE TANK,BUENOS AIRES NATIONAL WILDLIFE REFUGE,BAR,,2,,,AZ,,,,31.69016,-111.46977,,,,
5,AZ-MKLY,Minckley Pond,SAN BERNARDINO NATIONAL WILDLIFE REFUGE,SBR,,2,,,AZ,,,,31.34327952,-109.2642953,,,,
5,AZ-NO45,NO45,BUENOS AIRES NATIONAL WILDLIFE REFUGE,BAR,,2,,,AZ,,,,31.53583,-111.26576,,,,
5,AZ-RDSID,Roadside Pond,BUENOS AIRES NATIONAL WILDLIFE REFUGE,BAR,,2,,,AZ,,,,31.64197,-111.466,,,,
5,AZ-RNDHL,Roundhill #3,BUENOS AIRES NATIONAL WILDLIFE REFUGE,BAR,,2,,,AZ,,,,31.64998,-111.47178,,,,
5,AZ-ROCK,ROCK TANK,BUENOS AIRES NATIONAL WILDLIFE REFUGE,BAR,,2,,,AZ,,,,31.58463,-111.46218,,,,
,AZ-WOOD,Woodland Lake Park,Woodland Lake Park,,,,,,AZ,,,,34.12484,-109.94888,,,,
5,AZ-WPHD,WPHD,SAN BERNARDINO NATIONAL WILDLIFE REFUGE,SBR,,2,,,AZ,,,,31.336,-109.272806,,,,
1,BARN,Barn,Silver Oaks Ostrich Farm,SO,Private,,Gilroy,Santa Clara,CA,,,,37.09375,-121.740349,206,Pond,Permanent,Artificial
,BARNBOR,BarnBorr,Blue Oaks Ranch Reserve,BOR,UC-Berkeley,,,Santa Clara,CA,,,,37.383361,-121.738209,,,Temporary,
1,BASSGCP,Bass,Joseph Grant County Park,GCP,Santa Clara County Parks,,Alum Rock,Santa Clara,CA,,,,37.332997,-121.702136,526,Pond,Permanent,Artificial
3,Bayou1,Bayou Gulch #1,,,Douglas County Open Space,,Castlerock,Douglas,CO,Douglas County Open Space,,,39.42852,-104.74229,1862,Pond,Permanent,Artificial
3,Bayou2,Bayou Gulch #2,,,Douglas County Open Space,,Castlerock,Douglas,CO,Douglas County Open Space,,,39.42849,-104.74213,1860,Pond,Permanent,Artificial
1,BcatRCO,Bobcat,Rancho Canada Del Oro Open Space,RCO,Santa Clara County Open Space Authority,,San Jose,Santa Clara,CA,Patrick Congdon,,4082247476,37.12702,-121.76782,380,Pond,Temporary,Artificial
1,BDPND006,BDPND006,Black Diamond Mines Regional Park,BDM,East Bay Regional Park District,,Antioch,Contra Costa,CA,Rex Caufield,,5105442756,37.951233,-121.844358,322,Pond,Temporary,Artificial
1,BDPND007,BDPND007,Black Diamond Mines Regional Park,BDM,East Bay Regional Park District,,Antioch,Contra Costa,CA,Rex Caufield,,5105442756,37.955179,-121.860529,267,Pond,Permanent,Artificial
1,BDPND009,BDPND009,Black Diamond Mines Regional Park,BDM,East Bay Regional Park District,,Antioch,Contra Costa,CA,Rex Caufield,,5105442756,37.947986,-121.884921,431,Pond,Temporary,Artificial
1,BDPND014,BDPND014,Black Diamond Mines Regional Park,BDM,East Bay Regional Park District,,Antioch,Contra Costa,CA,Rex Caufield,,5105442756,37.972779,-121.862486,120,Pond,Permanent,Artificial
1,BDPND015,BDPND015,Black Diamond Mines Regional Park,BDM,East Bay Regional Park District,,Antioch,Contra Costa,CA,Rex Caufield,,5105442756,37.933047,-121.84589,183,Pond,Permanent,Artificial
1,BDPND021,BDPND021,Black Diamond Mines Regional Park,BDM,East Bay Regional Park District,,Antioch,Contra Costa,CA,Rex Caufield,,5105442756,37.948572,-121.855369,205,Pond,Temporary,Artificial
1,BDPND025,BDPND025,Black Diamond Mines Regional Park,BDM,East Bay Regional Park District,,Antioch,Contra Costa,CA,Rex Caufield,,5105442756,37.96135,-121.833322,126,Pond,Permanent,Artificial
1,BDPND026,BDPND026,Black Diamond Mines Regional Park,BDM,East Bay Regional Park District,,Antioch,Contra Costa,CA,Rex Caufield,,5105442756,37.963175,-121.846072,155,Pond,Permanent,Artificial
1,BDPND028,BDPND028,Black Diamond Mines Regional Park,BDM,East Bay Regional Park District,,Antioch,Contra Costa,CA,Rex Caufield,,5105442756,37.962077,-121.854751,268,Pond,Semi-permanent,Artificial
1,Beaver,Beaver,Silver Oaks Ostrich Farm,SO,Private,,Gilroy,Santa Clara,CA,,,,37.088701,-121.743991,227,Pond,Permanent,Artificial
1,Big,Big Lake,Blue Oaks Ranch Reserve,BOR,UC-Berkeley,,San Jose,Santa Clara,CA,Mike Hamilton,Jeff Wilcox,4247045908,37.380341,-121.74056,538,Lake,Permanent,Artificial
,BIGJ,Big Johnson,San Antonio,SFPUC,SFPUC,,Sunol,Alameda,CA,,,,37.793611,-121.8333333,126,Pond,Permanent,Artificial
1,BigPR,Big,Palassou Ridge Open Space,PR,Santa Clara County Open Space,,San Jose,Santa Clara,CA,Patrick Congdon,,4082247476,37.023768,-121.468173,342,Pond,Permanent,Artificial
,BLA01,Bathtito,Lassen Volcanic National Park Butte Lake Area,LVNP,National Park Service,,Old Station,Lassen,CA,,,,40.56809,-121.29659,1855,Pond,Permanent,Natural
,BLA02,Bathtub,Lassen Volcanic National Park Butte Lake Area,LVNP,National Park Service,,Old Station,Lassen,CA,,,,40.56981,-121.29749,1850,Lake,Permanent,Natural
,BLA03,Duck Pond,Lassen National Forest Butte Lake Area,LNP,National Park Service,,Old Station,Lassen,CA,,,,40.57697,-121.28174,1823,Pond,Semi-permanent,Natural
3,Blanca1,Blanca Wetlands #1,Blanca Wetlands,,BLM,,Alamosa,Alamosa,CO,BLM,,,37.5661,-105.672,2305,Pond,Permanent,Artificial
3,Blanca2,Blanca Wetlands #2,Blanca Wetlands,,BLM,,Alamosa,Alamosa,CO,BLM,,,37.57064,-105.67097,2304,Pond,Temporary,Natural
3,Blanca3,Blanca Wetlands #3,Blanca Wetlands,,BLM,,Alamosa,Alamosa,CO,BLM,,,37.55655,-105.67979,2306,Pond,Permanent,Artificial
3,Blanca4,Blanca Wetlands #4,Blanca Wetlands,,BLM,,Alamosa,Alamosa,CO,BLM,,,37.55432,-105.70071,2302,Pond,Permanent,Artificial
3,Blanca5,Blanca Wetlands #5,Blanca Wetlands,,BLM,,Alamosa,Alamosa,CO,BLM,,,37.54464,-105.71697,2306,Pond,Permanent,Artificial
3,Blanca6,Blanca Wetlands #6,Blanca Wetlands,,BLM,,Alamosa,Alamosa,CO,BLM,,,37.54199,-105.72644,2306,Pond,Permanent,Artificial
1,BLNRCO,Blue North,Rancho Canada Del Oro Open Space,RCO,Santa Clara County Open Space Authority,,San Jose,Santa Clara,CA,Patrick Congdon,,4082247476,37.144218,-121.794289,406,Pond,Temporary,Artificial
1,BLSRCO,Blue South,Rancho Canada Del Oro Open Space,RCO,Santa Clara County Open Space Authority,,San Jose,Santa Clara,CA,Patrick Congdon,,4082247476,37.136353,-121.763068,223,Pond,Semi-permanent,Artificial
1,BNPND001,BNPND001,Briones Regional Park,BN,East Bay Regional Park District,,Lafayette,Contra Costa,CA,Denise Defreese,,9253703020,37.961364,-122.1408929,146,Pond,Permanent,Artificial
1,BNPND002,BNPND002,Briones Regional Park,BN,East Bay Regional Park District,,Lafayette,Contra Costa,CA,Denise Defreese,,9253703020,37.94566,-122.133961,336,Pond,Permanent,Artificial
1,BNPND005,BNPND005,Briones Regional Park,BN,East Bay Regional Park District,,Lafayette,Contra Costa,CA,Denise Defreese,,9253703020,37.9456526,-122.1420267,358,Pond,Permanent,Natural
1,BNPND011,BNPND011,Briones Regional Park,BN,East Bay Regional Park District,,Lafayette,Contra Costa,CA,Denise Defreese,,9253703020,37.939738,-122.139813,300,Pond,Permanent,Artificial
1,BNPND019,BNPND019,Briones Regional Park,BN,East Bay Regional Park District,,Lafayette,Contra Costa,CA,Denise Defreese,,9253703020,37.9394493,-122.1651161,338,Pond,Temporary,Artificial
1,BNPND020,BNPND020,Briones Regional Park,BN,East Bay Regional Park District,,Lafayette,Contra Costa,CA,Denise Defreese,,9253703020,37.936122,-122.162995,341,Pond,Semi-permanent,Artificial
1,BNPND024,BNPND024,Briones Regional Park,BN,East Bay Regional Park District,,Lafayette,Contra Costa,CA,Denise Defreese,,9253703020,37.927101,-122.161295,210,Pond,Permanent,Artificial
1,BOGCP,Blue Oak,Joseph Grant County Park,GCP,Santa Clara County Parks,,Alum Rock,Santa Clara,CA,,,,37.364346,-121.72864,541,Pond,Semi-permanent,Artificial
1,BoobRCO,Boob,Rancho Canada Del Oro Open Space,RCO,Santa Clara County Open Space Authority,,San Jose,Santa Clara,CA,Patrick Congdon,,4082247476,37.118578,-121.750182,225,Pond,Permanent,Artificial
,BOVEE,Bovee Pond,Lassen National Forest Silver Lake Area,LVNP,National Forrest Service,,Chester,Shasta,CA,,,,40.49892,-121.15715,1972,Pond,Permanent,Natural
,BOWERMAN,Bowerman Pond,,,,,,,OR,,,,44.101023,-123.017077,,,,
,BRAZIL,Brazil,,,,,,,,,,,,,,,,
1,BRUSHGCP,Brush,Joseph Grant County Park,GCP,Santa Clara County Parks,,Alum Rock,Santa Clara,CA,,,,37.326442,-121.72066,573,Pond,Temporary,Artificial
3,Buffalo,Buffalo Gulch,,,Boulder County Parks and Open Space,,Boulder,Boulder,CO,Boulder County Parks and Open Space,,,39.94187,-105.1058,1617,Stream,Temporary,Artificial
3,BuffaloP,Buffalo Gulch Pond,,,Boulder County Parks and Open Space,,Broomfield,Boulder,CO,Boulder County Parks and Open Space,,,39.93897,-105.10809,1617,Pond,Semi-permanent,Artificial
1,BWRCO,Barbed Wire,Rancho Canada Del Oro Open Space,RCO,Santa Clara County Open Space Authority,,San Jose,Santa Clara,CA,Patrick Congdon,,4082247476,37.13357,-121.76933,429,Pond,Temporary,Artificial
1,C09,C-09,Henry Coe State Park,HC,California State Parks,,Gilroy,Santa Clara,CA,Tim Reilly,,8316239456,37.136386,-121.434016,687,Pond,Permanent,Artificial
1,C1LV,C1,Los Vaqueros,LV,Contra Costa Water District,,San Ramon,Contra Costa,CA,Jeff Alvarez,,9164410322,37.85948702,-121.6888531,96,Pond,Permanent,Artificial
1,C20,C-20,Henry Coe State Park,HC,California State Parks,,Gilroy,Santa Clara,CA,Tim Reilly,,8316239456,37.145266,-121.476384,520,Pond,Permanent,Artificial
1,C21,C-21,Henry Coe State Park,HC,California State Parks,,Gilroy,Santa Clara,CA,Tim Reilly,,8316239456,37.1548563,-121.4812466,581,Pond,Permanent,Artificial
1,C30,Long Dam Pond,Henry Coe State Park,HC,California State Parks,,Gilroy,Santa Clara,CA,Tim Reilly,,8316239456,37.076426,-121.4092572,540,Pond,Temporary,Artificial
1,C35,Rodeo,Henry Coe State Park,HC,California State Parks,,Gilroy,Santa Clara,CA,Tim Reilly,,8316239456,37.092296,-121.417685,624,Pond,Permanent,Artificial
1,C48,C-48,Henry Coe State Park,HC,California State Parks,,Gilroy,Santa Clara,CA,Tim Reilly,,8316239456,37.111294,-121.440577,620,Pond,Temporary,Artificial
1,C49,C-49,Henry Coe State Park,HC,California State Parks,,Gilroy,Santa Clara,CA,Tim Reilly,,8316239456,37.110695,-121.44268,595,Pond,Permanent,Artificial
1,C57,C-57,Henry Coe State Park,HC,California State Parks,,Gilroy,Santa Clara,CA,Tim Reilly,,8316239456,37.114189,-121.437929,719,Pond,Temporary,Artificial
1,C60,Nice Pond,Henry Coe State Park,HC,California State Parks,,Gilroy,Santa Clara,CA,Tim Reilly,,8316239456,37.0590732,-121.4096686,583,Pond,Temporary,Artificial
1,C62,C-62,Henry Coe State Park,HC,California State Parks,,Gilroy,Santa Clara,CA,Tim Reilly,,8316239456,37.076989,-121.464058,270,Pond,Temporary,Artificial
1,C68,Fish Pond,Henry Coe State Park,HC,California State Parks,,Gilroy,Santa Clara,CA,Tim Reilly,,8316239456,37.063776,-121.446925,304,Pond,Permanent,Artificial
,CA-10393,Finally,Lassen Volcanic National Park,LVNP,National Park Service,,,Shasta,CA,,,,40.5806722,-121.1036871,,,,
,CA-30N72,CA-30N72,Lassen National Forest,LNP,National Forrest Service,,,Shasta,CA,,,,40.43211,-121.20733,2013,,,
6,CA-ANGEL,Angelo Station,South Fork Eel River,,,,Laytonville,Mendocino,CA,,,,39.683,-123.658,,,,
6,CA-BARTS,Barts Pond,Hopland Research and Extension Center,HREC,,,,,CA,,,,39.000547,-123.098123,,,,
9,CA-BGR,Bear Gulch Reservoir,,,,,,,CA,,,,,,,,,
1,CABINBOR,Cabin,Blue Oak Ranch Reserve,BOR,UC-Berkeley,,Alum Rock,Santa Clara,CA,"Mike Hamilton
Mike Hamilton",Jeff Wilcox,4247045908,37.379497,-121.731727,565,Pond,Permanent,Artificial
5,CA-BIT01,BIT01,Bitter Creek National Wildlife Refuge,BIT,,8,,,CA,,,,34.93558,-119.35486,,,,
1,CA-BN003,BNPND003,Briones Regional Park,BN,East Bay Regional Park District,,Lafayette,Contra Costa,CA,Denise Defreese,,9253703020,37.94433,-122.133747,338,Pond,Permanent,Artificial
1,CA-BN004,BNPND004,Briones Regional Park,BN,East Bay Regional Park District,,Lafayette,Contra Costa,CA,Denise Defreese,,9253703020,37.9435248,-122.1410001,368,Pond,Permanent,Artificial
1,CA-BN016,BNPND016,Briones Regional Park,BN,East Bay Regional Park District,,Lafayette,Contra Costa,CA,Denise Defreese,,9253703020,37.931326,-122.16635,232,Pond,Permanent,Artificial
1,CA-BN017,BNPND017,Briones Regional Park,BN,East Bay Regional Park District,,Lafayette,Contra Costa,CA,Denise Defreese,,9253703020,37.9382444,-122.1701709,339,Pond,Permanent,Artificial
1,CA-BN018,BNPND018,Briones Regional Park,BN,East Bay Regional Park District,,Lafayette,Contra Costa,CA,Denise Defreese,,9253703020,37.939884,-122.167815,301,Pond,Temporary,Artificial
,CA-BOVEE,CA-Bovee,Lassen National Forest Silver Lake Area,LNF,National Park Service,,Susanville,Shasta,CA,,,,40.499035,-121.157065,1952,Pond,Permanent,Natural
9,CA-BTS,Bear Trap Springs,,,,,,,CA,,,,39.4096,-120.95474,,,,
9,CA-CAL,CAL,,,,,,,CA,,,,,,,,,
1,CA-CascT,Cascade Top,Bechtel Ranch,,,,,Santa Clara,CA,,,,37.10992,-121.725831,,,,
5,CA-CLR01,Willow Creek,Clear Lake National Wildlife Refuge,CLR,,8,,,CA,,,,41.89966,-121.04353,,,,
5,CA-CLS02,CLS02,Colusa National Wildlife Refuge,CLS,,8,,,CA,,,,39.16759,-122.04527,,,,
6,CA-CoonN,Coon North,Hopland Research and Extension Center,HREC,,,,,CA,,,,39.0178,-123.0743,,,,
,CA-CoonS,Coon South,Hopland Research and Extension Center,HREC,,,,,CA,,,,39.01625,-123.07521,,,,
,CA-CORTE,Corte Madera,Corte Madera Elementary School,,,,,,CA,,,,37.36675059,-122.2117961,,,,
,CA-DEAD,Dead Lake,,,,,,,CA,,,,41.786542,-124.230653,,,,
5,CA-DEL02,DEL02,Delevan National Wildlife Refuge,DEL,,8,,,CA,,,,39.27943,-122.08846,,,,
9,CA-DMH,Dead Mans Hole,,,,,,,CA,,,,,,,,,
6,CA-DormP,Dorm Pond,Hopland Research and Extension Center,HREC,,,,,CA,,,,39.9987,-123.0743,,,,
1,CA-EDWD,Edwards,Joseph Grant County Park,GCP,Santa Clara County Parks,,Alum Rock,Santa Clara,CA,,,,37.345252,-121.73947,658,Pond,Temporary,Artificial
5,CA-ELS01,Calabassas Pond,Ellicott Slough National Wildlife Refuge,ELS,,8,,Santa Cruz County,CA,,,,36.95658,-121.84551,58,,,
5,CA-ELS02,Ellicott Slough 001,Ellicott Slough National Wildlife Refuge,ELS,,8,,Santa Cruz County,CA,,,,36.923229,-121.839706,55,,,
,CA-ELS03,Prospect Pond,Ellicott Slough National Wildlife Refuge,ELS,,8,,Santa Cruz County,CA,,,,36.92131,-121.836398,48,,,
5,CA-ESL01,Ellicott Slough 001,Ellicott Slough National Wildlife Refuge,ELS,,8,,Santa Cruz County,CA,,,,36.923229,-121.839706,,,,
6,CA-ESTSD,Hog Lake,Hopland Research and Extension Center,HREC,,,,,CA,,,,39.03151703,-123.0786667,,,,
,CA-FREEW,Freeway Sketch,,,,,,,,,,,,,,,,
1,CA-GLAKE,Grant Lake,Joseph Grant County Park,GCP,Santa Clara County Parks,,SAN JOSE,Santa Clara,CA,,,,37.34445,-121.71701,483,Lake,Permanent,Artificial
5,CA-GND01,Snakebite Pond,Guadalupe Nipomo Dunes National Wildlife Refuge,GND,,8,,,CA,,,,34.99781,-120.60057,,,,
5,CA-GND02,"4 Pond Valley, West Pond",Guadalupe Nipomo Dunes National Wildlife Refuge,GND,,8,,,CA,,,,34.99419,-120.60273,,,,
5,CA-GND03,3-Pond West,Guadalupe Nipomo Dunes National Wildlife Refuge,GND,,8,,,CA,,,,34.99673,-120.603,,,,
5,CA-GND04,4-Pond East,Guadalupe Nipomo Dunes National Wildlife Refuge,GND,,8,,,CA,,,,34.99203,-120.5978,,,,
9,CA-GQP,Gravel Quarry Pit,,,,,,,CA,,,,,,,,,
,CA-HAY,Hay Meadow,Lassen National Forest Hay Meadow Area,LNP,National Forrest Service,,,Shasta,CA,,,,40.437008,-121.19176,1961,,,
5,CA-HMB01,HMB01,Humboldt Bay National Wildlife Refuge,HMB,,8,,,CA,,,,40.676944,-124.208333,,,,
5,CA-HMB05,HMB05,Humboldt Bay National Wildlife Refuge,HMB,,8,,,CA,,,,40.67731,-124.20633,,,,
5,CA-HMBBK,Bucktail,Humboldt Bay National Wildlife Refuge,HMB,,8,,,CA,,,,40.70732518,-122.8433809,,,,
5,CA-HMBUH,Upper Hamilton Pond,Humboldt Bay National Wildlife Refuge,HMB,,8,,,CA,,,,40.68936408,-122.859128,,,,
6,CA-HOG,Hog Pond,Hopland Research and Extension Center,HREC,,,,,CA,,,,39.03151703,-123.0786667,,,,
6,CA-HOG-E,Hog Pond East,Hopland Research and Extension Center,HREC,,,,,CA,,,,39.03151703,-123.0786667,,,,
6,CA-HOG-W,Hog Pond West,Hopland Research and Extension Center,HREC,,,,,CA,,,,39.03151703,-123.0786667,,,,
,CA-HOLID,Holiday Lake Meadow,,,,,,,CA,,,,37.148855,-121.595641,821,Pond,Temporary,Artificial
,CA-JL1PF,Pitchfork,Lassen Volcanic National Park,LVNP,National Park Service,,,Shasta,CA,,,,40.44703,-121.2899,,,,
6,CA-KING,King Pond,Hopland Research and Extension Center,HREC,,,,,CA,,,,39.04497,-123.10658,,,,
5,CA-KLF01,KLF01,Kalamath Marsh National Wildlife Refuge,KLF,,8,,,CA,,,,42.93326,-121.23401,,,,
5,CA-KLF02,KLF02,Kalamath Marsh National Wildlife Refuge,KLF,,8,,,CA,,,,42.93545,-121.74032,,,,
5,CA-KRN01,KRN01,Kern National Wildlife Refuge,KRN,,8,,,CA,,,,35.71833,-119.58922,,,,
5,CA-KRN02,Goose Canal,Kern National Wildlife Refuge,KRN,,8,,,CA,,,,35.718263,-119.626139,,,,
5,CA-KRN03,KERN 03,Kern National Wildlife Refuge,KRN,,8,,,CA,,,,35.784,-119.58896,,,,
5,CA-KRN05,KERN05,Kern National Wildlife Refuge,KRN,,8,,,CA,,,,35.76181,-119.58373,,,,
5,CA-KRN06,Demostration Ponds,Kern National Wildlife Refuge,KRN,,8,,,CA,,,,35.760203,-119.580213,,,,
1,CA-LEDSM,Ledson Marsh,Annadel State Park,,,,,,CA,,,,38.4088,-122.5996,,,,
5,CA-LKL04,LKL04,Lower Klamath National Wildlife Refuge,LKL,,8,,,CA,,,,41.99756,-121.83445,,,,
,CA-LOWD,Lowden Pond,,,,,,,CA,,,,40.693011,-122.857846,,,,
2,CA-LVBW1,BW1,Lassen Volcanic National Park,LVNP,National Park Service,,Lassen,Shasta,CA,,,,40.50534821,-121.4378281,2014,Pond,Permanent,Natural
2,CA-LVBW2,BW2,Lassen Volcanic National Park,LVNP,National Park Service,,Lassen,Shasta,CA,,,,40.504221,-121.434575,2002,Pond,Permanent,Natural
2,CA-LVBW3,BW3,Lassen Volcanic National Park,LVNP,National Park Service,,Lassen,Shasta,CA,,,,40.5126,-121.4472,,Wetland,Permanent,Natural
7,CA-LVNP,Lily Pond,Lassen Volcanic National Park,LVNP,National Park Service,,,Shasta,CA,,,,40.539796,-121.562467,,,,
1,CA-MANZA,Manzanita,Joseph Grant County Park,GCP,Santa Clara County Parks,,Alum Rock,Santa Clara,CA,Mike Maximovich,,4082626980,37.311793,-121.657324,820,Pond,Permanent,Artificial
1,CA-MARNo,Marichich North,Briones Regional Park,BN,East Bay Regional Park District,,Lafayette,Contra Costa,CA,Denise Defreese,,9253703020,37.944378,-122.133747,,Pond,,
1,CA-MARSo,Marichich South,Briones Regional Park,BN,East Bay Regional Park District,,Lafayette,Contra Costa,CA,Denise Defreese,,9253703020,37.9456822,-122.133861,,Pond,,
1,CA-MCCRY,McCreery Lake,Joseph Grant County Park,GCP,Santa Clara County Parks,,SAN JOSE,Santa Clara,CA,,,,37.34184,-121.71176,504,Lake,Permanent,Artificial
5,CA-MDC01,Hamilton Tract,Modoc National Wildlife Refuge,MDC,,8,,,CA,,,,41.443521,-120.496557,,,,
5,CA-MER01,MER01,Merced National Wildlife Refuge,MER,,8,,,CA,,,,37.17504,-120.62276,,,,
1,CampgrCL,Campground,Coyote Lake County Park,CL,Santa Clara County Parks,,San Martin,Santa Clara,CA,Coyote Lake Office,,4088427800,37.076497,-121.528692,164,Pond,Permanent,Artificial
1,CA-MT001,MTPND001 Fox Pond,Morgan Territories Regional Park,MT,East Bay Regional Park District,,Blackhawk,Contra Costa,CA,Rex Caufield,,5105442756,37.82110214,-121.7941895,,,,
1,CA-MT015,MTPND015,Morgan Territories Regional Park,MT,East Bay Regional Park District,,Blackhawk,Contra Costa,CA,Rex Caufield,,5105442756,37.86263,-121.80107,,,,
1,CA-MUD65,MUD65,East Bay Municipal Utility District San Pablo Reservoir,MUD,East Bay Municipal Utility District,,Orinda Village,Contra Costa,CA,,,5102872038,37.925558,-122.231172,99,Pond,Semi-permanent,Artificial
1,CA-MUD66,MUD66,East Bay Municipal Utility District San Pablo Reservoir,MUD,East Bay Municipal Utility District,,Orinda Village,Contra Costa,CA,,,5102872038,37.921472,-122.226876,135,Pond,Permanent,Artificial
1,CA-MUD67,MUD67,East Bay Municipal Utility District San Pablo Reservoir,MUD,East Bay Municipal Utility District,,Orinda Village,Contra Costa,CA,,,5102872038,37.922114,-122.2181168,157,Pond,Permanent,Artificial
,CA-MUD68,MUD68,East Bay Municipal Utility District San Pablo Reservoir,MUD,East Bay Municipal Utility District,,,Contra Costa,CA,,,,,,,Pond,,
,CA-MUDLK,,,,,,,,CA,,,,,,,,,
1,CA-OH017,OHPND017,Ohlone Regional Wilderness,OH,East Bay Regional Park District,,Fremont,Alameda,CA,Kelly Barrington,,5105443246,37.5199134,-121.7148359,1001,Pond,Permanent,Artificial
1,CA-OH024,OHPND024,Ohlone Regional Wilderness,OH,East Bay Regional Park District,,Fremont,Alameda,CA,Kelly Barrington,,5105443246,37.5130958,-121.7311203,1057,Pond,Permanent,Artificial
1,CA-PEAR,Pearson's Pond,Chris Pearson,,,,Portola,San Mateo,CA,Rory Doolin,,,37.35302,-122.2565,367,Pond,Permanent,Artificial
6,CA-PEPR1,Pepperwood #1 Double Pond East,Pepperwood Reserve,,,,,,CA,,,,38.58421786,-122.6997124,,,,
,CA-PEPR3,Pepperwood 3,Pepperwood Reserve,,,,,,CA,,,,38.58254,-122.69753,,,,
6,CA-PEPR4,Turtle Pond (Pepperwood 4),Pepperwood Reserve,,,,,,CA,,,,38.57519,-122.70714,,,,
10,CA-PICO,Pico Pond,Pico Ranch,,,,,Santa Clara,CA,,,,37.091189,-121.736447,,,,
1,CA-PIG,Pig Pond,Joseph Grant County Park,GCP,Santa Clara County Parks,,Alum Rock,Santa Clara,CA,Mike Maximovich,,4082626980,37.306275,-121.674618,630,Pond,Permanent,Artificial
9,CA-PVWP1,Portola Valley East Pond 1,Corte Madera Elementary School,,,,,,CA,,,,37.363636,-122.212463,,,,
9,CA-PVWP2,Portola Valley West Pond 2,Corte Madera Elementary School,,,,,,CA,,,,37.363376,-122.212053,,,,
6,CA-PYRR1,Pyramid Reservoir 1,South Cow Mountain BLM,,,,,,CA,,,,39.04296,-123.079406,,,,
6,CA-PYRR2,Pyramid Reservior 2,South Cow Mountain BLM,,,,,,CA,,,,39.041451,-123.073511,,,,
6,CA-RICKG,Rickabough Glade,,,,,,,CA,,,,39.049309,-123.058487,,,,
6,CA-RILEY,Riley Ridge,Hopland Research and Extension Center,HREC,,,,,CA,,,,39.01276,-123.05865,,,,
1,CA-ROSEN,Rosendin Pond,Anderson Lake County Park,ALP,Santa Clara County Parks,,Morgan Hill,Santa Clara,CA,,,4083552201,37.16203,-121.620861,228,Pond,Temporary,Artificial
6,CA-RUDIK,Ruddick,,,,,Largo,Mendocino,CA,,,,39.04185,-123.10559,,,,
5,CA-SAC02,SAC02,Sacramento National Wildlife Refuge,SAC,,8,,,CA,,,,39.42335,-122.1784,,,,
1,CA-SAUS,Sausal Lake,Windy Hill Open Space Preserve,,,,Portola Valley,San Mateo,CA,,,,37.37313726,-122.2237001,,Lake,Permanent,
2,CA-SEASC,Seascape Pond,Seascape Uplands,,,,Santa Cruz,,CA,David Laabs Center for Natural Lands Management,,,36.9553,-121.869165,,Pond,,
1,Ca-SF101,SF101,San Felipe Ranch,SF,San Felipe Ranch,,San Felipe,Santa Clara,CA,Ralph Jacobsan,,,37.27991,-121.66389,483,Pond,Permanent,Artificial
1,CA-SF19,CA-SF19,San Felipe Ranch,SF,San Felipe Ranch,,San Felipe,Santa Clara,CA,RALPH JACOBSON,,,37.29215,-121.70628,650,Pond,Temporary,Artificial
1,CA-SF25,SF25,San Felipe Ranch,SF,San Felipe Ranch,,San Felipe,Santa Clara,CA,Ralph Jacobson,,,37.27568,-121.70003,643,Pond,Temporary,Artificial
1,Ca-SF30,Ca-SF30,San Felipe Ranch,SF,San Felipe Ranch,,San Felipe,Santa Clara,CA,Ralph Jacobson,,4082745303,37.29448,-121.70306,586,Pond,Permanent,Artificial
1,Ca-SF31,Ca-SF31,San Felipe Ranch,SF,San Felipe Ranch,,San Felipe,Santa Clara,Ca,Ralph Jacobson,,4082745303,37.30011,-121.7074,598,Pond,Temporary,Artificial
1,Ca-SF79,SF79,San Felipe Ranch,SF,San Felipe Ranch,,San Felipe,Santa Clara,CA,Ralph Jacobsan,,,37.28775,-121.63964,808,Pond,Semi-permanent,Artificial
1,CA-SF85,CA-SF85,San Felipe Ranch,SF,San Felipe Ranch,,SAN FELIPE,Santa Clara,CA,RALPH JACOBSON,,,37.29628,-121.65834,707,Pond,Temporary,Artificial
1,Ca-SF85a,SF85a,San Felipe Ranch,SF,San Felipe Ranch,,San Felipe,Santa Clara,CA,Ralph Jacobsan,,,37.291472,-121.66737,533,Pond,Temporary,Artificial
1,CA-SHOOT,Shooter Pond,Bechtel Ranch,,,,,Santa Clara,CA,,,,37.105144,-121.720985,,,,
1,CA-SHROM,Shroom,Palassou Ridge Open Space,PR,Santa Clara County Open Space,,San Jose,Santa Clara,CA,Patrick Congdon,,4082247476,37.108469,-121.521126,788,Pond,Permanent,Artificial
5,CA-SLW03,SLW01/02/03,Stone Lakes National Wildlife Refuge,STN,,8,,,CA,,,,38.42334,-121.43964,,,,
5,CA-SLW04,Demostration Ponds,Stone Lakes National Wildlife Refuge,STN,,8,,,CA,,,,38.369989,-121.491591,,,,
5,CA-SNAKE,Snake Lake,,,,,,Plumas,CA,,,,39.977197,-121.013884,,,,
,CA-SONOM,Sonoma County,,,,,,,CA,,,,38.69138889,-122.8169444,84,,,
1,Ca-Step,Stepitup-thepond,Pleasanton Ridge Regional Park,PLR,East Bay Regional Park District,,Pleasanton,Alameda,CA,Steve Quick,,,37.63736,-121.93732,541,Pond,Permanent,Artificial
3,Castle1,Castlewood Canyon 1,,,Douglas County Open Space,,Franktown,Douglas,CO,Douglas County Open Space,,,39.39213,-104.73561,1999,Pond,Temporary,Natural
3,Castle3,Castlewood Canyon #3,Castlewood Canyon State Park,,Castlewood Canyon State Park,,Franktown,Douglass,CO,Castlewood Canyon State Park,,,39.32384,-104.71928,2033,Pond,Permanent,Artificial
3,Castle4,Castlewood Canyon #4,Castlewood Canyon State Park,,Castlewood Canyon State Park,,Franktown,Douglas,CO,Castlewood Canyon State Park,,,39.33407,-104.73721,2010,Pond,Temporary,Artificial
6,CA-StrmH,Heron Bay,Stormwater Ponds,,,,,,CA,,,,37.675475,-122.160524,,,,
5,CA-SUT01,SUT01,Sutter National Wildlife Refuge,SUT,,8,,,CA,,,,39.14871,-122.04114,,,,
5,CA-SUT02,SUT02,Sutter National Wildlife Refuge,SUT,,8,,,CA,,,,36.06014,-121.72712,,,,
1,CA-SWIM,Swim by Pond,Bechtel Ranch,,,,,Santa Clara,CA,,,,37.104662,-121.719811,,,,
,CA-TASS,Tassajava Creek,,,,,,,CA,,,,35.37689,-120.66496,,,,
,CA-TORO,Toro Creek,,,,,,,CA,,,,35.45966,-120.79868,,,,
,CA-TROUT,TROUT GULCH RD,,,,,Aptos,Santa Cruz,CA,,,,36.999045,-121.88753,,,,
5,CA-TUL05,Tule Lake 05,Tule Lake National Wildlife Refuge,TUL,,8,,,CA,,,,41.94658,-121.561997,,,,
1,CA-UVAS,Uvas Pond,Bechtel Ranch,,,,,Santa Clara,CA,,,,37.11662,-121.736422,,,,
2,CA-VALEN,Valencia Lagoon,,,,,Rio Del Mar,Santa Cruz,CA,CALTRANS,David Laabs,,36.9729,-121.8825,,Ditch,,
1,CA-WCHP,Woodcreek High Ponds,Woodcreek High Ponds,,,,,,CA,,,,38.76222738,-121.3395575,,,,
,CDOW,CDOW,,,,,Monte Vista,San Louis Valley,CO,,,,37.57684,-106.07151,2331,Wetland,Temporary,Natural
,CDOW1,CDOW # 1,,,,,Monte Vista,San Louis Valley,CO,,,,37.57553,-106.06863,2330,Pond,Permanent,
,CDOW2,CDOW # 2,,,,,Monte Vista,San Louis Valley,CO,,,,37.57001,-106.06394,2327,Pond,Permanent,Natural
,CDOW3,CDOW # 3,,,,,,,CO,,,,37.56992,-106.06197,2325,Wetland,Temporary,Natural
,CDOW4,CDOW # 4,,,,,Monte Vista,San Louis Valley,CO,,,,37.57595,-106.05241,2325,pond,Permanent,Artificial
,CDOW5,CDOW # 5,,,,,Monte Vista,,CO,,,,37.58052,-106.09044,2312,Wetland,Permanent,Natural
1,CE03,CE-03,Henry Coe State Park,HC,California State Parks,,Gilroy,Santa Clara,CA,Tim Reilly,,8316239456,37.119072,-121.385285,534,Pond,Temporary,Artificial
1,CHDVL,ChChChChanges,Del Valle Regional Park,DVL,East Bay Regional Park District,,Livermore,Alameda,CA,Michelle Miller,,5105443141,37.61831,-121.73015,224,Pond,Temporary,Artificial
,CLEARPD,Clearpond,Cary Institute,,,,,,NY,Barbara Han,,,,,,,,
3,CO-10317,Chive,,,,,,,CO,,,,39.951877,-105.46394,2598,Pond,Temporary,
3,CO-10527,MCDB PHD Pond,,,,,,,CO,,,,40.132443,-105.262499,1682,Pond,Temporary,
3,CO-10573,Spring Pond,,,,,,,CO,Boulder Open Space,,,39.924413,-105.272071,1864,Pond,Other,Artificial
,CO-10609,Dowe Flats,,,,,Lyons,Boulder,CO,,,,40.23302,-105.24127,,Pond,Permanent,Artificial
3,CO-10744,Dog Pond,,,,,Boulder,Boulder,CO,,,,39.96447,-105.262327,1768,Pond,Semi-permanent,Artificial
3,CO-10905,Muddy Metas,,,,,,,CO,,,,40.319262,-105.605972,2659,Pond,Temporary,Natural
3,CO-10963,Old Skool Plough,,10963,,,Hygeine/Lyons,Boulder,CO,,,,40.214486,-105.178735,1593,Pond,Semi-permanent,Artificial
3,CO-11016,Sprinkler Pond,,11016,,,Longmont/Hygeine,Boulder,CO,,,,40.205072,-105.172723,1580,Pond,Permanent,Artificial
,CO-11274,Kensington Park,,,,,Longmont,Boulder,CO,,,,40.171098,-105.090777,1517,Pond,Permanent,Artificial
,CO-11300,BC's POND,,,,,Boulder,Boulder,CO,,,,40.166791,-105.192082,1567,Pond,Permanent,Artificial
3,CO-11340,Frog Pond,,,,,,Boulder,CO,,,,40.16039,-105.266507,1712,Pond,Permanent,Artificial
3,CO-11349,Happy Turtle,,11349,,,Lyons,Boulder,CO,,,,40.159365,-105.244632,1645,Pond,Permanent,Artificial
3,CO-11441,Longs Pond,,,,,Boulder,Boulder,CO,,,,40.150196,-105.190675,1559,Pond,Permanent,Artificial
3,CO-11444,Sangria,,,,,,,CO,,,,40.149816,-105.253643,,,,
3,CO-11456,Dead Bull Frog Pond,,,,,Boulder,Boulder,CO,,,,40.149268,-105.246993,1639,Pond,Permanent,Artificial
3,CO-11564,Killer,,,,,,,CO,,,,40.122018,-105.518074,3783,Pond,Permanent,Natural
3,CO-11610,Criminal Suspect,,,,,,,CO,,,,40.117927,-105.257475,,,,
,CO-11667,Meth Farm,,,,,,,CO,,,,40.108943,-105.260587,1650,Pond,Permanent,Artificial
3,CO-11767,Cheatgrass,,,,,,,CO,,,,40.07278,-105.078571,1529,Pond,Permanent,Artificial
3,CO-11807,Long Hike,,,,,,,CO,,,,40.091733,-105.55189,3099,Pond,Permanent,Natural
,CO-11843,Chicken Coop,,,,,Boulder,Boulder,CO,,,,40.06648,-105.26868,1673,Pond,Permanent,Artificial
3,CO-11871,Bong Pond,,,,,,,CO,,,,40.063114,-105.255502,1630,Pond,Permanent,Natural
3,CO-12004,Gold Hill,,,,,,,CO,,,,40.057389,-105.460502,2618,Pond,Permanent,Natural
3,CO-12229,Mosquito,,,,,,,CO,,,,40.034249,-105.121947,1576,Pond,Permanent,Artificial
3,CO-12370,Fairy Magic,,,,,,Boulder,CO,,,,40.008709,-105.542304,2948,Pond,Temporary,Natural
3,CO-12383,Campus Pond,CU Boulder,12383,CU,,Boulder,Boulder,CO,,,,,,1603,Pond,Permanent,Artificial
,CO-12392,Baseline Pond,,,,,Boulder,Boulder,CO,,,,40.000771,-105.259428,,Pond,Permanent,Artificial
3,CO-12466,Clandestine,,,,,,Boulder,CO,,,,39.988617,-105.493739,2490,Pond,Permanent,Natural
3,CO-12579,Cherryvale West,,12579,,,Boulder,Boulder,CO,,,,39.969543,-105.213509,1677,Pond,Permanent,Other
3,CO-12593,Upper Shanahan,,,,,Boulder,Boulder,CO,,,,39.965968,-105.271094,1853,Pond,Semi-permanent,Artificial
3,CO-12617,Placid Pond,,12617,,,Boulder,Boulder,CO,,,,39.959127,-105.260994,1753,Pond,Semi-permanent,Artificial
3,CO-12970,Kittipoo,,,,,,,CO,,,,39.882337,-105.500039,2767,Pond,Semi-permanent,Natural
3,CO-13530,Orange Vest,,,,,,,CO,,,,40.403848,-105.620718,,Pond,Semi-permanent,Natural
3,CO-15265,Metal  Shop,,,,,,,CO,,,,40.42262,-104.929171,,Pond,Permanent,Artificial
3,CO-16277,Hippy Horse Pond,,16277,,,Fort Collins,Larimer,CO,Private- Hippy Lady,,,40.623881,-104.978986,1557,Pond,Permanent,Artificial
3,CO-17094,Freakin' lost pond,,17094,,,Greeley,Weld,CO,,,,40.405184,-104.8513,1508,Pond,Permanent,Artificial
,CO-2029,Log Cabin,,,,,Near Aspen Park,Jeffco,CO,,,,40.050041,-105.273489,2359,Pond,Permanent,Artificial
3,CO-20781,Dobbs Reservoir,,,,,,Rio Blanco,CO,,,,39.93040636,-107.6256254,2560,Pond,Temporary,Natural
,CO-2175,Buck Wheat Pond,,,,,Westminster,Broomfield,CO,,,,39.92321,-105.01562,1587,Pond,Permanent,Artificial
3,CO-2205,Humpin Dragon Flies,,,,,,,CO,,,,39.563474,-105.287129,2556,Pond,Permanent,Natural
3,CO-2319,#15,,,,,,,CO,,,,39.548297,-105.281428,,,,
3,CO-2329,Flying J,,,,,,Jefferson,CO,,,,39.546879,-105.321793,2451,Pond,Permanent,Artificial
3,CO-2387,Peruvian Passo,,,,,,,CO,,,,39.542181,-105.259832,2380,Pond,Permanent,Artificial
3,CO-2683,RU Lazy Pond,,,,,,Jefferson,CO,,,,39.504864,-105.262321,2582,Pond,Permanent,Artificial
,CO-3PIG,Three Little Pigs,,,,,Meeker,Rio Blanco,CO,,,,40.01047,-107.88374,1998,Pond,Permanent,Artificial
5,CO-5356,Remediation Pond RMA02,Rocky Mountain Arsenal National Wildlife Refuge,RKM,,6,,,CO,Sherry Skipper,,,39.836165,-104.860054,,,,
,CO-6132,Rat Attack,,,,,Broomfield,Broomfield,CO,,,,39.948735,-105.059321,1641,Pond,Permanent,Artificial
,CO-6141,Ticky Tacky,,,,,Broomfield,Broomfield,CO,,,,39.9477,-105.04953,1639,Pond,Permanent,Artificial
,CO-6627,Field Open Space,,,,,Broomfield,Broomfield,CO,,,,39.92744,-105.06533,1621,Pond,Permanent,Artificial
,CO-6634,Duckweed,,,,,Broomfield,Broomfield,CO,,,,39.92506,-105.01724,1591,Pond,Permanent,Artificial
3,CO-6758,Bullfrog Tadpole Pond,,6758,,,North Glen,,CO,Charles (something) park,,,39.896867,-104.9947,1657,Pond,Permanent,Artificial
3,CO-6782,Not the Golf Course/Pink Algae,,,,,Westminster,,CO,,,,,,1650,Pond,Permanent,Artificial
3,CO-6790,Concrete Pond,,,,,Thomson,,CO,,,,39.892673,-104.936787,1568,Pond,Permanent,Artificial
3,CO-6819,Margarets Pond,,,,,,Open Space,CO,,,,39.886129,-105.043091,,Pond,Permanent,Other
3,CO-6868,Crappy Cattails,,,,,Thornton,,CO,,,,39.87244,-104.9539,,Pond,Permanent,Artificial
3,CO-6944,Train Wreck,,,,,,,CO,,,,39.86393,-105.222115,,,,
5,CO-7012,RMA05 Two Track,Rocky Mountain Arsenal National Wildlife Refuge,RKM,,6,,,CO,Sherry Skipper RMA 05,,,39.830853,-104.815231,1603,Pond,Permanent,Artificial
3,CO-8434,Chucks Pond,,,,,,,CO,,,,40.100529,-105.062399,1528,Pond,Permanent,Artificial
3,CO-9151,Train Whistle,,9151,,,,Jefferson,CO,,,,39.854853,-105.18957,1793,Pond,Temporary,Artificial
3,CO-9211,Land crab,,,,,,,CO,,,,39.843191,-105.199114,1755,Pond,Temporary,Artificial
3,CO-9214,Clubcrest Pond,,9214,,,,,CO,,,,39.842749,-105.100058,1600,,Permanent,
3,CO-9257,Marshall Pond,,9257,,,Aurora,,CO,,,,39.841225,-105.101092,1685,Pond,Permanent,Artificial
3,CO-9260,Friends Pond,,9260,,,Arvada,,CO,,,,39.840641,-105.101723,,Pond,Permanent,Artificial
,CO-9655,BMX Pond,,,,,Arvada,,CO,,,,39.78897,-105.11603,1659,Pond,Permanent,Artificial
5,CO-9960,Nuclear Juncus,Rocky Flats National Wildlife Refuge,9960,,6,Boulder,Boulder,CO,Rocky Flats,,,39.895499,-105.224628,1850,Pond,Permanent,Artificial
9,CO-ACK,Ackerman Pond,,,,,,,CO,,,,,,,,,
,CO-ACRES,"5,000 Acres",,,,,Buford,Rio Blanco,CO,,,,39.99994,-107.5838,2147,Pond,Permanent,Artificial
5,CO-ALM07,Alamosa NWR #7,Alamosa National Wildlife Refuge,ALM,,6,,,CO,,,,37.38968,-105.78041,,,,
3,CO-Angry,Angry Woolly,,,,,Hygeine,Boulder,CO,Gene (property overseer),,,40.156499,-105.227613,1607,Pond,Permanent,Artificial
5,CO-ARP24,Tour Loop North,Arapahoe National Wildlife Refuge,ARP,,6,,,CO,,,,40.66658,-106.33263,,,,
3,CO-BABY,Babysitters Club,,,,,,,CO,,,,39.494533,-105.217287,2404,Pond,Permanent,Artificial
,CO-BAKU,Barking Kujo,,,,,,,CO,,,,40.05505,-105.09412,1539,Pond,Permanent,Artificial
,CO-BAMA,Balloon Marsh,,,,,,,CO,,,,39.94058,-107.60059,2559,Pond,Permanent,Natural
,CO-BEEF,Beef Jerky,,,,,Boulder,Boulder,CO,,,,40.046472,-105.159627,1563,Lake,Permanent,Artificial
,CO-BENCH,Private Bench,,,,,,Larimer,CO,,,,40.845795,-105.518489,2423,Pond,Permanent,Artificial
3,CO-BICA,Bible Camp,,,,,,,CO,,,,39.884614,-105.453379,2721,,,
3,CO-BIGLK,Big Lick,,,,,,,CO,,,,40.010359,-107.625487,,,,
,CO-BUCK,Big Buck Pond,,,,,White River National Forest,Rio Blanco,CO,,,,39.9236,-107.62643,2593,Pond,Permanent,Natural
3,CO-Bull,Bull Garden,,,,,,Larimer,CO,,,,40.87755,-105.48337,2369,Pond,Permanent,Natural
,CO-BURG,Burgler Pond,Burgler Pond,,,,,Boulder,CO,,,,40.111677,-105.263172,1673,Pond,Permanent,Artificial
,CO-CAMEX,Cemex Pond,,,,,Lyons,Boulder,CO,,,,40.209432,-105.235538,1604,Pond,Permanent,Artificial
3,CO-CANON,"Canon City, CO",,,,,,,CO,,,,38.46369,-105.05146,,,,
,CO-CHUBO,Chubbywood Boy Scout Camp,,,,,,Larimer,CO,,,,40.74038,-105.50101,2295,Pond,Permanent,Natural
,CO-CLAY,Claymore Lake,,,,,,,CO,,,,40.61787,-105.15223,1571,Pond,Permanent,Artificial
,CO-COCK2,Cock 2,,,,,,Rio Blanco,CO,,,,,,2054,Pond,Permanent,Artificial
3,CO-COJU,Cow Juncus,,,,,Boulder,Booulder,CO,,,,39.93269,-105.19839,1740,Pond,Temporary,Natural
3,CO-CowSh,Cowshit Pond,,,,,Boulder,Jefferson,CO,,,,39.866965,-105.249014,1925,Pond,Temporary,Artificial
9,CO-CR23,CR23,,,,,,,CO,,,,,,,,,
3,CO-CRAIG,Museum - Craig,,,,,Craig,Moffat,CO,,,,40.512539,-107.486241,1895,Pond,Permanent,Artificial
3,CO-CREE2,Creedmore # 1,,,,,,Larimer,CO,,,,40.864048,-105.579743,2541,Pond,Permanent,Natural
3,CO-CREE3,Creedmore # 3,,,,,,,CO,,,,40.862439,-105.586163,2539,Pond,Permanent,Natural
3,CO-CREED,Creedmore # 2,,,,,,Larimer,CO,,,,40.859853,-105.589976,2552,Lake,Permanent,Natural
3,CO-CUBE,Cement Cube,,,,,Superior,Boulder,CO,,,,39.96083,-105.17553,1699,Pond,Semi-permanent,Artificial
3,CO-CUE1,CU EAST 1,,,,,Boulder,Boulder,CO,,,,40.00919,-105.24569,1609,Pond,Permanent,Artificial
3,CO-CUE2,CU EAST 2,,,,,Boulder,Boulder,CO,,,,,,1608,Lake,Permanent,Artificial
3,CO-Dee,Tweedle-Dee,,,,,Boulder,Boulder,CO,,,,,,1788,Pond,Permanent,Artificial
3,CO-DEER,Deer Island,,,,,Boulder,Boulder,CO,,,,40.04454,-105.14568,1934,Lake,Permanent,Natural
,Co-DETEN,Detention Pond,,,,,Broomfield,Broomfield,CO,,,,39.936005,-105.122921,,Pond,Permanent,Artificial
3,CO-DIORM,Dike ORM,,,,,,Routt,CO,,,,40.75277,-107.38508,3650,Pond,Permanent,Natural
,CO-DIXON,Dixon Res,,,,,Fort Collins,Larimer,CO,,,,40.549847,-105.140314,1588,Lake,Permanent,Artificial
3,CO-DONDO,Donny Darko,,,,,,Rio Blanco,CO,,,,40.017459,-107.612384,2436,Pond,Temporary,Natural
3,CO-DOTS,Dotson's,,,,,,Larimer,CO,,,,40.624618,-105.359393,2214,Pond,Temporary,Artificial
9,CO-DOUD,Dougherty Draws,Doudy Draws,,,,,,CO,,,,39.930801,-105.256942,,,,
,CO-DUCK,Baby Duck,,,,,Boulder,Boulder,CO,,,,40.081382,-105.260235,1622,Pond,Permanent,Artificial
3,CO-Dum,Tweedle Dum,,,,,Boulder,Boulder,CO,,,,39.93021,-105.22462,1791,Pond,Permanent,Artificial
3,CO-EERIE,Eerie Place,,,,,EERIE,,CO,,,,40.024234,-105.09083,1630,Pond,Permanent,Artificial
3,CO-ELK,ELK poop,,,,,,Routt,CO,,,,40.124034,-107.293641,3150,Pond,Permanent,
3,CO-FFRC,Firefighter Rockclimber,,,,,Boulder,Boulder,CO,,,,,,,Pond,Permanent,Artificial
,CO-FORLE,For Lease,,,,,Boulder,Boulder,CO,,,,40.012593,-105.22226,1605,Pond,Permanent,Artificial
3,CO-FREE,Free Kittens,,,,,,Larimer,CO,,,,40.639812,-105.310458,2215,Pond,Permanent,Natural
3,CO-FRLO,Friday Love,,,,,Superior,Boulder,CO,,,,39.92752,-105.15359,1689,Lake,Permanent,Artificial
,CO-FUNT,OSMP FUN TIMES,,,,,,,CO,,,,40.0448,-105.15069,1554,Pond,Permanent,Natural
3,CO-FUZZ,Fuzzy Dragonflies,,,,,Superior,Boulder,CO,,,,39.95929,-105.17905,,,,
3,CO-GAZEC,Gazebo Cat,,,CU East?,,Boulder,Boulder,CO,,,,39.98305,-105.23531,1638,Pond,Permanent,Artificial
3,CO-GBH2,GBH2,,,,,Boulder,Boulder,CO,,,,39.9608,-105.23705,3255,Pond,Permanent,Artificial
,CO-GOAT,The Goat,,,,,Longmont,Boulder,CO,,,,40.172599,-105.228238,1609,Pond,Permanent,Natural
3,CO-GOGR,Golfing Grandma,Omni Interlocken Golf Course,,Omni Interlocken Golf Course,,Broomfield,Broomfield,CO,Larry Collins,,3036350380,39.92566,-105.12267,1652,Pond,Permanent,Artificial
3,CO-GOLDE,Golden Eagle,Flatirons Mall,,housing development,,Superior,Boulder,CO,,,,39.92998,-105.13766,1657,Pond,Permanent,Artificial
3,CO-GOLDR,Golden Retriever,,,,,,,CO,,,,40.1649,-105.20097,,,,
,CO-GOLF,Mini Golf,,,,,Broomfiled,,CO,,,,39.952249,-105.04771,1624,Pond,Permanent,Artificial
,CO-GOOSE,Goose Pond,,,,,,,CO,,,,,,,,,
,CO-GRAND,Rio Grande,,,,,Broomfield,,CO,,,,39.939196,-105.108765,1611,Pond,Permanent,Other
,CO-GRAVY,Gravy,,,,,Meeker,Rio Blanco,CO,,,,40.1727,-107.93461,2154,Pond,Permanent,Artificial
3,CO-GREEN,Green Gloves,,,,,Broomfield,Broomfield,CO,,,,39.921368,-105.109243,1649,Pond,Permanent,Artificial
,CO-GRELE,Greenlee Wildlife,,,,,Lafayette,,CO,,,,39.998017,-105.113175,1640,Pond,Permanent,Natural
,CO-GUS,GUS Pond,,,,,,,CO,,,,40.0195,-107.99503,1853,Pond,Permanent,
,CO-Hay,Hay Bale,,,,,,,CO,,,,40.14923,-107.9621,2040,Pond,Permanent,Artificial
3,CO-HIKE,Bicho hike,,,,,,Rio Blanco,CO,,,,39.937335,-107.606661,2570,Pond,Permanent,Natural
,CO-HIOG,Hiogie Pond,,,,,Meeker,Rio Blanco,CO,,,,40.01812,-107.97176,1813,Pond,Permanent,Artificial
,CO-HOFLY,Horse Fly,,,,,Meeker,,CO,,,,40.01817,-107.99732,1820,Pond,Permanent,Artificial
3,CO-HOLE,Hole Two,,,,,Superior,Boulder,CO,,,,39.92126,-105.13844,1684,Pond,Permanent,Artificial
,CO-ICOW,Interrupting Cow,,,,,,,CO,,,,39.99088,-107.9887,1921,Pond,Permanent,Artificial
,CO-ISLAN,Island Paradise,,,,,Boulder,Boulder,CO,,,,40.084379,-105.25693,1616,Pond,Permanent,Artificial
3,CO-JAZZ,Jazzmin,,,,,Boulder,Boulder,CO,,,,39.96561,-105.22923,1665,Pond,Temporary,Artificial
,CO-LARE,Last Resort Pond,,,,,Meeker,Rio Blanco,CO,,,,40.14637,-107.79775,2308,Pond,Permanent,Natural
3,CO-LAVA,Lake Valley / North Rim,,,,,,Boulder,CO,Bob Zieganhagen,rlziegan@comcast.net,,40.087562,-105.265715,1624,Lake,Permanent,Artificial
3,CO-lawnc,Lawn Chair,,,,,,,CO,,,,39.496219,-105.223548,,Pond,Permanent,Artificial
3,CO-LBnch,Little Bench,,,,,,,CO,,,,39.499723,-105.241678,2498,Pond,Permanent,Artificial
3,CO-LODU,Lone Duck,,,,,,,CO,,,,39.965042,-105.517245,2541,Pond,Permanent,Artificial
,CO-LOST,Middle Lost Lake,,,,,,Larimer,CO,,,,40.846939,-105.524652,2401,Pond,Permanent,Natural
3,CO-LOWDY,Lowdy Park,,,,,,,CO,,,,39.715794,-104.882625,,,,
,CO-LPAD,Lily Pad,,,,,Laporte,,CO,,,,40.620104,-105.129442,1543,Pond,Permanent,Natural
3,CO-Lunch,Lunch Pond/Kristin Pond III,Kristin Lopez Ranch,,,,Lyons,Boulder,CO,Kristin,,,40.167918,-105.239422,1624,Pond,Permanent,Artificial
3,CO-LYNX,Lynx Creek,,,,,Buford,Rio Blanco,CO,,,,40.03369343,-107.260363,2916,Pond,Permanent,Natural
3,CO-Magpi,Magpie Meander,,,,,Fort Collins,Larimer,CO,Jennifer Shanahan,,,40.604141,-105.08744,1518,Pond,Permanent,Artificial
3,CO-MARIO,Mario,,,,,,Routt,CO,,,,40.21339,-107.27091,2385,Pond,Permanent,Natural
3,CO-METAL,Metal Daisies,,,,,Boulder,Boulder,CO,,,,39.95887,-105.17063,1691,Ditch,Temporary,Artificial
3,CO-Mons,Monster Pond,,,,,Superior,Boulder,CO,OSMP,,,39.93517,-105.17326,1745,Pond,Temporary,Artificial
3,CO-MONST,Monster Bull,,,,,,,CO,,,,40.010359,-107.625487,,,,
,CO-MOON,Crescent Moon Pond,,,,,,,CO,,,,40.0034,-107.98319,1902,Pond,Permanent,Artificial
,CO-MOSHI,Mosquito Shithole,,,,,White River,Rio Blanco,CO,,,,39.94137,-107.63084,2457,Pond,Permanent,Natural
3,CO-Mud,Mud Lake,East Bay Municipal Utility District San Pablo Reservoir,MUD,East Bay Municipal Utility District,,,,CO,,,,39.977612,-105.509696,2555,Lake,Permanent,Natural
3,CO-MUSK,Three Musketeers,,,,,Superior,Boulder,CO,,,,39.93922,-105.14742,1649,Pond,Permanent,Artificial
3,CO-MYBA,My Bad,,,,,,Larimer,CO,,,,40.842766,-105.52631,2443,Pond,Permanent,Natural
3,CO-NIP,Nipple Pond,,,,,,,CO,,,,40.846053,-107.101676,3450,Pond,Permanent,Natural
3,CO-ORRM,ORR Mooring,,,Private,,,Larimer,CO,,,,40.846617,-105.505998,2420,Lake,Permanent,Natural
3,CO-Oxyg,Oxygen Pond,,,,,,,CO,,,,39.50335,-105.263832,2573,Pond,Permanent,Artificial
,CO-PETE,Peterson Lake,,,,,,,CO,,,,,,,Lake,Permanent,Natural
3,COPO,Cold Pond,,,,,Steamboat,,CO,,,,40.40945137,-106.8072792,2125,,,
3,CO-PooD,Poo Diving Kristin Pond,Kristin Lopez Ranch,,,,Lyons,Boulder,CO,Kristin,,,40.167596,-105.235738,,Pond,Permanent,Natural
3,CO-PRO,Proshop Pond,,,,,Louisville,Boulder,CO,,,,39.922399,-105.131329,1678,Pond,Permanent,Artificial
3,CO-PUBSF,Public Safety,,,,,,,CO,,,,,,,,,
3,CO-PUDD,Brown Puddle,,,,,,Rio Blanco,CO,,,,39.944576,-107.628471,2412,Pond,Temporary,Natural
,CO-PUMP,Large Pump,,,,,,,CO,,,,40.000581,-105.189214,1610,Pond,Permanent,Other
3,CO-PUTT,Putting Green,,,,,,Larimer,CO,,,,40.84461,-105.510506,2417,Pond,Permanent,Artificial
,CO-RAIN,Rainbow Falls,,,,,,Douglas,CO,,,,39.13611,-105.10651,2313,Pond,Permanent,Natural
1,CORALGCP,Coral,Joseph Grant County Park,GCP,Santa Clara County Parks,,Alum Rock,Santa Clara,CA,,,,37.319829,-121.705488,441,Pond,Temporary,Artificial
3,CO-RBEND,Riverbend Pond,,,,,Fort Collins,Larimer,CO,,,,40.567976,-105.023704,,Pond,Permanent,Artificial
,CO-REDF,Red Feather,,,,,,larimer,CO,,,,40.796251,-105.558426,,Lake,Permanent,Artificial
3,CO-RESTS,Rest Stop Sanctuary,,,,,,,CO,,,,40.497774,-107.374611,,,,
3,CO-RFD2,RFD2,Rocky Flats,,,,,Jefferson,CO,Amy,,,39.871302,-105.169377,,Pond,Permanent,Artificial
,CO-RIOB,Rio Blanco Lake,,,,,,Rio Blanco,CO,,,,40.08862,-108.20461,1759,Lake,Permanent,Artificial
5,CO-RMA01,RMA01 Upper Derby Pond,Rocky Mountain Arsenal National Wildlife Refuge,RKM,,6,,,CO,,,,39.818268,-104.833997,1612,Pond,Temporary,Natural
5,CO-RMA02,Remediation Pond RMA02,Rocky Mountain Arsenal National Wildlife Refuge,RMK,,6,,,CO,,,,,,,,,
5,CO-RMA03,RMA03 The Road Toad,Rocky Mountain Arsenal National Wildlife Refuge,RKM,,6,,,CO,Sherry Skipper,,,39.827232,-104.81064,1607,Pool,Temporary,Artificial
5,CO-RMA04,Baldeagleshallows RMA04,Rocky Mountain Arsenal National Wildlife Refuge,RKM,,6,,,CO,Sherry Skipper RMA-04,,,39.81228,-104.797982,1615,Pond,Permanent,Artificial
3,CO-ROCKR,Rock Roof,,,,,,,CO,,,,,,,,,
,CO-ROPE2,Ropey 2,,,,,,,CO,,,,40.0135,-107.98363,1908,Pond,Permanent,Artificial
,CO-ROPEY,Ropey Pond,,,,,Meeker,,CO,,,,40.00479,-107.98354,1901,Pond,Permanent,Artificial
3,CO-RULA,RU Lazy Pond,,,,,,,CO,,,,39.504864,-105.262321,,,,
3,CO-SAFE,Safeway Sludgepond,,,,,,,CO,,,,39.930843,-105.14774,,Pond,Permanent,Artificial
,CO-SAND,Sandy Cat Pond,,,,,White River National Forest,Rio Blanco,CO,,,,40.01736,-107.61238,2439,Pond,Permanent,Artificial
,CO-SANDY,Sandy's Pond,,,,,,,CO,,,,39.952141,-105.059854,1614,Pond,Permanent,Other
,CO-SAW?,Sawhill ?,,,,,Boulder,Boulder,CO,,,,40.035427,-105.203675,1578,Pond,Permanent,Other
,CO-SAW16,Sawhill # 16,,,,,,Boulder,CO,,,,40.042296,-105.189041,1569,Pond,Permanent,Artificial
,CO-SAW7,Sawhill # 7,,,,,Boulder,Boulder,CO,,,,40.039836,-105.191611,1572,Pond,Permanent,Other
,CO-SCAT,Sleepy Cat,,,,,Sleepy Cat Ponds,Rio Blanco,CO,,,,39.94831,-107.7048,2064,Pond,Permanent,Natural
3,CO-SHSL,Sheep Slaughter,,,,,,Routt,CO,,,,40.77051604,-107.1560488,2523,Pond,Permanent,Other
,CO-SICK,Sick Old Lady Pond,,,,,,,CO,,,,40.40118,-105.17213,1568,Pond,Temporary,Artificial
3,CO-SILT,Silt Baby,,,,,Silt,Garfield,CO,,,,39.564864,-107.682654,1721,Pond,Permanent,Artificial
3,CO-SNAP,Snapping Cesspond,CU South Campus,,,,Boulder,Boulder,CO,,,,39.98473,-105.23459,,Lake,Permanent,Artificial
,CO-SORO,Sorority Pond,,,,,Gunbarrel,Boulder,CO,,,,40.0441,-105.21667,1595,Pond,Permanent,Artificial
3,CO-Spark,Colorado State Park Station,,,,,,,CO,,,,39.50486,-105.390038,,,,
3,CO-SPONG,Spongebob,,,CU,,Boulder,Boulder,CO,,,,39.98187,-105.23109,,Pond,Permanent,Artificial
3,CO-Sterr,Sterry Lake,,,,,Buford,Rio Blanco,CO,,,,39.929227,-107.612983,2624,Lake,Permanent,Natural
,CO-STINK,Stinky Beaver Pond,,,,,,,CO,,,,40.0364,-107.59441,2459,Pond,Permanent,Natural
3,CO-SUMM,Summer Sault,,,,,Superior,Broomfield,CO,,,,39.93644,-105.13474,1643,Pond,Permanent,Artificial
3,CO-SWISS,Swiss Family Robinson,,,,,,,CO,,,,40.173482,-105.238137,1632,Pond,Permanent,Artificial
3,CO-TANT,Tantra Park,,,,,,Boulder,CO,,,,39.98037,-105.2373,1628,Pond,Permanent,Artificial
3,CO-TEAL,Teal Barn,,,,,Boulder,Boulder,CO,,,,40.13721,-105.20856,1582,Pond,Permanent,Artificial
3,CO-TEDR,Teenage Dream,,,,,,Boulder,CO,,,,39.93925,-105.13907,,Pond,Permanent,Artificial
,CO-TELL5,Teller Lake # 5,,,,,Boulder,Boulder,CO,,,,40.03921,-105.1406,1566,Pond,Permanent,Artificial
3,CO-Tenni,Tennis-ee,,,CU South Campus,,Boulder,Boulder,CO,,,,39.97842,-105.23137,1649,Pond,Permanent,Artificial
3,CO-TMAD,Tadpole Madness/Kristin,Kristin Lopez Ranch,,,,,Longmont,CO,,,,40.168978,-105.237923,,,,
,CO-TOAD,Carries Toads,,,,,Broomfield,,CO,,,,39.952141,-105.059854,1636,Pond,Permanent,Artificial
3,CO-TROUG,Horse Trough,,,OSMP & leased to Carrie,,Boulder,Boulder,CO,,,,39.923406,-105.168011,1618,Pond,Temporary,Artificial
3,CO-TWCA,Two Canoe,,,,,,,CO,,,,39.539876,-105.247389,2333,Pond,Permanent,
3,CO-UGDU,Ugly Duckling,,,,,Superior,Boulder,CO,,,,39.92896,-105.13141,1657,Pond,Permanent,Artificial
,CO-UNDE,Underhills Historic,,,,,Ft. Collins,Larimer,CO,,,,40.516524,-105.084243,1519,Pond,Permanent,Artificial
3,CO-Upper,Upper D2 Pond,,,,,,,CO,,,,39.871302,-105.169377,,,,
3,CO-VAIL,Vail Resorts,,,,,Superior,Boulder,CO,,,,39.92489,-105.11313,1646,Pond,Permanent,Artificial
3,CO-VIVA,Viva Peru,,,,,,,CO,,,,40.216333,-107.268326,2350,Pond,Permanent,Artificial
3,CO-WANE,Waneka Reservoir,,,,,Lafayette,,CO,,,,39.99474,-105.11212,,Lake,Permanent,Artificial
3,CO-WESU,We Suck,,,,,,Larimer,CO,,,,40.619116,-105.309562,,Pond,Permanent,Other
3,CO-WILSO,Wilson Reservoir,,,,,,,CO,,,,40.312623,-107.766304,1919,Lake,,
9,CO-Wind,Windsor Pond,,,,,,,CO,,,,,,,,,
,CO-WIND1,Windy Bill's # 1,,,,,White River National Forest,Rio Blanco,CO,,,,40.039573,-107.57556,2504,Pond,Permanent,Artificial
,CO-WIND2,Windy Bill's # 2,,,,,White River,Rio Blanco,CO,,,,40.038805,-107.576936,2504,Pond,Permanent,Artificial
3,CO-Winde,Lake Windemere,Moffat County,,,,,,CO,,,,40.517562,-106.983409,,,,
3,CO-WOWA,Woodwards,,,,,Rio Blanco,Rio Blanco,CO,,,,39.745613,-107.944872,2222,Pond,Permanent,Artificial
1,COWPMUD,Cow Poop,East Bay Municipal Utility District San Pablo Reservoir,MUD,East Bay Municipal Utility District,,Orinda Village,Contra Costa,CA,,,5102872038,37.919475,-122.246917,235,Pond,Temporary,Artificial
3,CO-ZEPO,Ze Pond,,,,,Superior,,CO,,,,39.93925,-105.13937,1650,Pond,Permanent,Artificial
1,CratRCO,Crater Pond,Rancho Canada Del Oro Open Space,RCO,Santa Clara County Open Space Authority,,San Jose,Santa Clara,CA,Patrick Congdon,,4082247476,37.113382,-121.75253,214,Pond,Temporary,Artificial
1,CSPND013,CSPND013,Carquinez Strait Regional Shoreline,CS,East Bay Regional Park District,,Luzon,Contra Costa,CA,Bill Nichols,,9252280112,38.017149,-122.21444,100,Pond,Permanent,Artificial
1,CTTLMUD,Cattail,East Bay Municipal Utility District San Pablo Reservoir,MUD,East Bay Municipal Utility District,,Orinda Village,Contra Costa,CA,,,5102872038,37.906054,-122.211284,99,Pond,Temporary,Artificial
1,CulvRCO,Culvert,Rancho Canada Del Oro Open Space,RCO,Santa Clara County Open Space Authority,,San Jose,Santa Clara,CA,Patrick Congdon,,4082247476,37.125456,-121.751293,241,Pond,Permanent,Artificial
1,D10LV,D10,Los Vaqueros,LV,Contra Costa Water District,,San Ramon,Contra Costa,CA,Jeff Alvarez,,9164410322,37.841595,-121.704602,80,Pond,Temporary,Artificial
1,D1LV,D1,Los Vaqueros,LV,Contra Costa Water District,,San Ramon,Contra Costa,CA,Jeff Alvarez,,9164410322,37.848416,-121.691219,70,Pond,Permanent,Artificial
1,D2LV,D2,Los Vaqueros,LV,Contra Costa Water District,,San Ramon,Contra Costa,CA,Jeff Alvarez,,9164410322,37.84377,-121.70338,71,Pond,Permanent,Artificial
3,D6-02,D6-02,,,OSMP,,Boulder,Boulder,CO,OSMP,,,40.06388,-105.19772,1587,Ditch,Temporary,Artificial
3,Dawson,Dawson Butte Ranch,,,Douglas County Open Space,,,Douglas,CO,Douglas County Open Space,,,39.28391,-104.9348,2010,Pond,Permanent,Artificial
,DERSH,Dersh Pond,,,,,,,CA,,,,,,,,,
1,DFlatGCP,Dutch Flat,Joseph Grant County Park,GCP,Santa Clara County Parks,,Alum Rock,Santa Clara,CA,Mike Maximovich,,4082626980,37.30856,-121.715817,579,Pond,Permanent,Artificial
1,DFPND001,DFPND001,Diablo Foothills Regional Park,DF,East Bay Regional Park District,,Alamo,Contra Costa,CA,Sharon Saffas,,9259458244,37.878408,-121.996422,216,Pond,Permanent,Artificial
1,DFPND009,DFPND009 Hazard Pond,Diablo Foothills Regional Park,DF,East Bay Regional Park District,,Alamo,Contra Costa,CA,Sharon Saffas,,9259458244,37.872504,-122.011572,126,Pond,Semi-permanent,Artificial
1,DGNFLY,Dragonfly,Henry Coe State Park,HC,California State Parks,,Gilroy,Santa Clara,CA,Tim Reilly,,8316239456,37.13874,-121.37502,277,Pond,Temporary,Artificial
1,DH1,Dublin Hills #1,Dublin Hills Regional Park,DH,East Bay Regional Park District,,Dublin,Alameda,CA,Steve Quick,,9259311335,37.707494,-121.96992,274,Pond,Temporary,Artificial
1,DH2,Dublin Hills #2,Dublin Hills Regional Park,DH,East Bay Regional Park District,,Dublin,Alameda,CA,Steve Quick,,9259311335,37.707182,-121.96884,271,Pond,Temporary,Artificial
1,DH3,Dublin Hills #3,Dublin Hills Regional Park,DH,East Bay Regional Park District,,Dublin,Alameda,CA,Steve Quick,,9259311335,37.713237,-121.97549,261,Pond,Temporary,Artificial
,DM07,Near Summit Lake,Lassen Volcanic National Park Near Summit Lake,LNF,National Park Service,,Chester,Shasta,CA,,,,40.495829,-121.425551,2039,Pond,Permanent,Natural
3,DontSho,Don’t Shoot Pond,,,Private,,,Jefferson,CO,Private,,,39.9103,-105.25443,1860,Pond,Temporary,Artificial
3,Donut,Donut Pond,,,Private,,Superior,Broomfield,CO,Private,,,39.94072,-105.15761,1693,Pond,Permanent,Artificial
1,Dowdy,Dowdy,Henry Coe State Park,HC,California State Parks,,Gilroy,Santa Clara,CA,Tim Reilly,,8316239456,37.112586,-121.355927,493,Pond,Permanent,Artificial
1,DR02,DR02,Driscoll Ranch - La Honda Creek Regional Open Space,DR,Midpeninsula Regional Open Space District,,La Honda,San Mateo,CA,Julie Andersen,,6506911200,37.334949,-122.275175,256,Pond,Permanent,Artificial
1,DR03,DR03,Driscoll Ranch - La honda Creek Open Space Preserve,DR,Midpeninsula Regional Open Space District,,La Honda,San Mateo,CA,Julie Andersen,,6506911200,37.32689597,-122.2772755,191,Pond,Permanent,Artificial
1,DR04,DR04,Driscoll Ranch - La Honda Creek Regional Open Space,DR,Midpeninsula Regional Open Space District,,La Honda,San Mateo,CA,Julie Andersen,,6506911200,37.343307,-122.283436,326,Pond,Permanent,Artificial
1,DR05,DR05,Driscoll Ranch - La Honda Creek Regional Open Space,DR,Midpeninsula Regional Open Space District,,La Honda,San Mateo,CA,Julie Andersen,,6506911200,37.336642,-122.28731,250,Pond,Permanent,Artificial
1,DR08,DR08,Driscoll Ranch - La Honda Creek Regional Open Space,DR,Midpeninsula Regional Open Space District,,La Honda,San Mateo,CA,Julie Andersen,,6506911200,37.34963,-122.29857,322,Pond,Temporary,Artificial
1,DR09,DR09,Driscoll Ranch - La Honda Creek Regional Open Space,DR,Midpeninsula Regional Open Space District,,La Honda,San Mateo,CA,Julie Andersen,,6506911200,37.35241,-122.29612,365,Pond,Permanent,Artificial
1,DR10,DR10,Driscoll Ranch - La Honda Creek Regional Open Space,DR,Midpeninsula Regional Open Space District,,La Honda,San Mateo,CA,Julie Andersen,,6506911200,37.35283671,-122.305352,276,Pond,Permanent,Artificial
1,DR12,DR12,Driscoll Ranch - La Honda Creek Regional Open Space,DR,Midpeninsula Regional Open Space District,,La Honda,San Mateo,CA,Julie Andersen,,6506911200,37.34793768,-122.3096743,218,Pond,Permanent,Artificial
1,DR14,DR14,Driscoll Ranch - La Honda Creek Regional Open Space,DR,Midpeninsula Regional Open Space District,,La Honda,San Mateo,CA,Julie Andersen,,6506911200,37.34492722,-122.3040777,289,Pond,Permanent,Artificial
1,DR15,DR15,Driscoll Ranch - La Honda Creek Regional Open Space,DR,Midpeninsula Regional Open Space District,,La Honda,San Mateo,CA,Julie Andersen,,6506911200,37.34302731,-122.3041695,278,Pond,Permanent,Artificial
1,DR17,DR17,Driscoll Ranch - La Honda Creek Regional Open Space,DR,Midpeninsula Regional Open Space District,,La Honda,San Mateo,CA,Julie Andersen,,6506911200,37.33970591,-122.3073835,331,Pond,Permanent,Artificial
1,DR19,DR19 Upper Turtle,Driscoll Ranch - La Honda Creek Regional Open Space,DR,Midpeninsula Regional Open Space District,,La Honda,San Mateo,CA,Julie Andersen,,6506911200,37.32885,-122.286028,194,Pond,Permanent,Artificial
1,DR20,DR20 Lower Turtle,Driscoll Ranch - La Honda Creek Regional Open Space,DR,Midpeninsula Regional Open Space District,,La Honda,San Mateo,CA,Julie Andersen,,6506911200,37.327422,-122.28715,185,Pond,Permanent,Artificial
1,DrLdPR,Drug Lord,Palassou Ridge Open Space,PR,Santa Clara County Open Space,,San Jose,Santa Clara,CA,Patrick Congdon,,4082247476,37.096982,-121.510877,674,Pond,Permanent,Artificial
1,DRVL,Deer Valley,Joseph Grant County Park,GCP,Santa Clara County Parks,,Alum Rock,Santa Clara,CA,,,,37.359786,-121.698716,735,Pond,Semi-permanent,Natural
1,DVPND?,DVPND?,Del Valle Regional Park,DVL,East Bay Regional Park District,,Livermore,Alameda,CA,Michelle Miller,,5105443141,37.59233,-121.69008,291,Pond,Permanent,Artificial
1,DVPND001,DVPND001,Del Valle Regional Park,DVL,East Bay Regional Park District,,Livermore,Alameda,CA,Michelle Miller,,5105443141,37.584037,-121.681211,245,Pond,Semi-permanent,Artificial
1,DVPND002,DVPND002,Del Valle Regional Park,DVL,East Bay Regional Park District,,Livermore,Alameda,CA,Michelle Miller,,5105443141,37.583451,-121.684008,230,Pond,Permanent,Artificial
1,DVPND003,DVPND003,Del Valle Regional Park,DVL,East Bay Regional Park District,,Livermore,Alameda,CA,Michelle Miller,,5105443141,37.584052,-121.68586,225,Pond,Permanent,Artificial
1,DVPND004,DVPND004,Del Valle Regional Park,DVL,East Bay Regional Park District,,Livermore,Alameda,CA,Michelle Miller,,5105443141,37.586818,-121.682878,246,Pond,Semi-permanent,Artificial
1,DVPND006,DVPND006,Del Valle Regional Park,DVL,East Bay Regional Park District,,Livermore,Alameda,CA,Michelle Miller,,5105443141,37.593758,-121.704266,285,Pond,Temporary,Artificial
1,DVPND008,DVPND008,Del Valle Regional Park,DVL,East Bay Regional Park District,,Livermore,Alameda,CA,Michelle Miller,,5105443141,37.597922,-121.703851,299,Pond,Semi-permanent,Artificial
1,DVPND011,DVPND011,Del Valle Regional Park,DVL,East Bay Regional Park District,,Livermore,Alameda,CA,Michelle Miller,,5105443141,37.593575,-121.690249,301,Pond,Permanent,Artificial
1,DVPND013,DVPND013,Del Valle Regional Park,DVL,East Bay Regional Park District,,Livermore,Alameda,CA,Michelle Miller,,5105443141,37.595262,-121.690284,315,Pond,Temporary,Artificial
1,DVPND017,DVPND017,Del Valle Regional Park,DVL,East Bay Regional Park District,,Livermore,Alameda,CA,Michelle Miller,,5105443141,37.593534,-121.706862,259,Pond,Semi-permanent,Artificial
1,DVPND021,DVPND021,Del Valle Regional Park,DVL,East Bay Regional Park District,,Livermore,Alameda,CA,Michelle Miller,,5105443141,37.593493,-121.701365,275,Pond,Semi-permanent,Artificial
1,DVPND022,DVPND022,Del Valle Regional Park,DVL,East Bay Regional Park District,,Livermore,Alameda,CA,Michelle Miller,,5105443141,37.595709,-121.686752,302,Pond,Semi-permanent,Artificial
1,E1LV,E1,Los Vaqueros,LV,Contra Costa Water District,,San Ramon,Contra Costa,CA,Jeff Alvarez,,9164410322,37.83764904,-121.6944787,65,Pond,Permanent,Artificial
1,E3LV,E3,Los Vaqueros,LV,Contra Costa Water District,,San Ramon,Contra Costa,CA,Jeff Alvarez,,9164410322,37.83302,-121.69619,97,Pond,Permanent,Artificial
1,E4LV,E4,Los Vaqueros,LV,Contra Costa Water District,,San Ramon,Contra Costa,CA,Jeff Alvarez,,9164410322,37.83161,-121.69132,82,Pond,Permanent,Artificial
1,EAGLEGCP,Eagle Lake,Joseph Grant County Park,GCP,Santa Clara County Parks,,Alum Rock,Santa Clara,CA,Mike Maximovich,,4082626980,37.30824,-121.67817,634,Pond,Permanent,Artificial
,EASTTWIN,EASTTWIN,BLUEHOLE,,,,,,,,,,,,,,,
3,Eggl3,Eggleston #3,,,OSMP,,Boulder,Boulder,CO,OSMP,,,39.92734,-105.20765,1755,Pond,Semi-permanent,Artificial
3,Eggl4,Eggleston 4,,,"OSMP, private",,Boulder,Boulder,CO,"OSMP, private",,,39.93517,-105.22258,1791,Lake,Permanent,Artificial
,ELA01,Bootleg Reservoir,Lassen National Forest Eagle Lake Area,LNF,National Forrest Service,,Halls Flat,Shasta,CA,,,,40.754661,-121.30613,1695,Pond,Permanent,Artificial
,ELA02,Ballard Reservoir,Lassen National Forest Eagle Lake Area,LNF,National Forrest Service,,Halls Flat,Shasta,CA,,,,40.745889,-121.291641,1710,Pond,Permanent,Natural
,ELA03,Dug Out,Lassen National Forest Eagle Lake Area,LNF,National Forrest Service,,Halls Flat,Shasta,CA,,,,40.73084,-121.29219,1721,Pond,Temporary,Artificial
,ELA04,Swains Hole,Lassen National Forest Eagle Lake Area,LNF,National Forrest Service,,Halls Flat,Shasta,CA,,,,40.68062,-121.27102,1621,Pond,Permanent,Natural
,ELA05,Poison Lake,Lassen National Forest Eagle Lake Area,LNF,National Forrest Service,,Halls Flat,Shasta,CA,,,,40.663218,-121.208337,1698,Wetland,Semi-permanent,Natural
3,ELKH,Elk Head Reservoir Overflow,,,,,Craig,,CO,,,,40.563739,-107.373565,1947,Lake,Temporary,Artificial
,ELSPRO,Ellicott prospect,Ellicott Slough National Wildlife Refuge,ELS,Ca Fish and game,8,Santa cruz,Santa Cruz County,CA,,,,36.92305,-121.838333,45,Pond,Temporary,Artificial
,ELSPROSP,Ellicot Slough Prospect Pond,Ellicott Slough National Wildlife Refuge,ELS,,8,Santa Cruz,Santa Cruz County,CA,,,,36.92305,-121.838333,,,,
3,Ertl2,Ertl Pond 2,Ertl Conservation Easement,,OSMP,,Boulder,Boulder,CO,OSMP,,,40.04646,-105.15538,1558,Lake,Permanent,Natural
3,Ertl3,Ertl Pond 3,Ertl Conservation Easement,,OSMP,,Boulder,Boulder,CO,OSMP,,,40.04473,-105.15701,1559,Pond,Permanent,Natural
3,Ertl4,Ertl Pond 4,Ertl Conservation Easement,,OSMP,,Boulder,Boulder,CO,OSMP,,,40.04527,-105.15462,1553,Pond,Permanent,Natural
3,Ertl8,Ertl Pond 8,Ertl Conservation Easement,,OSMP,,Boulder,Boulder,CO,OSMP,,,40.04686,-105.14997,1556,Pond,Permanent,Artificial
3,ErtlWM,ERTL - Wetland Marsh,ERTl Conservation Easement,,OSMP,,Boulder,Boulder,CO,OSMP,,,40.04521,-105.15311,1555,Wetland,Temporary,Natural
3,F4-01,F4-01,,,OSMP,,Boulder,Boulder,CO,OSMP,,,40.03132,-105.23883,1613,Ditch,Temporary,Artificial
1,F5LV,F5,Los Vaqueros,LV,Contra Costa Water District,,San Ramon,Contra Costa,CA,Jeff Alvarez,,9164410322,37.80452,-121.71156,249,Pond,Permanent,Artificial
1,F6LV,F6,Los Vaqueros,LV,Contra Costa Water District,,San Ramon,Contra Costa,CA,Jeff Alvarez,,9164410322,37.80153,-121.71608,205,Pond,Permanent,Artificial
1,F8LV,F8,Los Vaqueros,LV,Contra Costa Water District,,San Ramon,Contra Costa,CA,Jeff Alvarez,,9164410322,37.80135,-121.73163,173,Pond,Permanent,Artificial
1,F9LV,F9,Los Vaqueros,LV,Contra Costa Water District,,San Ramon,Contra Costa,CA,Jeff Alvarez,,9164410322,37.799933,-121.721743,238,Pond,Permanent,Artificial
,FANOCREK,Fanocreek,,,,,Beaverton,Washington,OR,,,,45.466865,-122.790213,,,,
,FFNA,Foster Floodplain,Foster Floodplain Natural Area,,,,,,OR,Laura Guderyahn,,,45.473417,-122.54899,,,,
1,FigCR,Figeroa,Calero Reservoir County Park,CR,Santa Clara County Parks,,San Jose,Santa Clara,CA,Calero Park Office,,4082683883,37.171842,-121.761911,159,Pond,Permanent,Artificial
3,Film,Film Pond,,,Private,,Denver,Jefferson,CO,Private,,,39.57171,-105.11561,1757,Pond,Permanent,Artificial
2,FishCamp,Fish Camp Pond,Calero Reservoir County Park,CR,Santa Clara County Parks,,San Jose,Santa Clara,CA,Calero Park Office,,4082683883,37.165959,-121.780824,252,Pond,Permanent,Artificial
,FLA75,No Coffee,Lassen National Forest Fleischmann Lake Area,LNF,National Forest Service,,Chester,Plumas,CA,,,,40.39679,-121.30508,1633,Pond,Semi-permanent,Natural
,FLA76,Cameron Meadows,Lassen National Forest Fleischmann Lake Area,LNF,National Forest Service,,Chester,Plumas,CA,,,,40.38075,-121.2989,1626,Lake,Permanent,Artificial
5,FL-LWD05,LWD05,Lake Woodruff National Wildlife Refuge,LWD,,4,,,FL,,,,29.03522,-81.36997,,,,
5,FL-SMK,SMK,St. Marks National Wildlife Refuge,SMK,,4,,,FL,,,,,,,,,
5,FL-SMK03,SMK03,St. Marks National Wildlife Refuge,SMK,,4,,,FL,,,,30.00946,-84.41889,,,,
5,FL-SMK04,SMK04,St. Marks National Wildlife Refuge,SMK,,4,,,FL,,,,30.057627,-84.427868,,,,
1,FROG,Frog,Silver Oaks Ostrich Farm,SO,Private,,Gilroy,Santa Clara,CA,,,,37.085614,-121.739561,294,Pond,Permanent,Artificial
1,G2LV,G2,Los Vaqueros,LV,Contra Costa Water District,,San Ramon,Contra Costa,CA,Jeff Alvarez,,9164410322,37.791316,-121.726755,288,Pond,Temporary,Artificial
1,G3LV,G3,Los Vaqueros,LV,Contra Costa Water District,,San Ramon,Contra Costa,CA,Jeff Alvarez,,9164410322,37.77664,-121.730694,259,Pond,Permanent,Artificial
3,G5-06,G5-06,,,OSMP,,Boulder,Boulder,CO,OSMP,,,40.02439,-105.21499,1591,Ditch,Temporary,Artificial
1,G5LV,G5,Los Vaqueros,LV,Contra Costa Water District,,San Ramon,Contra Costa,CA,Jeff Alvarez,,9164410322,37.77731,-121.72082,277,Pond,Permanent,Artificial
1,G7LV,G7,Los Vaqueros,LV,Contra Costa Water District,,San Ramon,Contra Costa,CA,Jeff Alvarez,,9164410322,37.77664,-121.732367,239,Pond,Permanent,Artificial
5,GA-SAV06,SAV06,SAVANNAH NATIONAL WILDLIFE REFUGE,SAV,,4,,,GA,,,,32.160194,-81.15006,,,,
5,GA-SAV07,SAV07,SAVANNAH NATIONAL WILDLIFE REFUGE,SAV,,4,,,GA,,,,32.1935,-81.08175,,,,
2,GDLP,Guadalupe Pond,Almaden Quicksilver,AQS,Santa Clara County Parks,,San Jose,Santa Clara,CA,,,,37.19739,-121.87159,232,Pond,Temporary,Artificial
1,GDPND001,GDPND001,Garin/Dry Creek Pioneer Regional Park,GD,East Bay Regional Park District,,Union City,Alameda,CA,Ron Mueller,,5105822206,37.609228,-122.012123,52,Pond,Permanent,Artificial
1,GDPND002,GDPND002,Garin/Dry Creek Pioneer Regional Park,GD,East Bay Regional Park District,,Union City,Alameda,CA,Ron Mueller,,5105822206,37.613654,-121.988937,292,Pond,Semi-permanent,Artificial
1,GDPND004,GDPND004,Garin/Dry Creek Pioneer Regional Park,GD,East Bay Regional Park District,,Union City,Alameda,CA,Ron Mueller,,5105822206,37.611846,-122.004401,160,Pond,Permanent,Artificial
1,GDPND005,GDPND005,Garin/Dry Creek Pioneer Regional Park,GD,East Bay Regional Park District,,Union City,Alameda,CA,Ron Mueller,,5105822206,37.622541,-122.000243,314,Pond,Permanent,Artificial
1,GDPND006,GDPND006,Garin/Dry Creek Pioneer Regional Park,GD,East Bay Regional Park District,,Union City,Alameda,CA,Ron Mueller,,5105822206,37.624493,-122.004644,322,Pond,Permanent,Artificial
1,GDPND008,GDPND008,Garin/Dry Creek Pioneer Regional Park,GD,East Bay Regional Park District,,Union City,Alameda,CA,Ron Mueller,,5105822206,37.642965,-122.04048,209,Pond,Semi-permanent,Artificial
1,GDPND009,GDPND009,Garin/Dry Creek Pioneer Regional Park,GD,East Bay Regional Park District,,Union City,Alameda,CA,Ron Mueller,,5105822206,37.635227,-122.024623,125,Pond,Temporary,Natural
1,GDPND010,Jordan Pond,Garin/Dry Creek Pioneer Regional Park,GD,East Bay Regional Park District,,Union City,Alameda,CA,Ron Mueller,,5105822206,37.624696,-122.027212,100,Pond,Permanent,Artificial
1,GDPND013,GDPND013,Garin/Dry Creek Pioneer Regional Park,GD,East Bay Regional Park District,,Union City,Alameda,CA,Ron Mueller,,5105822206,37.61872,-121.999159,255,Pond,Temporary,Artificial
1,GDPND014,GDPND014,Garin/Dry Creek Pioneer Regional Park,GD,East Bay Regional Park District,,Union City,Alameda,CA,Ron Mueller,,5105822206,37.629083,-122.011868,276,Pond,Semi-permanent,Artificial
1,GDPND015,GDPND015,Garin/Dry Creek Pioneer Regional Park,GD,East Bay Regional Park District,,Union City,Alameda,CA,Ron Mueller,,5105822206,37.616342,-122.006985,131,Pond,Temporary,Artificial
3,Glendale,Glendale Farm,,,Douglas County Open Space,,Castlerock,Douglas,CO,Douglas County Open Space,,,39.48723,-104.86887,1923,Pond,Temporary,Natural
1,GLORGCP,Glorious,Joseph Grant County Park,GCP,Santa Clara County Parks,,Alum Rock,Santa Clara,CA,,,,37.32029,-121.67296,679,Pond,Permanent,Artificial
,GOLLUM,GOLLUM,BLUEHOLE,,,,,,,,,,,,,,,
1,GRAMPBOR,Gramps,Blue Oaks Ranch Reserve,BOR,UC-Berkeley,,Alum Rock,Santa Clara,CA,Mike Hamilton,Jeff Wilcox,4247045908,37.375156,-121.72784,559,Pond,Permanent,Artificial
1,GRNRCO,Green,Rancho Canada Del Oro Open Space,RCO,Santa Clara County Open Space Authority,,San Jose,Santa Clara,CA,Patrick Congdon,,4082247476,37.133109,-121.778178,259,Lake,Permanent,Artificial
1,H1BLV,H1B,Los Vaqueros,LV,Contra Costa Water District,,San Ramon,Contra Costa,CA,Jeff Alvarez,,9164410322,37.780497,-121.762277,409,Pond,Semi-permanent,Artificial
1,H1LV,H1,Los Vaqueros,LV,Contra Costa Water District,,San Ramon,Contra Costa,CA,Jeff Alvarez,,9164410322,37.78009,-121.76174,404,Pond,Permanent,Artificial
3,H5-01,H5-01,,,OSMP,,Boulder,Boulder,CO,OSMP,,,40.00026,-105.2191,1610,Wetland,Temporary,Natural
3,Hasapo,Hair Salon Pond,,,,,,,CO,,,,,,,Pond,Permanent,Artificial
1,HDNCRN,Hidden,Carnegie State Vehicular Recreational Area,CRN,California State Parks,,Livermore,Alameda,CA,Clint Eisholz,,9254557873,37.617439,-121.590578,591,Pond,Permanent,Artificial
1,HERONGCP,Heron,Joseph Grant County Park,GCP,Santa Clara County Parks,,Alum Rock,Santa Clara,CA,,,,37.341255,-121.736408,123,Pond,Permanent,Artificial
1,HIDDEN,Hidden,Silver Oaks Ostrich Farm,SO,Private,,Gilroy,Santa Clara,CA,,,,37.089006,-121.739668,261,Pond,Permanent,Artificial
3,Higel1,Higel SWA #1,Higel SWA,,CDOW,,Alamosa,Alamosa,CO,Kirk Navo,,7195876906,37.56171,-105.99002,2316,Pond,Permanent,Artificial
3,Higel2,Higel SWA #2,Higel SWA,,CDOW,,Alamosa,Alamosa,CO,Kirk Navo,,7195876906,37.56165,-105.99023,2316,Pond,Permanent,Artificial
3,Higel3,Higel SWA #3,Higel SWA,,CDOW,,Alamosa,Alamosa,CO,Kirk Navo,,7195876906,37.56136,-105.99014,2316,Pond,Permanent,Artificial
,HMA01,Big Hay Meadow,Lassen National Forest Hay Meadow Area,LNF,National Forest Service,,Susanville,Plumas,CA,,,,40.429815,-121.181765,1932,Lake,Permanent,Natural
,HMA02,Little Hay,Lassen National Forest Hay Meadow Area,LNF,National Forest Service,,Susanville,Plumas,CA,,,,40.437008,-121.19176,1972,Lake,Permanent,Natural
1,HMDSP,Hidden MDSP,Mount Diablo State Park,MDS,California State Parks,,Diablo,Contra Costa,CA,Roland Gaebert,Cyndy Schafer,9256732895,37.862093,-121.910357,98,Pond,Permanent,Natural
3,Horse,Horse Pond,,,Private,,Boulder,Boulder,CO,Private,,,39.94675,-105.24154,1701,Pond,Semi-permanent,Artificial
1,HouseCL,House,Coyote Lake County Park,CL,Santa Clara County Parks,,San Martin,Santa Clara,CA,Coyote Lake Office,,4088427800,37.110613,-121.56893,244,Pond,Permanent,Artificial
3,humic,Humic Pond,,,private,,Boulder,Boulder,CO,private,,,39.94329,-105.24242,1718,Pond,Permanent,Artificial
1,HYFLDCL,Hayfield,Coyote Lake County Park,CL,Santa Clara County Parks,,San Martin,Santa Clara,CA,Coyote Lake Office,,4088427800,37.104009,-121.573902,134,Pond,Permanent,Natural
1,I10LV,I10,Los Vaqueros,LV,Contra Costa Water District,,San Ramon,Contra Costa,CA,Jeff Alvarez,,9164410322,37.78861,-121.75909,375,Pond,Permanent,Artificial
1,I2LV,I2,Los Vaqueros,LV,Contra Costa Water District,,San Ramon,Contra Costa,CA,Jeff Alvarez,,9164410322,37.81709,-121.78767,600,Pond,Permanent,Artificial
1,I4LV,I4,Los Vaqueros,LV,Contra Costa Water District,,San Ramon,Contra Costa,CA,Jeff Alvarez,,9164410322,37.813755,-121.77356,588,Pond,Permanent,Artificial
3,I5-03,I5-03,,,OSMP,,Boulder,Boulder,CO,OSMP,,,39.99092,-105.21936,1630,Pond,Temporary,Natural
3,I5-09,I5-09,,,OSMP,,Boulder,Boulder,Co,OSMP,,,39.99928,-105.21311,1619,Wetland,Temporary,Natural
3,I5-24,I5-24,,,OSMP,,Boulder,Boulder,CO,OSMP,,,39.98647,-105.2204,1628,Pond,Temporary,Artificial
1,I8LV,I8,Los Vaqueros,LV,Contra Costa Water District,,San Ramon,Contra Costa,CA,Jeff Alvarez,,9164410322,37.804953,-121.769689,346,Pond,Permanent,Artificial
5,IA-UNS02,Pool A,Union Slough National Wildlife Refuge,UNS,,3,,,IA,,,,43.23317,-94.1606,,,,
5,IA-UPM01,Frenchtown,Upper Mississippi River NF&WR,UPM,,3,,,IA,,,,42.84701,-91.10682,,,,
8,IA-WLC,"Welch Lake Complex, Okoboji",,suth/lan,,,,,IA,,,,,,,,,
9,ID-CASSW,Cassies Watering,,,,,,,ID,,,,,,,,,
9,ID-GBH,GBH Marsh,,,,,,,ID,,,,39.960109,-105.237766,,,,
9,ID-LOWP,Lower Pond,,,,,,,ID,,,,,,,,,
5,ID-MD17C,MND17C,Minidoka National Wildlife Refuge,MND,,1,,,ID,,,,42.68804,-113.40794,,,,
5,ID-MND17,Blue Lake Cove,Minidoka National Wildlife Refuge,MND,,1,,,ID,,,,42.68804,-113.40794,,,,
9,ID-UPP,Upper Pond,,,,,,,ID,,,,,,,,,
5,IL-CRO02,CRO02,Crab Orchard National Wildlife Refuge,CRO,,3,,,IL,,,,37.66875,-89.06694,,,,
5,IL-CRO05,SR148 ditchd,Crab Orchard National Wildlife Refuge,CRO,,3,,,IL,,,,37.67746,-89.02221,,,,
5,IL-CRO07,CRO07,Crab Orchard National Wildlife Refuge,CRO,,3,,,IL,,,,37.66484,-89.03919,,,,
5,IL-CRO09,CRO09,Crab Orchard National Wildlife Refuge,CRO,,3,,,IL,,,,37.68994,-88.9899,,,,
5,IL-TRW01,Office MSU,Two Rivers National Wildlife Refuge,TRW,,3,,,IL,,,,38.93897,-90.54198,,,,
1,ImScdPR,I'm Scared,Palassou Ridge Open Space,PR,Santa Clara County Open Space,,San Jose,Santa Clara,CA,Patrick Congdon,,4082247476,37.1083,-121.519928,772,Pond,Permanent,Artificial
5,IN-BOK01,Area 61 Pond,Big Oaks National Wildlife Refuge,BO,,3,,,IN,,,,38.86238,-85.37971,,,,
5,IN-BOK02,BOK02,Big Oaks National Wildlife Refuge,BO,,3,,,IN,,,,38.87683,-85.45331,,,,
5,IN-BOK03,Old Chimney Pt.,Big Oaks National Wildlife Refuge,BO,,3,,,IN,,,,38.83303,-85.4163,,,,
5,IN-BOKKA,Karns Pond,Big Oaks National Wildlife Refuge,BO,,3,,,IN,,,,38.92489,-85.36524,274,,Temporary,
5,IN-EXPDI,Experimental Ditch,Big Oaks National Wildlife Refuge,BO,,3,,,IN,,,,38.855583,-85.40393995,1266,,,
5,IN-MSC01,Sand Pond,Muscatatuck National Wildlife Refuge,MSC,,3,,,IN,,,,38.94637,-85.8238,,,,
5,IN-MSC02,DEMO POND,Muscatatuck National Wildlife Refuge,MSC,,3,,,IN,,,,38.941064,-85.797666,,,,
5,IN-PTK01,Parke West,Patoka River National Wildlife Refuge,PTK,,3,,,IN,,,,38.34274,-87.32466,,,,
5,IN-PTK02,Cane Ridge,Patoka River National Wildlife Refuge,PTK,,3,,,IN,,,,38.32699,-87.77017,,,,
5,IN-PTK03,Branum,Patoka River National Wildlife Refuge,PTK,,3,,,IN,,,,38.37001,-87.1545,,,,
1,J3LV,J3,Los Vaqueros,LV,Contra Costa Water District,,San Ramon,Contra Costa,CA,Jeff Alvarez,,9164410322,37.817837,-121.773873,555,Pond,Permanent,Artificial
3,J4-02,J4-02,,,OSMP,,Boulder,Boulder,CO,OSMP,,,39.98302,-105.22881,1637,Wetland,Temporary,Artificial
3,Jewel,Jewel Mountain Lake,,,OSMP,,,Jefferson,CO,OSMP,,,39.88659,-105.24816,1918,Lake,Permanent,Artificial
3,Jump,Jumping Leopards Pond,,,Private,,Boulder,Boulder,CO,Private,,,40.03138,-105.15445,1571,Lake,Permanent,Artificial
,JUNCBOR,JunctionBorr,Blue Oaks Ranch Reserve,BOR,,,,Santa Clara,CA,,,,37.375763,-121.724651,,,Temporary,
1,KAMM,Kammerer,Joseph Grant County Park,GCP,Santa Clara County Parks,,Alum Rock,Santa Clara,CA,,,,37.363084,-121.731918,198,Pond,Permanent,Artificial
1,KIDNGCP,Kidney,Joseph Grant County Park,GCP,Santa Clara County Parks,,Alum Rock,Santa Clara,CA,,,,37.318752,-121.670827,696,Pond,Temporary,Artificial
5,KS-MRS01,Gatlin Marsh,Marais des Cygnes National Wildlife Refuge,MRS,,6,,,KS,,,,38.299722,-94.868611,,,,
5,KS-MRS02,Murray South,Marais des Cygnes National Wildlife Refuge,MRS,,6,,,KS,,,,38.492778,-94.738333,,,,
3,Lake1,Lake Gulch Pond1,,,Douglas County Open Space,,,Douglas,CO,Douglas County Open Space,,,39.24155,-104.81537,2097,Pond,Temporary,Artificial
,LA-WMA,WMA,Atchafalaya Basin,ATB,,,Sherburne,,LA,Brad Glorioso,,,30.424973,-91.664653,6,Pond,,
1,LCBOR,Lower Center Pond,Blue Oaks Ranch Reserve,BOR,UC-Berkeley,,Alum Rock,Santa Clara,CA,Mike Hamilton,Jeff Wilcox,4247045908,37.38902,-121.735114,698,Pond,Temporary,Artificial
1,LGCRN,Large,Carnegie State Vehicular Recreational Area,CRN,California State Parks,,Livermore,Alameda,CA,Clint Eisholtz,,9254557873,37.625248,-121.599832,574,Pond,Temporary,Artificial
3,Lily,Lily invasion,,,Private,,Superior,Broomfield,CO,Private,,,39.94501,-105.15585,1694,Pond,Permanent,Artificial
1,LKFCRN,Lucky Find,Carnegie State Vehicular Recreational Area,CRN,California State Parks,,Livermore,Alameda,CA,Clint Eisholtz,,9254557873,37.629135,-121.597107,553,Pond,Temporary,Artificial
,LLA01,OldWiseTree,Lassen National Forest Long Lake Area,LNF,National Forest Service,,Norvell,Lassen,CA,,,,40.53938,-121.02614,1739,Pond,Semi-permanent,Natural
,LLA02,Tim Meadows,Lassen National Forest Long Lake Area,LNF,National Forest Service,,Norvell,Lassen,CA,,,,40.528801,-121.030083,1743,Wetland,Temporary,Natural
,LLA03,Long Lake,Lassen National Forest Long Lake Area,LNF,National Forest Service,,Norvell,Lassen,CA,,,,40.51471,-121.01991,1730,Lake,Semi-permanent,Natural
1,LLTNC,Lower Leakey,The Nature Conservancy Kammerer Ranch,KR,The Nature Conservancy,,San Jose,Santa Clara,CA,Larry Sherpa,Mike Hamilton,4247045908,37.405498,-121.731179,819,Pond,Permanent,Artificial
,LTCRACK,Crack Pond,Los Trampas Regional Wilderness,,,,,Contra Costa,CA,,,,37.801264,-122.004874,314,,,
1,M1LV,M1,Los Vaqueros,LV,Contra Costa Water District,,San Ramon,Contra Costa,CA,Jeff Alvarez,,9164410322,37.85004,-121.746,242,Pond,Permanent,Artificial
5,MA-ASR05,Assabet River005,Assabet River National Wildlife Refuge,ASR,,5,,,MA,,,,42.41175,-71.47691,,,,
5,MA-ASR07,Assabet River007,Assabet River National Wildlife Refuge,ASR,,5,,,MA,,,,42.40924,-71.48802,,,,
5,MA-ASR08,Assabet River008,Assabet River National Wildlife Refuge,ASR,,5,,,MA,,,,42.40866,-71.48933,,,,
5,MA-ASR13,Assabet River013,Assabet River National Wildlife Refuge,ASR,,5,,,MA,,,,42.41169,-71.47672,,,,
5,MA-ASR14,Assabet River 014,Assabet River National Wildlife Refuge,ASR,,5,,,MA,,,,42.41516,-71.47409,,,,
5,MA-GRM01,Headquarters Pond,Great Meadows National Wildlife Refuge,GRM,,5,,,MA,,,,42.400556,-70.3725,,,,
5,MA-OXB01,OXBOW1,Oxbow National Wildlife Refuge,OXB,,5,,,MA,,,,42.49921,-71.62517,,,,
5,MA-OXB05,Oxbow05,Oxbow National Wildlife Refuge,OXB,,5,,,NH,,,,42.551377,-71.761255,,,,
5,MA-OXB06,OXBOW6,Oxbow National Wildlife Refuge,OXB,,5,,,MA,,,,42.51372,-71.61294,,,,
5,MA-OXBN4,OXBOW North Unit 4,Oxbow National Wildlife Refuge,OXB,,5,,,MA,,,,42.56956,-71.61472,,,,
5,MD-PWR01,Goose Pond,Patuxent Research National Wildlife Refuge,PWR,,5,,,MD,,,,39.02933333,-76.79366667,,,,
5,MD-PWR02,Mabbott Pond,Patuxent Research National Wildlife Refuge,PWR,,5,,,MD,,,,39.01978,-76.80556,,,,
5,MD-PWR04,Bluegill Pond,Patuxent Research National Wildlife Refuge,PWR,,5,,,MD,,,,39.04509,-76.77718,,,,
5,MD-PWR06,Harding Spring Pond,Patuxent Research National Wildlife Refuge,PWR,,5,,,MD,,,,39.03386,-76.77745,,,,
3,Meadow1,Meadow Springs Ranch 1,Meadow Springs Ranch,,Fort Collins Utilities,,Wellington,Larimer,CO,Aran Meyer,Fort Collins Utilities,9704162133,40.87215,-104.99949,1725,Stream,Semi-permanent,Natural
3,Meadow2,Meadow Springs Ranch 2,Meadow Springs Ranch,,Fort Collins Utilities,,Wellington,Larimer,CO,Aran Meyer,Fort Collins Utilities,9704162133,40.87411,-104.99764,1730,Stream,Permanent,Natural
5,ME-ARO03,Moist Soil Unit #1,Aroostook National Wildlife Refuge,ARO,,5,,,ME,,,,46.96531,-67.87802,,,,
5,ME-ARO04,SW Butterfield Brook E of Maintenance Bldg,Aroostook National Wildlife Refuge,ARO,,5,,,ME,,,,46.96095,-67.87065,,,,
5,ME-PetMP,Petit Manan Point,Maine Coastal Island National Wildlife Refuge,MCI,,5,,,ME,,,,44.42851,-67.90099,,,,
5,ME-RHC01,Brown Street Impoundment,Rachel Carson National Wildlife Refuge,RHC,,5,,,ME,,,,43.358,-70.527717,,,,
8,ME-SNK02,Sunkhaze Meadows,Sunkhaze Meadows National Wildlife Refuge,SNK,,,,,ME,,,,44.984,-68.5093,,,,
1,MHDLV,Mud Hole,Del Valle Regional Park,DVL,East Bay Regional Park District,,Livermore,Alameda,CA,Michelle Miller,,5105443141,37.59392,-121.69511,300,Pond,Temporary,Artificial
3,MHomeSWA,Mountain Home SWA,Mountain Home SWA,,CDOW,,Ft Garland,Castillo,CO,Kirk Navo,,7195876906,37.40054,-105.3701,2508,Pond,Permanent,Artificial
4,MI-ASPGR,ASPEN GROVE POND,,,,,,,MI,,,,42.459917,-84.023321,,,,
4,MI-BURT,BURT POND,Edwin S. George Reserve,ESGR,,,,,MI,,,,42.455215,-84.012635,,,,
4,MI-CASS,CASSANDRA BOG,Edwin S. George Reserve,ESGR,,,,,MI,,,,42.46317,-84.027389,,,,
4,MI-CRANE,CRANE POND,Edwin S. George Reserve,ESGR,,,,,MI,,,,42.450489,-84.014086,,,,
4,MI-CRESC,CRESCENT POND,Edwin S. George Reserve,ESGR,,,,,MI,,,,42.460392,-84.025628,,,,
4,MI-CTM,CAT TAIL MARSH,Edwin S. George Reserve,ESGR,,,,,MI,,,,42.453165,-84.004261,,,,
4,MI-DREAD,DREADFUL HOLLOW,Edwin S. George Reserve,ESGR,,,,,MI,,,,42.461478,-83.998067,,,,
ESGR,MI-EASTM,East Marsh,Edwin S. George Reserve,,,,,,MI,,,,42.45679,-83.996748,,,,
4,MI-FISHO,FISH HOOK MARSH,Edwin S. George Reserve,ESGR,,,,,MI,,,,42.449935,-84.015781,,,,
ESGR,MI-GEORG,George Pond,Edwin S. George Reserve,,,,,,MI,,,,42.456268,-84.013644,,,,
4,MI-GRAV,GRAVEL PIT,Edwin S. George Reserve,ESGR,,,,,MI,,,,42.459588,-83.999379,,,,
4,MI-ILEX,ILEX POND,Edwin S. George Reserve,ESGR,,,,,MI,,,,42.458597,-83.99911,,,,
5,MI-NEXT,Pond next to Lake Huron,,,,,,,MI,,,,45.322002,-83.464292,,,,
4,MI-NFS,NORTH FENCE SWAMP,Edwin S. George Reserve,ESGR,,,,,MI,,,,42.465607,-84.011026,,,,
5,MI-POOL,Pool F Near Visitor Center,Seney National Wildlife Refuge,SNY,,3,,,MI,,,,46.283423,-85.933525,,,,
5,MI-POOLC,Pool C,Seney National Wildlife Refuge,SNY,,3,,,MI,,,,46.28195,-85.955333,,,,
5,MI-POOLE,Pool E,Seney National Wildlife Refuge,SNY,,3,,,MI,,,,46.283933,-85.951983,,,,
5,MI-POOLF,Around Pool F,Seney National Wildlife Refuge,SNY,,3,,,MI,,,,46.28824,-85.9452,,,,
4,MI-REDM,RED MAPLE,Edwin S. George Reserve,ESGR,,,,,MI,,,,42.460257,-84.002091,,,,
4,MI-SEM,SEM,Edwin S. George Reserve,ESGR,,,,,MI,,,,42.447101,-83.997627,,,,
5,MI-SHW01,SHW01,Shiawassee National Wildlife Refuge,SHW,,3,,,MI,,,,43.3875,-84.00353,,,,
5,MI-SHW02,South of 2-track,Shiawassee National Wildlife Refuge,SHW,,3,,,MI,,,,43.33455,-84.00288,,,,
5,MI-SHW03,SHW03,Shiawassee National Wildlife Refuge,SHW,,3,,,MI,,,,43.37601,-83.96361,,,,
5,MI-SHW04,SHW04,Shiawassee National Wildlife Refuge,SHW,,3,,,MI,,,,43.356806,-84.014017,,,,
5,MI-SHW05,Shiawassee Pond 05,Shiawassee National Wildlife Refuge,SHW,,3,,,MI,,,,43.358057,-83.994004,,,,
5,MI-SHW06,Shiawassee Pond 06,Shiawassee National Wildlife Refuge,SHW,,3,,,MI,,,,43.32248,-83.96806,,,,
4,MI-SPN,SPRING POND NORTH,Edwin S. George Reserve,ESGR,,,,,MI,,,,42.447568,-84.024501,,,,
4,MI-STAR,STAR POND,Edwin S. George Reserve,ESGR,,,,,MI,,,,42.46107,-84.0256,,,,
4,MI-SWS,Southwest swamp,Edwin S. George Reserve,ESGR,,,,,MI,,,,42.449206,-84.016489,,,,
4,MI-SWWP,Southwest Woods Pond,Edwin S. George Reserve,ESGR,,,,,MI,,,,42.448494,-84.022892,,,,
4,MI-WM06,WEST MARSH #6,Edwin S. George Reserve,ESGR,,,,,MI,,,,42.459212,-84.025864,,,,
4,MI-WM10,WEST MARSH 10,Edwin S. George Reserve,ESGR,,,,,MI,,,,42.454645,-84.023708,,,,
4,MI-WM11,WEST MARSH #11,Edwin S. George Reserve,ESGR,,,,,MI,,,,42.455658,-84.024566,,,,
4,MI-WMDP,WEST MARSH DAM POND,Edwin S. George Reserve,ESGR,,,,,MI,,,,42.457977,-84.028611,,,,
4,MI-WWB,WEST WOODS BIG,Edwin S. George Reserve,ESGR,,,,,MI,,,,42.454138,-84.022247,,,,
,MLA01,Lily Pond,Lassen Volcanic National Park,LNF,National Park Service,,Shingletown,Shasta,CA,,,,40.539638,-121.562537,1806,Pond,Permanent,Natural
,MLA02,Grassy knoll,"Manzanita lake area, Lassen National Park",LNF,National Park Service,,Shingletown,Shasta,CA,,,,40.538621,-121.562036,1797,Pond,Semi-permanent,Natural
1,MLDTNC,Mallard,The Nature Conservancy Kammerer Ranch,KR,The Nature Conservancy,,San Jose,Santa Clara,CA,Larry Sherpa,Mike Hamilton,4247045908,37.409424,-121.732119,850,Pond,Permanent,Artificial
8,MN-ALTGZ,ALT-grz,Winona County,,,,,,MN,,,,44.12014741,-91.93595098,,,,
8,MN-BLO,Block Lake,,suth/lan,,,,,MN,,,,46.16109,-95.47832,,,,
8,MN-BROAG,Bro-ag,Houston County,,,,,,MN,,,,43.67113948,-91.34910248,,,,
8,MN-BROGZ,BRO-grz,Houston County,,,,,,MN,,,,43.67470326,-91.3483597,,,,
8,MN-BRONZ,Bro-ngrz,Houston County,,,,,,MN,,,,43.66745583,-91.35714174,,,,
8,MN-BUR,BUR,,suth/lan,,,,,MN,,,,44.5134,-93.88045,,,,
8,MN-CALGZ,Cal-grz,Houston County,,,,,,MN,,,,43.67601154,-91.5005744,,,,
8,MN-CALNZ,Cal-ngrz,Houston County,,,,,,MN,,,,43.72228333,-91.45806659,,,,
8,MN-CBA,Cuba-Dale Peterson,,suth/lan,,,,,MN,,,,46.94089,-96.09834,,,,
8,MN-CTG,Cottage Grove,Cottage Grove Site,suth/lan,,,,,MN,,,,44.830836,-92.929071,,,,
5,MN-CWB,CWB,,,,,,,MN,,,,43.391428,-93.965968,,,,
8,MN-CWN,Crow Wing Co,,,,,,,MN,,,,,,,,,
8,MN-DOR,Doran,,suth/lan,,,,,MN,,,,46.80123,-96.1507,,,,
8,MN-DUL,Clearwater Lake,,suth/lan,,,,,MN,,,,46.9699085,-92.21424117,,,,
1,MNDZACL,Mendoza,Coyote Lake County Park,CL,Santa Clara County Parks,,San Martin,Santa Clara,CA,Coyote Lake Office,,4088427800,37.072008,-121.520144,264,Pond,Permanent,Artificial
4,MN-EDP,Duck Pond,Eden Prairie,,,,Eden Prairie,Hennepin,MN,,,,44.87613037,-93.48651133,285,Pond,Permanent,
8,MN-EITNT,EIT-nat,Houston County,,,,,,MN,,,,43.5576094,-91.47540937,,,,
8,MN-EITNZ,EIT-ngrz,Houston County,,,,,,MN,,,,43.55430939,-91.46699968,,,,
5,MN-FER02,Over-the-Road Wetland,Fergus Falls Wetland Management District,FER,,3,,,MN,,,,46.61972,-96.26142,,,,
5,MN-FER03,Boundary Wetland,Fergus Falls Wetland Management District,FER,,3,,,MN,,,,46.62375,-96.26342,,,,
8,MN-FOL,FOL,,suth/lan,,,,,MN,,,,46.606552,-96.274825,,,,
8,MN-GEL,Geldner,Gellners Mill Park,suth/lan,,,,,MN,,,,44.27208,-93.74239,,,,
8,MN-GOS,GOS,,,,,,,MN,,,,,,,,,
8,MN-HIB,Omars Pond,Hibbing,suth/lan,Private,,Hibbing,St. Louis,MN,Omar hineman,,2182635328,46.9697,-92.2141,419,,,
8,MN-HOUag,HOU-ag,Houston County,,,,,,MN,,,,43.88790977,-91.73604978,,,,
8,MN-HOUgz,HOU-grz,Houston County,,,,,,MN,,,,43.87716912,-91.57551056,,,,
8,MN-HOUnz,Hou-ngrz,Houston County,,,,,,MN,,,,43.86848729,-91.58400592,,,,
8,MN-HYD,HYD,,suth/lan,,,,,MN,,,,47.63953,-96.10444,,,,
8,MN-IWPA,Iverson WPA,,suth/lan,,,,,MN,,,,46.29318,-95.80499,,,,
4,MN-KIDIE,KiddiePond,Eden Prairie,,,,,,MN,,,,44.877908,-93.496348,,,,
8,MN-Lew-a,Lew-ag,Winona County,,,,,,MN,,,,43.96568759,-91.77284531,,,,
8,MN-Lew-n,Lew-nat,Winona County,,,,,,MN,,,,43.99006652,-91.75680459,,,,
8,MN-MHL,Magners Horseshoe Lake,,suth/lan,,,,,MN,,,,46.36663,-93.92781,,,,
5,MN-MNV03,Wilkie 3,Minnesota Valley National Wildlife Refuge,MNV,,3,,,MN,,,,44.79011,-93.40384,,,,
5,MN-MNV04,Soberg WPA 2,Minnesota Valley National Wildlife Refuge,MNV,,3,,,MN,,,,44.63116,-93.3094,,,,
5,MN-MNV06,Soberg 4,Minnesota Valley National Wildlife Refuge,MNV,,3,,,MN,,,,44.63118,-93.3118,,,,
8,MN-NEY,Ney Pond,Ney Nature Center,suth/lan,,,,,MN,,,,44.53741577,-93.87936142,,,,
8,MN-ROI,Roiger,Meeker County,suth/lan,,,,,MN,,,,45.08285,-94.39339,,,,
8,MN-She-a,She-ag,Houston County,,,,,,MN,,,,43.69222978,-91.62001361,,,,
8,MN-SHE-n,SHE-nat,Houston County,,,,,,MN,,,,43.72417578,-91.60153887,,,,
8,MN-STC,St. Charles Crick,Winona County,,,,,,MN,,,,43.97356,-92.07423,,,,
8,MN-STC-a,STC-ag,Winona County,,,,,,MN,,,,43.97291879,-91.7687942,,,,
8,MN-STC-n,STC-nat,Winona County,,,,,,MN,,,,43.9154287,-92.01122287,,,,
8,MN-SUN,SUN,,suth/lan,,,,,MN,,,,46.589663,-95.692989,,,,
8,MN-TRD,TRD,Traverse D,suth/lan,Wheaton Highschool,,,,MN,,,,45.7979527,-96.5094374,,,,
8,MN-TRMP,TRMP,,,,,,,MN,,,,,,,,,
8,MN-UTIag,UTI-ag,Winona County,,,,,,MN,,,,44.01043396,-91.94094606,,,,
8,MN-UTIgz,Uti-grz,Winona County,,,,,,MN,,,,44.00104296,-91.95065499,,,,
8,MN-UTInz,UTI-ngrz,Winona County,,,,,,MN,,,,44.00638504,-91.94902649,,,,
8,MN-ZAG,Zager Lake,,Suth/lan,,,,,MN,,,,45.8155816,-94.8317388,,,,
5,MO-CAN03,CAN03,Clarence Cannon National Wildlife Refuge,CAN,,3,,,MO,,,,39.28273,-90.80933,,,,
5,MO-Egg,Egg,Daniel Boone,,,,,,MO,,,,38.7759,-91.400933,,,,
5,MO-Frgtn,Forgotten,Daniel Boone,,,,,,MO,,,,38.764417,-91.394283,,,,
5,MO-Gate,Gate,Daniel Boone,,,,,,MO,,,,38.7647,-91.392533,,,,
5,MO-KETLE,Camp Kettle,Daniel Boone,,,,,,MO,,,,38.77785,-91.3893,,,,
5,MO-LandC,Lewis and Clark,Huzzah,,,,,,MO,,,,38.044866,-91.182876,,,,
5,MO-Medi,Medicine,Tyson Research Center,,,,,,MO,,,,38.524852,-90.557511,,,,
5,MO-MNG03,Moist Soil Unit 7North,Mingo National Wildlife Refuge,MNG,,3,,,MO,,,,36.955941,-90.207037,,,,
5,MO-MNG04,Bluff Pond,Mingo National Wildlife Refuge,MNG,,3,,,MO,,,,36.9453,-90.25071,,,,
5,MO-N3LNG,N3 Long Ridge,Long Ridge,,,,,,MO,,,,38.30294,-91.16314,,,,
5,MO-NE002,Catscratch,Forest 44,,,,,,MO,,,,38.525422,-90.51971,,,,
5,MO-NE1HZ,NE1 Huzzah,Huzzah,,,,,,MO,,,,38.03915,-91.18301,,,,
5,MO-NE1IC,NE1 Indian Creek,Indian Creek,,,,,,MO,,,,38.21278,-90.9182,,,,
5,MO-NE2ME,NE2 MERA,Meramec,,,,,,MO,,,,38.47436,-90.81144,,,,
5,MO-NE2SH,NE2 SHAW,Shaw,,,,,,MO,,,,38.474362,-90.811436,,,,
5,MO-NE3ME,NE3 Meramec,Meramec,,,,,,MO,,,,38.236365,-91.032606,,,,
5,MO-NE4HZ,NE4 Huzzah,Huzzah,,,,,,MO,,,,38.044727,-91.181083,,,,
3,Monte1,Monte Vista NWR #1,Monte Vista National Wildlife Refuge,,US Fish and Game,6,Monte Vista,Rio Grande,CO,US Fish and Game,,,37.48595,-106.14565,2341,Pond,Permanent,Artificial
3,Monte2,Monte Vista NWR #2,Monte Vista National Wildlife Refuge,,US Fish and Game,6,Monte Vista,Rio Grande,CO,US Fish and Game,,,37.48714,-106.13437,2238,Pond,Temporary,Artificial
3,Monte3,Monte Vista NWR #3,Monte Vista National Wildlife Refuge,,US Fish and Game,6,Monte Vista,Rio Grande,CO,US Fish and Game,,,37.48867,-106.12826,2335,Pond,Permanent,Artificial
3,Monte4,Monte Vista NWR #4,Monte Vista National Wildlife Refuge,,US Fish and Game,6,Monte Vista,Rio Grande,CO,US Fish and Game,,,37.4791,-106.1361,2337,Pond,Temporary,Artificial
3,Monte5,Monte Vista NWR #5,Monte Vista National Wildlife Refuge,,US Fish and Game,6,Monte Vista,Rio Grande,CO,US Fish and Game,,,37.47404,-106.14709,2334,Pond,Temporary,Artificial
5,MO-NW1ME,NW1 Meramec,Meramec,,,,,,MO,,,,38.231905,-91.047378,,,,
5,MO-NW4SH,NW4 Shaw,Shaw,,,,,,MO,,,,38.475673,-90.822642,,,,
5,MO-NW5HZ,NW5 Huzzah,Huzzah,,,,,,MO,,,,38.04554,-91.2062,,,,
5,MO-NW5SH,NW5 Shaw,Shaw,,,,,,MO,,,,38.475973,-90.822982,,,,
5,MO-NW7HZ,NW7 Huzzah,Huzzah,,,,,,MO,,,,38.03959,-91.209,,,,
5,MO-NW7SH,NW7 Shaw,Shaw,,,,,,MO,,,,38.476892,-90.824551,,,,
5,MO-NW8HZ,NW8 Huzzah,Huzzah,,,,,,MO,,,,38.03942,-91.20394,,,,
5,MO-OLDED,Old Dead,Daniel Boone,,,,,,MO,,,,38.76315,-91.395133,,,,
,MO-Pea08,8,Pea Ridge,,,,,,MO,,,,38.094389,-91.0075,,,,
,MO-Pea17,17,Pea Ridge,,,,,,MO,,,,38.087052,-91.029025,,,,
5,MO-S2LRI,S2 Long Ridge,Long Ridge,,,,,,MO,,,,38.282832,-91.174373,,,,
5,MO-S5LRI,S5 Long Ridge,Long Ridge,,,,,,MO,,,,38.277265,-91.173533,,,,
5,MO-SALAM,Salamander,Tyson Research Center,,,,,,MO,,,,38.517255,-90.55338,,,,
5,MO-SE2ME,SE2 Meramec,Meramec,,,,,,MO,,,,38.228147,-91.038621,,,,
5,MO-SE3IC,SE 3 Indian Creek,Indian Creek,,,,,,MO,,,,38.20578,-90.91968,,,,
5,MO-SQC02,Moist Soil Unit 5E,Squaw Creek National Wildlife Refuge,SQC,,3,,,MO,,,,40.09445,-95.23031,,,,
5,MO-SQC05,Teal Pool/118 Marsh,Squaw Creek National Wildlife Refuge,SQC,,3,,,MO,,,,40.11298,-95.27147,,,,
5,MO-SW2IC,SW2,Indian Creek,,,,,,MO,,,,38.20504,-90.95497,,,,
5,MO-SW5ME,SW5,Meramec,,,,,,MO,,,,38.216127,-91.064646,,,,
5,MO-SW8ME,SW8,Meramec,,,,,,MO,,,,38.216295,-91.067921,,,,
5,MO-TOADP,Toad Pines,Daniel Boone,,,,,,MO,,,,38.78205,-91.38505,,,,
5,MO-USS51,USFS51,USFS,,,,,,MO,,,,37.945671,-90.982101,,,,
5,MO-USS59,USFS59,USFS,,,,,,MO,,,,37.938518,-90.970397,,,,
5,MO-USS60,USFS60,USFS,,,,,,MO,,,,37.935446,-90.956207,,,,
5,MO-USS61,USFS61,USFS,,,,,,MO,,,,37.934977,-90.988774,,,,
5,MO-USS63,USFS63,USFS,,,,,,MO,,,,37.929836,-90.944491,,,,
5,MO-USS73,USFS73,USFS,,,,,,MO,,,,37.922554,-90.949632,,,,
1,MRCRN,Mitchell Ravine,Carnegie State Vehicular Recreational Area,CRN,California State Parks,,Livermore,Alameda,CA,Clint Eisholtz,,9254557873,37.636935,-121.574534,227,Pond,Temporary,Artificial
5,MS-DHM03,DHM03,Dahomey National Wildlife Refuge,DHM,,4,,,MS,,,,33.6889,-90.92239,,,,
5,MS-MIS02,MIS02,Mississippi Sandhill Crane National Wildlife Refuge,MIS,,4,,,MS,,,,30.47288,-88.77431,,,,
,MS-MIS07,MIS07,Mississippi Sandhill Crane National Wildlife Refuge,MIS,,2,,,MS,,,,30.39319,-88.73949,,,,
5,MS-MSTAB,MISTAB,Mississippi Sandhill Crane National Wildlife Refuge,MIS,,4,,,MS,,,,,,,,,
5,MS-MSTCI,MISTCI,Mississippi Sandhill Crane National Wildlife Refuge,MIS,,4,,,MS,,,,,,,,,
5,MS-MSTRA,MISTRA,Mississippi Sandhill Crane National Wildlife Refuge,MIS,,4,,,MS,,,,,,,,,
5,MS-YZO,YZO,Yazoo National Wildlife Refuge,YZO,,4,,,MS,,,,33.07855347,-90.97740675,,,,
9,MT-BITB,Bitterroot Backwater,,,,,,,MT,,,,,,,,,
9,MT-BLS,BLS,Salish Kootenai,,,,,,MT,,,,47.1012,-113.7509,,,,
9,MT-Curlw,Curlew,Salish Kootenai,,,,,,MT,,,,47.31726,-114.3672,,,,
9,MT-HOUS3,Houston Triplet,Salish Kootenai,,,,,,MT,,,,47.777564,-114.6633352,,,,
9,MT-J3700,Lynn Lovin,Salish Kootenai,,,,,,MT,,,,47.098867,-113.7406217,,,,
2,MT-JET,Jette Pond,Salish Kootenai,,,,,,MT,,,,47.78899765,-114.2577057,,Pond,Permanent,Natural
5,MT-LMC01,South Gravel Pit,Lee Metacalf National Wildlife Refuge,LMC,,6,,,MT,,,,46.56762,-114.08935,,,,
5,MT-LMC02,North Gravel Pit,Lee Metacalf National Wildlife Refuge,LMC,,6,,,MT,,,,46.56896,-114.08962,,,,
5,MT-LTR01,Carolyns Pond,Lost Trail National Wildlife Refuge,LTR,,6,,,MT,,,,48.17442,-114.82515,,,,
5,MT-LTR04,Upper Moose,Lost Trail National Wildlife Refuge,LTR,,6,,,MT,,,,48.19741,-114.91017,,,,
5,MT-LTR17,Hidden Pond,Lost Trail National Wildlife Refuge,LTR,,6,,,MT,,,,48.17631,-114.91158,,,,
5,MT-NBR11,Elk Creek,National Bison Range National Wildlife Refuge,NBR,,6,,,MT,,,,47.30181,-114.24038,,,,
5,MT-NBR26,Trisky Creek,National Bison Range National Wildlife Refuge,NBR,,6,,,MT,,,,47.3076,-114.19273,,,,
5,MT-NBR38,Pauline Creek,National Bison Range National Wildlife Refuge,NBR,,6,,,MT,,,,47.33863,-114.23644,,,,
5,MT-NBR40,NBR40,National Bison Range National Wildlife Refuge,NBR,,6,,,MT,,,,47.31669,-114.22028,,,,
1,MTPD002A,MTPND002A,Morgan Territories Regional Park,MT,East Bay Regional Park District,,Blackhawk,Contra Costa,CA,Rex Caufield,,5105442756,37.845756,-121.80289,523,Pond,Semi-permanent,Artificial
1,MTPD002B,MTPND002B,Morgan Territories Regional Park,MT,East Bay Regional Park District,,Blackhawk,Contra Costa,CA,Rex Caufield,,5105442756,37.842904,-121.802885,536,Pond,Permanent,Artificial
2,MT-PERMP,Perma Pond,,,,,,,MT,,,,47.35300365,-114.6131197,762,Pond,Permanent,Natural
1,MTPND004,MTPND004,Morgan Territories Regional Park,MT,East Bay Regional Park District,,Blackhawk,Contra Costa,CA,Rex Caufield,,5105442756,37.8393217,-121.8021346,478,Pond,Permanent,Artificial
1,MTPND006,MTPND006,Morgan Territories Regional Park,MT,East Bay Regional Park District,,Blackhawk,Contra Costa,CA,Rex Caufield,,5105442756,37.843274,-121.793542,462,Pond,Temporary,Artificial
1,MTPND007,MTPND007,Morgan Territories Regional Park,MT,East Bay Regional Park District,,Blackhawk,Contra Costa,CA,Rex Caufield,,5105442756,37.83296,-121.791927,568,Pond,Permanent,Artificial
1,MTPND008,MTPND008,Morgan Territories Regional Park,MT,East Bay Regional Park District,,Blackhawk,Contra Costa,CA,Rex Caufield,,5105442756,37.8296588,-121.7905895,599,Pond,Semi-permanent,Artificial
1,MTPND009,MTPND009,Morgan Territories Regional Park,MT,East Bay Regional Park District,,Blackhawk,Contra Costa,CA,Rex Caufield,,5105442756,37.8205121,-121.7920734,614,Pond,Temporary,Artificial
1,MTPND010,MTPND010,Morgan Territories Regional Park,MT,East Bay Regional Park District,,Blackhawk,Contra Costa,CA,Rex Caufield,,5105442756,37.820874,-121.794774,597,Pond,Permanent,Artificial
1,MTPND011,MTPND011,Morgan Territories Regional Park,MT,East Bay Regional Park District,,Blackhawk,Contra Costa,CA,Rex Caufield,,5105442756,37.825008,-121.811255,622,Pond,Permanent,Artificial
1,MTPND012,MTPND012,Morgan Territories Regional Park,MT,East Bay Regional Park District,,Blackhawk,Contra Costa,CA,Rex Caufield,,5105442756,37.825668,-121.817854,650,Pond,Temporary,Artificial
1,MTPND013,MTPND013,Morgan Territories Regional Park,MT,East Bay Regional Park District,,Blackhawk,Contra Costa,CA,Rex Caufield,,5105442756,37.82968,-121.822697,628,Pond,Temporary,Artificial
1,MTPND014,MTPND014,Morgan Territories Regional Park,MT,East Bay Regional Park District,,Blackhawk,Contra Costa,CA,Rex Caufield,,5105442756,37.82662,-121.830941,431,Pond,Permanent,Artificial
1,MTPND016,MTPND016,Morgan Territories Regional Park,MT,East Bay Regional Park District,,Blackhawk,Contra Costa,CA,Rex Caufield,,5105442756,37.832696,-121.85106,401,Pond,Temporary,Artificial
1,MTPND022,MTPND022,Morgan Territories Regional Park,MT,East Bay Regional Park District,,Blackhawk,Contra Costa,CA,Rex Caufield,,5105442756,37.826266,-121.851764,331,Pond,Temporary,Artificial
1,MTPND025,MTPND025,Morgan Territories Regional Park,MT,East Bay Regional Park District,,Blackhawk,Contra Costa,CA,Rex Caufield,,5105442756,37.8236024,-121.7863548,627,Pond,Permanent,Artificial
1,MTPND026,MTPND026,Morgan Territories Regional Park,MT,East Bay Regional Park District,,Blackhawk,Contra Costa,CA,Rex Caufield,,5105442756,37.820726,-121.783946,674,Pond,Permanent,Artificial
1,MTPND027,MTPND027,Morgan Territories Regional Park,MT,East Bay Regional Park District,,Blackhawk,Contra Costa,CA,Rex Caufield,,5105442756,37.834288,-121.818084,484,Pond,Temporary,Artificial
1,MTPND031,MTPND031,Morgan Territories Regional Park,MT,East Bay Regional Park District,,Blackhawk,Contra Costa,CA,Rex Caufield,,5105442756,37.821555,-121.805911,638,Pond,Permanent,Artificial
1,MTPND06B,MTPND006B,Morgan Territories Regional Park,MT,East Bay Regional Park District,,Blackhawk,Contra Costa,CA,Rex Caufield,,5105442756,37.84298,-121.794454,472,Pond,Temporary,Artificial
9,MT-STING,Stinger,Salish Kootenai,,,,,,MT,,,,47.577154,-114.1380279,,,,
9,MT-TOOLM,Toolman Marsh,Salish Kootenai,,,,Hot Springs,,MT,,,,47.53546514,-114.725155,1200,Wetland,Permanent,Natural
1,MUD02,MUD02,East Bay Municipal Utility District North of Alhambra Rd,MUD,East Bay Municipal Utility District,,Orinda Village,Contra Costa,CA,,,5102872038,37.9794,-122.252043,63,Pond,Semi-permanent,Artificial
1,MUD03,MUD03,East Bay Municipal Utility District North of Alhambra Rd,MUD,East Bay Municipal Utility District,,Orinda Village,Contra Costa,CA,,,5102872038,37.9793988,-122.2371793,187,Pond,Permanent,Artificial
1,MUD04,MUD04,East Bay Municipal Utility District North of Alhambra Rd,MUD,East Bay Municipal Utility District,,Orinda Village,Contra Costa,CA,,,5102872038,37.992064,-122.228016,131,Pond,Permanent,Artificial
1,MUD05,MUD05,East Bay Municipal Utility District North of Alhambra Rd,MUD,East Bay Municipal Utility District,,Orinda Village,Contra Costa,CA,,,5102872038,37.992437,-122.216829,188,Pond,Semi-permanent,Artificial
1,MUD07,MUD07,East Bay Municipal Utility District,MUD,East Bay Municipal Utility District,,Orinda Village,Contra Costa,CA,,,5102872038,37.98457,-122.220813,117,Pond,Temporary,Artificial
1,MUD102,MUD102,East Bay Municipal Utility District San Leandro Reservoir,MUD,East Bay Municipal Utility District,,San Leandro,Alameda,CA,,,5102872038,37.799082,-122.095021,179,Pond,Temporary,Artificial
1,MUD105,MUD105,East Bay Municipal Utility District San Leandro Reservoir,MUD,East Bay Municipal Utility District,,San Leandro,Alameda,CA,,,5102872038,37.797108,-122.083321,308,Pond,Semi-permanent,Artificial
1,MUD11,MUD11,East Bay Municipal Utility District North of Alhambra Rd,MUD,East Bay Municipal Utility District,,Orinda Village,Contra Costa,CA,,,5102872038,37.977308,-122.228995,79,Pond,Permanent,Artificial
1,MUD115,MUD115,East Bay Municipal Utility District San Leandro Reservoir,MUD,East Bay Municipal Utility District,,Moraga,Alameda,CA,,,5102872038,37.7947212,-122.0882611,207,Pond,Permanent,Artificial
1,MUD117,MUD117,East Bay Municipal Utility District San Leandro Reservoir,MUD,East Bay Municipal Utility District,,Moraga,Alameda,CA,,,5102872038,37.7829687,-122.0782539,252,Pond,Semi-permanent,Artificial
1,MUD119,MUD119,East Bay Municipal Utility District San Leandro Reservoir,MUD,East Bay Municipal Utility District,,Moraga,Alameda,CA,,,5102872038,37.7798525,-122.0866742,266,Pond,Semi-permanent,Artificial
1,MUD120,MUD120,East Bay Municipal Utility District San Leandro Reservoir,MUD,East Bay Municipal Utility District,,Moraga,Alameda,CA,,,5102872038,37.7793818,-122.0929398,199,Pond,Permanent,Artificial
1,MUD122,MUD122,East Bay Municipal Utility District San Leandro Reservoir,MUD,East Bay Municipal Utility District,,San Leandro,Alameda,CA,,,5102872038,37.776188,-122.085153,179,Pond,Semi-permanent,Artificial
1,MUD124,MUD124,East Bay Municipal Utility District San Leandro Reservoir,MUD,East Bay Municipal Utility District,,Moraga,Alameda,CA,,,5102872038,37.7629761,-122.0739285,278,Pond,Temporary,Artificial
1,MUD17,FYI Pond,East Bay Municipal Utility District North of Alhambra Rd,MUD,East Bay Municipal Utility District,,Orinda Village,Contra Costa,CA,,,5102872038,37.980927,-122.212919,170,Pond,Permanent,Artificial
1,MUD20,MUD20,East Bay Municipal Utility District North of Alhambra Rd,MUD,East Bay Municipal Utility District,,Orinda Village,Contra Costa,CA,,,5102872038,37.97721,-122.212187,145,Pond,Temporary,Artificial
,MUD21,MUD21,East Bay Municipal Utility District San Pablo Reservoir,MUD,East Bay Municipal Utility District,,,Contra Costa,CA,,,5102872038,37.984739,-122.213586,161,Pond,,
1,MUD22,MUD22,East Bay Municipal Utility District San Pablo Reservoir,MUD,East Bay Municipal Utility District,,Orinda Village,Contra Costa,CA,,,5102872038,37.959638,-122.238503,122,Pond,Permanent,Artificial
1,MUD23,MUD23,East Bay Municipal Utility District San Pablo Reservoir,MUD,East Bay Municipal Utility District,,Orinda Village,Contra Costa,CA,,,5102872038,37.954864,-122.244778,237,Pond,Permanent,Artificial
1,MUD26,MUD26,East Bay Municipal Utility District San Pablo Reservoir,MUD,East Bay Municipal Utility District,,Orinda Village,Contra Costa,CA,,,5102872038,37.971635,-122.217799,94,Pond,Temporary,Artificial
1,MUD31,MUD31,East Bay Municipal Utility District San Pablo Reservoir,MUD,East Bay Municipal Utility District,,Orinda Village,Contra Costa,CA,,,5102872038,37.958367,-122.21905,217,Pond,Permanent,Artificial
1,MUD34,MUD34,East Bay Municipal Utility District San Pablo Reservoir,MUD,East Bay Municipal Utility District,,Orinda Village,Contra Costa,CA,,,5102872038,37.974672,-122.205468,149,Pond,Permanent,Artificial
1,MUD35,MUD35,East Bay Municipal Utility District San Pablo Reservoir,MUD,East Bay Municipal Utility District,,Orinda Village,Contra Costa,CA,,,5102872038,37.951492,-122.246684,242,Pond,Semi-permanent,Artificial
1,MUD36,MUD36,East Bay Municipal Utility District San Pablo Reservoir,MUD,East Bay Municipal Utility District,,Orinda Village,Contra Costa,CA,,,5102872038,37.951324,-122.247079,249,Pond,Temporary,Artificial
1,MUD37,MUD37,East Bay Municipal Utility District San Pablo Reservoir,MUD,East Bay Municipal Utility District,,Orinda Village,Contra Costa,CA,,,5102872038,37.950073,-122.246322,245,Pond,Permanent,Artificial
1,MUD39,Heron,East Bay Municipal Utility District San Pablo Reservoir,MUD,East Bay Municipal Utility District,,Orinda Village,Contra Costa,CA,,,5102872038,37.939458,-122.242404,208,Pond,Temporary,Artificial
1,MUD40,MUD40,East Bay Municipal Utility District San Pablo Reservoir,MUD,East Bay Municipal Utility District,,Orinda Village,Contra Costa,CA,,,5102872038,37.939823,-122.238758,217,Pond,Permanent,Artificial
1,MUD41,Rainy Day,East Bay Municipal Utility District San Pablo Reservoir,MUD,East Bay Municipal Utility District,,Orinda Village,Contra Costa,CA,,,5102872038,37.940023,-122.236489,227,Pond,Temporary,Artificial
1,MUD46,MUD46 Pumphouse,East Bay Municipal Utility District San Pablo Reservoir,MUD,East Bay Municipal Utility District,,Orinda Village,Contra Costa,CA,,,5102872038,37.9481,-122.232837,151,Pond,Permanent,Artificial
1,MUD57,MUD57,East Bay Municipal Utility District San Pablo Reservoir,MUD,East Bay Municipal Utility District,,Orinda Village,Contra Costa,CA,,,5102872038,37.923219,-122.2607,304,Pond,Temporary,Artificial
1,MUD59,MUD59,East Bay Municipal Utility District San Pablo Reservoir,MUD,East Bay Municipal Utility District,,Orinda Village,Contra Costa,CA,,,5102872038,37.9205954,-122.2481959,196,Pond,Permanent,Artificial
1,MUD62,Fox Pond,East Bay Municipal Utility District San Pablo Reservoir,MUD,East Bay Municipal Utility District,,Orinda Village,Contra Costa,CA,,,5102872038,37.912817,-122.240797,198,Pond,Permanent,Artificial
,MUD67,,,MUD,East Bay Municipal Utility District,,,,CA,,,,,,,,,
1,MUD70,MUD70,East Bay Municipal Utility District San Pablo Reservoir,MUD,East Bay Municipal Utility District,,Orinda Village,Contra Costa,CA,,,5102872038,37.917358,-122.215781,190,Pond,Permanent,Artificial
1,MUD74,MUD74,East Bay Municipal Utility District San Pablo Reservoir,MUD,East Bay Municipal Utility District,,Orinda Village,Contra Costa,CA,,,5102872038,37.93127,-122.174771,209,Pond,Permanent,Artificial
1,MUD77,MUD77,East Bay Municipal Utility District San Pablo Reservoir,MUD,East Bay Municipal Utility District,,Orinda Village,Contra Costa,CA,,,5102872038,37.9292791,-122.1716227,214,Pond,Permanent,Artificial
1,MUD81,MUD81,East Bay Municipal Utility District San Pablo Reservoir,MUD,East Bay Municipal Utility District,,Orinda Village,Contra Costa,CA,,,5102872038,37.907,-122.241947,230,Pond,Permanent,Artificial
1,MUD85,MUD85,East Bay Municipal Utility District San Pablo Reservoir,MUD,East Bay Municipal Utility District,,Orinda Village,Contra Costa,CA,,,5102872038,37.898079,-122.226642,279,Pond,Permanent,Artificial
1,MUD97,MUD97,East Bay Municipal Utility District San Pablo Reservoir,MUD,East Bay Municipal Utility District,,Moraga,Contra Costa,CA,,,5102872038,37.8081701,-122.0815286,332,Pond,Temporary,Artificial
1,MUD98,MUD98,East Bay Municipal Utility District San Leandro Reservoir,MUD,East Bay Municipal Utility District,,San Leandro,Contra Costa,CA,,,5102872038,37.806841,-122.083523,342,Pond,Permanent,Artificial
,MUDAMA,Mud Lake,Eldorado National Forest,,National Forest Service,,Tragedy Spring,Amador,CA,,,,38.610053,-120.149231,2400,Lake,Permanent,Natural
1,MUDB,Burr,East Bay Municipal Utility District San Pablo Reservoir,MUD,East Bay Municipal Utility District,,Orinda Village,Contra Costa,CA,,,5102872038,37.912892,-122.245938,238,Pond,Temporary,Artificial
1,MUDCM,Col. Mustard,East Bay Municipal Utility District San Pablo Reservoir,MUD,East Bay Municipal Utility District,,Orinda Village,Contra Costa,CA,,,5102872038,37.930166,-122.236984,94,Pond,Permanent,Artificial
1,MUDCR,Crickets,East Bay Municipal Utility District San Pablo Reservoir,MUD,East Bay Municipal Utility District,,Orinda Village,Contra Costa,CA,EBMUD,,5102872038,37.93853,-122.21432,210,Pond,Semi-permanent,Artificial
1,MUDEF,Electric Fence/Pond 44,East Bay Municipal Utility District San Pablo Reservoir,MUD,East Bay Municipal Utility District,,Orinda Village,Contra Costa,CA,EBMUD,,5102872038,37.95203,-122.22482,192,Pond,Permanent,Artificial
1,MUDGCP,Mudd,Joseph Grant County Park,GCP,Santa Clara County Parks,,Alum Rock,Santa Clara,CA,,,,37.328093,-121.682129,695,Pond,Semi-permanent,Artificial
1,MUDLG,Little Grommet,East Bay Municipal Utility District San Pablo Reservoir,MUD,East Bay Municipal Utility District,,Orinda Village,Contra Costa,CA,EBMUD,,5102872038,37.9605,-122.22242,240,Lake,Permanent,Artificial
1,MUDNP,MUD Near Pumphouse,East Bay Municipal Utility District San Pablo Reservoir,MUD,East Bay Municipal Utility District,,Orinda Village,Contra Costa,CA,,,5102872038,37.948148,-122.23299,170,Pond,Temporary,Artificial
1,MUDRS,ROADSIDE/Pond 48,East Bay Municipal Utility District San Pablo Reservoir,MUD,East Bay Municipal Utility District,,Orinda Village,Contra Costa,CA,EBMUD,,5102872038,37.9417,-122.21533,280,Pond,Semi-permanent,Artificial
1,MUDUNK,MUDUNK,East Bay Municipal Utility District San Pablo Reservoir,MUD,East Bay Municipal Utility District,,Orinda Village,Contra Costa,CA,,,5102872038,37.92949,-122.238717,90,Pond,Temporary,Artificial
1,N4LV,N4,Los Vaqueros,LV,Contra Costa Water District,,San Ramon,Contra Costa,CA,Jeff Alvarez,,9164410322,37.842567,-121.721829,79,Pond,Temporary,Artificial
1,N5LV,N5,Los Vaqueros,LV,Contra Costa Water District,,San Ramon,Contra Costa,CA,Jeff Alvarez,,9164410322,37.84516239,-121.7163267,72,Pond,Permanent,Artificial
3,Native1,Native Species Facilty #1,Native Aquatic Species Restoration Facility,,CDOW,,Alamosa,Alamosa,CO,Kirk Navo,,7195876906,37.47617,-105.944,2314,Pond,Permanent,Artificial
3,Native2,Native Species Facility #2,Native Aquatic Species Restoration Facility,,CDOW,,Alamosa,Alamosa,CO,Kirk Navo,,7195876906,37.47294,-105.94243,2313,Pond,Permanent,Artificial
,NBC01,Near Big Creek,Lassen National Forest Near Big Creek,LNF,National Forest Service,,Shingletown,Shasta,CA,,,,40.593333,-121.605217,1739,Wetland,Semi-permanent,Natural
,NBC02,Big Lake,Lassen National Forest Near Big Lake,LNF,National Forest Service,,Shingletown,Shasta,CA,,,,40.63055,-121.629333,1780,Lake,Permanent,Natural
1,NBOR,North,Blue Oaks Ranch Reserve,BOR,UC-Berkeley,,San Jose,Santa Clara,CA,Mike Hamilton,Jeff Wilcox,4247045908,37.388181,-121.747062,590,Pond,Permanent,Artificial
5,NC-POC08,POC08,Pocosin Lakes National Wildlife Refuge,POC,,4,,,NC,,,,35.91531,-76.253587,,,,
5,ND-ADB01,"Pond 1,2,3",Audubon National Wildlife Refuge,ADB,,6,,,ND,,,,47.578712,-101.247193,,,,
5,ND-FCL02,N. Crimmins,Long Lake National Wildlife Refuge,LNL,,6,,,ND,,,,47.30352,-100.34894,,,,
5,ND-FCL03,Florence Lake Culvert South,Florence Lake National Wildlife Refuge,FCL,,6,,,ND,,,,47.28335944,-100.3251786,,,,
1,NDFGCP,Near Dutch Flat,Joseph Grant County Park,GCP,Santa Clara County Parks,,Alum Rock,Santa Clara,CA,Mike Maximovich,,4082626980,37.3042667,-121.7043,560,Pond,Temporary,Artificial
5,ND-LNL01,Schier #1,Long Lake National Wildlife Refuge,LNL,,6,,,ND,,,,46.3673521,-100.4995502,,,,
5,ND-LNL02,Schier #2,Long Lake National Wildlife Refuge,LNL,,6,,,ND,,,,46.3688106,-100.4979788,,,,
5,ND-LNL03,SFG Ditch,Long Lake National Wildlife Refuge,LNL,,6,,,ND,,,,46.6058016,-99.9366677,,,,
5,ND-LNL05,East,Long Lake National Wildlife Refuge,LNL,,6,,,ND,,,,46.6136408,-99.9366329,,,,
5,ND-LNL07,LLNWR G-8,Long Lake National Wildlife Refuge,LNL,,6,,,ND,,,,46.675,-100.24287,,,,
5,ND-LST01,(unnamed),Lost Lake National Wildlife Refuge,LST,,6,,,ND,,,,48.63576,-102.48362,,,,
5,ND-LST03,(unnamed),Lost Lake National Wildlife Refuge,LST,,6,,,ND,,,,48.58228,-102.46549,,,,
5,ND-TWK01,TWK01,Tewaukon National Wildlife Refuge,TWK,,6,,,ND,,,,46.00060147,-97.37484693,,,,
5,ND-TWK02,TWK02,Tewaukon National Wildlife Refuge,TWK,,6,,,ND,,,,46.01296465,-97.3809756,,,,
5,NE-RWB13,County Line WPA,Rainwater Basin National Wildlife Refuge,RWB,,6,,,NE,,,,40.69875,-97.54501,,,,
5,NE-RWB17,Waco WPA,Rainwater Basin National Wildlife Refuge,RWB,,6,,,NE,,,,40.90491,-97.48265,,,,
5,NE-RWB26,Cottonwood WPA West,Rainwater Basin National Wildlife Refuge,RWB,,6,,,NE,,,,40.54772079,-99.59303328,,,,
5,NE-RWB27,Cottonwood WPA South,Rainwater Basin National Wildlife Refuge,RWB,,6,,,NE,,,,40.5404359,-99.58652624,,,,
1,NewtonCL,Newton,Coyote Lake County Park,CL,Santa Clara County Parks,,San Martin,Santa Clara,CA,Coyote Lake Office,,4088427800,37.078809,-121.538596,243,Pond,Semi-permanent,Artificial
,NEWZEAL,NewZeland,,,,,,,,,,,,,,,,
5,NH-ALUNK,UNKNOWN ALSTEAD WETLAND,,Alstead,,,,,NH,,,,,,,,,
5,NH-GTB01,Ferry Way,Great Bay National Wildlife Refuge,GTB,,5,,,NH,,,,43.09033,-70.85031,,,,
5,NH-GTB02,Beaver Pond,Great Bay National Wildlife Refuge,GTB,,5,,,NH,,,,43.07885,-70.83727,,,,
5,NH-GTB08,GTB08,Great Bay National Wildlife Refuge,GTB,,5,,,NH,,,,43.0792,-70.83659,,,,
5,NH-GTB09,GTB09,Great Bay National Wildlife Refuge,GTB,,5,,,NH,,,,43.08645,-70.84756,,,,
5,NH-MNT01,#2 Main Pool and Dyke,Montezuma National Wildlife Refuge,MNT,,5,,,NH,,,,42.96319,-76.74156,,,,
5,NH-NHUNK,UNKNOWN NEW HAMPSHIRE,,NH,,,,,NH,,,,,,,,,
5,NJ-GRS01,Ditch to River,Great Swamp National Wildlife Refuge,GRS,,5,,,NJ,,,,40.70367,-74.51631,,,,
5,NJ-GRS02,House Pond,Great Swamp National Wildlife Refuge,GRS,,5,,,NJ,,,,40.11636,-74.51865,,,,
5,NJ-GRS03,Harding Landfill,Great Swamp National Wildlife Refuge,GRS,,5,,,NJ,,,,40.70275,-74.514639,,,,
5,NJ-GRS04,Pleasant Plain Rd. Ditches,Great Swamp National Wildlife Refuge,GRS,,5,,,NJ,,,,40.70182,-74.49939,,,,
5,NJ-GRS05,Colins Ditch,Great Swamp National Wildlife Refuge,GRS,,5,,,NJ,,,,40.71481,-74.51539,,,,
5,NJ-GRS06,Operable Unit 3,Great Swamp National Wildlife Refuge,GRS,,5,,,NJ,,,,40.72125,-74.48838889,,,,
5,NJ-GRS07,SKYLINE DRIVE,GREAT SWAMP NATIONAL WILDLIFE REFUGE,GRS,,5,,,NJ,,,,40.68414,-74.51584,,,,
5,NJ-WLK,WLK,Wallkill National Wildlife Refuge,WLK,,5,,,NJ,,,,,,,,,
1,NoahBOR,Noah's,Blue Oaks Ranch Reserve,BOR,UC-Berkeley,,San Jose,Santa Clara,CA,Mike Hamilton,Jeff Wilcox,4247045908,37.379315,-121.716128,774,Pond,Permanent,Artificial
1,NoNameCL,No Name,Coyote Lake County Park,CL,Santa Clara County Parks,,San Martin,Santa Clara,CA,Coyote Lake Office,,4088427800,37.081462,-121.533535,262,Pond,Permanent,Artificial
1,NORTHGCP,Ferrari Pond,Joseph Grant County Park,GCP,Santa Clara County Parks,,Alum Rock,Santa Clara,CA,Mike Maximovich,,4082626980,37.34675,-121.68752,811,Pond,Permanent,Artificial
1,NSDVL,No Satisfaction,Del Valle Regional Park,DVL,East Bay Regional Park District,,Livermore,Alameda,CA,Michelle Miller,,5105443141,37.60839,-121.72435,251,Pond,Temporary,Artificial
1,NTALKGCP,No Talk,Joseph Grant County Park,GCP,Santa Clara County Parks,,Alum Rock,Santa Clara,CA,Mike Maximovich,,4082626980,37.314528,-121.685424,590,Pond,Permanent,Artificial
5,NV-SAR05,IXL RANCH,SHELDON NATIONAL WILDLIFE REFUGE,SAR,,8,,,NV,,,,41.951758,-119.511758,,,,
5,NV-VVR,VIRGIN VALLEY RANCH,SHELDON NATIONAL WILDLIFE REFUGE,SAR,,8,,,NV,,,,41.852288,-119.002633,,,,
,NY-BLAND,Boland Pond,,,,,,,NY,,,,42.177789,-75.883035,,,,
5,NY-IRQ01,School House Marsh,Iroquois National Wildlife Refuge,IRQ,,5,,,NY,,,,43.14672,-78.37806,,,,
5,NY-IRQ02,Onandoga Trail,Iroquois National Wildlife Refuge,IRQ,,5,,,NY,,,,43.1213,-78.3619,,,,
5,NY-IRQ03,Cattle pond (moist soil unit),Iroquois National Wildlife Refuge,IRQ,,5,,,NY,,,,42.687984,-122.733472,,,,
5,NY-IRQ04,Ringneck Marsh,Iroquois National Wildlife Refuge,IRQ,,5,,,NY,,,,43.1394,-78.3778,,,,
5,NY-IRQ06,Munney Pits,Iroquois National Wildlife Refuge,IRQ,,5,,,NY,,,,43.1456,-78.37761,,,,
5,NY-IRQUK,IRQ Unknown,Iroquois National Wildlife Refuge,IRQ,,5,,,NY,,,,,,,,,
,NY-NUTCH,Nuthatch,,,,,,,NY,,,,42.177789,-75.883035,,,,
,NY-REDNT,Nature Preserve,,,,,,,NY,,,,42.0822869,-75.972019,,,,
1,O22,O-22,Henry Coe State Park,HC,California State Parks,,Gilroy,Santa Clara,CA,Tim Reilly,,8316239456,37.209452,-121.37281,343,Pond,Permanent,Artificial
1,O26,Turkey Pond,Henry Coe State Park,HC,California State Parks,,Gilroy,Santa Clara,CA,Tim Reilly,,8316239456,37.167194,-121.404529,467,Pond,Permanent,Artificial
5,OH-MS05,MS05,Ottawa National Wildlife Refuge,OTW,,3,,,OH,,,,41.629996,-83.22571,,,,
5,OH-OTW03,Entrance Pool,Ottawa National Wildlife Refuge,OTW,,3,,,OH,,,,41.60881,-83.2018,,,,
5,OH-OTW05,OTW05,Ottawa National Wildlife Refuge,OTW,,3,,,OH,,,,41.613823,-83.213062,,,,
1,OHPND003,OHPND003,Ohlone Regional Wilderness,OH,East Bay Regional Park District,,Fremont,Alameda,CA,Kelly Barrington,,5105443246,37.5394616,-121.7225282,876,Pond,Permanent,Artificial
1,OHPND006,OHPND006,Ohlone Regional Wilderness,OH,East Bay Regional Park District,,Fremont,Alameda,CA,Kelly Barrington,,5105443246,37.53769569,-121.7079058,1012,Pond,Permanent,Artificial
1,OHPND007,OHPND007,Ohlone Regional Wilderness,OH,East Bay Regional Park District,,Fremont,Alameda,CA,Kelly Barrington,,5105443246,37.526436,-121.6998,1052,Pond,Temporary,Artificial
1,OHPND008,OHPND008,Ohlone Regional Wilderness,OH,East Bay Regional Park District,,Fremont,Alameda,CA,Kelly Barrington,,5105443246,37.526031,-121.696655,1031,Pond,Temporary,Artificial
1,OHPND010,OHPND010,Ohlone Regional Wilderness,OH,East Bay Regional Park District,,Fremont,Alameda,CA,Kelly Barrington,,5105443246,37.5267397,-121.7012867,1052,Pond,Permanent,Artificial
1,OHPND012,OHPND012,Ohlone Regional Wilderness,OH,East Bay Regional Park District,,Fremont,Alameda,CA,Kelly Barrington,,5105443246,37.52559605,-121.6868776,1051,Pond,Temporary,Artificial
1,OHPND013,OHPND013,Ohlone Regional Wilderness,OH,East Bay Regional Park District,,Fremont,Alameda,CA,Kelly Barrington,,5105443246,37.545888,-121.7097842,886,Pond,Temporary,Artificial
1,OHPND014,OHPND014,Ohlone Regional Wilderness,OH,East Bay Regional Park District,,Fremont,Alameda,CA,Kelly Barrington,,5105443246,37.531007,-121.708685,948,Pond,Permanent,Artificial
1,OHPND016,OHPND016,Ohlone Regional Wilderness,OH,East Bay Regional Park District,,Fremont,Alameda,CA,Kelly Barrington,,5105443246,37.5182111,-121.7097634,1049,Pond,Permanent,Artificial
1,OHPND019,OHPND019,Ohlone Regional Wilderness,OH,East Bay Regional Park District,,Fremont,Alameda,CA,Kelly Barrington,,5105443246,37.5174223,-121.7142543,990,Pond,Temporary,Artificial
1,OHPND020,OHPND020,Ohlone Regional Wilderness,OH,East Bay Regional Park District,,Fremont,Alameda,CA,Kelly Barrington,,5105443246,37.516092,-121.707499,1073,Pond,Permanent,Artificial
1,OHPND021,OHPND021,Ohlone Regional Wilderness,OH,East Bay Regional Park District,,Fremont,Alameda,CA,Kelly Barrington,,5105443246,37.514543,-121.70156,1131,Pond,Permanent,Artificial
1,OHPND025,OHPND025,Ohlone Regional Wilderness,OH,East Bay Regional Park District,,Fremont,Alameda,CA,Kelly Barrington,,5105443246,37.508338,-121.739313,998,Pond,Permanent,Artificial
1,OHPND026,OHPND026,Ohlone Regional Wilderness,OH,East Bay Regional Park District,,Fremont,Alameda,CA,Kelly Barrington,,5105443246,37.514787,-121.754036,861,Pond,Permanent,Artificial
1,OHPND027,OHPND027,Ohlone Regional Wilderness,OH,East Bay Regional Park District,,Fremont,Alameda,CA,Kelly Barrington,,5105443246,37.516372,-121.762235,790,Pond,Permanent,Artificial
1,OHPND028,OHPND028,Ohlone Regional Wilderness,OH,East Bay Regional Park District,,Fremont,Alameda,CA,Kelly Barrington,,5105443246,37.508356,-121.770727,474,Pond,Permanent,Artificial
1,OHPND029,OHPND029,Ohlone Regional Wilderness,OH,East Bay Regional Park District,,Fremont,Alameda,CA,Kelly Barrington,,5105443246,37.506075,-121.7731127,422,Pond,Permanent,Artificial
1,OHPND030,OHPND030,Ohlone Regional Wilderness,OH,East Bay Regional Park District,,Fremont,Alameda,CA,Kelly Barrington,,5105443246,37.505211,-121.7734729,421,Pond,Permanent,Artificial
1,OHPND031,OHPND031,Ohlone Regional Wilderness,OH,East Bay Regional Park District,,Fremont,Alameda,CA,Kelly Barrington,,5105443246,37.528735,-121.789204,681,Pond,Permanent,Artificial
1,OHPND032,OHPND032,Ohlone Regional Wilderness,OH,East Bay Regional Park District,,Fremont,Alameda,CA,Kelly Barrington,,5105443246,37.525824,-121.78971,640,Pond,Temporary,Natural
1,OHPND033,OHPND033,Ohlone Regional Wilderness,OH,East Bay Regional Park District,,Fremont,Alameda,CA,Kelly Barrington,,5105443246,37.52089477,-121.7878722,612,Pond,Permanent,Artificial
1,OHPND034,OHPND034,Ohlone Regional Wilderness,OH,East Bay Regional Park District,,Fremont,Alameda,CA,Kelly Barrington,,5105443246,37.520484,-121.774072,735,Pond,Permanent,Artificial
1,OHPND038,OHPND038,Ohlone Regional Wilderness,OH,East Bay Regional Park District,,Fremont,Alameda,CA,Kelly Barrington,,5105443246,37.5102689,-121.7742629,533,Pond,Semi-permanent,Artificial
1,OHPND039,OHPND039,Ohlone Regional Wilderness,OH,East Bay Regional Park District,,Fremont,Alameda,CA,Kelly Barrington,,5105443246,37.5170749,-121.7729727,701,Pond,Permanent,Artificial
1,OHPND047,OHPND047,Ohlone Regional Wilderness,OH,East Bay Regional Park District,,Fremont,Alameda,CA,Kelly Barrington,,5105443246,37.534756,-121.78703,690,Pond,Temporary,Artificial
1,OHPND048,OHPND048,Ohlone Regional Wilderness,OH,East Bay Regional Park District,,Fremont,Alameda,CA,Kelly Barrington,,5105443246,37.516168,-121.787101,608,Pond,Semi-permanent,Artificial
1,OHPND050,OHPND050,Ohlone Regional Wilderness,OH,East Bay Regional Park District,,Fremont,Alameda,CA,Kelly Barrington,,5105443246,37.507333,-121.782895,408,Pond,Permanent,Artificial
1,OHPND052,OHPND052,Ohlone Regional Wilderness,OH,East Bay Regional Park District,,Fremont,Alameda,CA,Kelly Barrington,,5105443246,37.5134221,-121.7768218,628,Pond,Temporary,Artificial
5,OK-WST33,HWY 33 Bridge Wetland,Washita National Wildlife Refuge,WST,,2,,,OK,,,,35.63862,-99.28215,,,,
1,OPCRN,Old Pipe,Carnegie State Vehicular Recreational Area,CRN,California State Parks,,Livermore,Alameda,CA,Clint Eisholtz,,9254557873,37.620772,-121.594124,593,Pond,Temporary,Artificial
2,OR-AFTER,Afterthought,Black Butte Ranch,,,,,Deschutes,OR,Rick Unzuela,,,44.372563,-121.668197,,Pond,Temporary,Natural
2,OR-ALOH2,Aloha Pond 2,,,,,,Washington,OR,,,,45.48922,-122.839417,,,,
2,OR-ALOH3,Aloha Pond 3,,,,,,Washington,OR,,,,45.48922,-122.839417,,,,
2,OR-ALOHA,Aloha,,,,,,Washington,OR,,,,45.48922,-122.839417,,Pond,,
2,OR-ANDYS,Andys Pond,E. E. Wilson,,,,,Benton,OR,,,,44.70649424,-123.2092799,,Wetland,Other,Artificial
2,OR-ASPEN,Aspen Lake,Black Butte Ranch,,,,Black Butte Ranch,Deschutes,OR,Rick Unzuela,,,43.884687,-121.444832,4159,Lake,Permanent,
,OR-BALTZ,BALTZ,,,,,,Multnomah,OR,,,,45.510784,-122.452772,,,,
2,OR-BARRY,Barrys Pond,,,Private,,Grant's Pass,Josephine,OR,Traci,tracih@ibm.com,5416590890,42.490253,-123.368082,,Pond,Temporary,Natural
2,OR-BBRLP,BBR Lower Pond,Black Butte Ranch,,,,Black Butte Ranch,Deschutes,OR,Rick Unzueta,,,44.347672,-121.642239,,Pond,Permanent,Other
9,OR-BCC,BCC (Beaver Creek Canyon),,,,,,Multnomah,OR,,,,45.51828347,-122.3885679,,,,
2,OR-BCE04,BCE Pond 4,Butler Creek Elementary,,,,,Multnomah,OR,,,,45.472712,-122.456483,,,,
,OR-BCE08,BCE P-08,Butler Creek Elementary,,,,,Multnomah,OR,,,,45.472242,-122.459495,,,,
,OR-BCE11,BCE-S11,Butler Creek Elementary,,,,,Multnomah,OR,,,,45.472681,-122.45655,140,Pond,,
,OR-BCE26,BCE-P26,Butler Creek Elementary,,,,,Multnomah,OR,,,,45.47345,-122.45952,,,,
,OR-BOTT,Jackson Bottom Wetlands Preserve,Jackson Bottom Wetlands Preserve,,City of Hillsboro Parks and Recreation,,Hillsboro,Washington,OR,Chris Rombough,,,45.5047,-122.99,39,Wetland,Permanent,Natural
2,OR-CARM,Carmine Lake,,,,,,,OR,,,,43.116869,-122.586125,,Lake,Permanent,Natural
2,OR-CATLE,Cattle Pond,Elk Creek Dam,,,,,,OR,Chad Stewart Arymy Corps of Engineers,,5418782255,42.687984,-122.733472,,,Temporary,Artificial
,OR-CEDAR,Cedar pond,Cedar Mills Pond,,,,,Washington,OR,,,,45.5190072,-122.795226,,,,
9,OR-CENTL,Center Lake,,,,,,,OR,,,,,,,,,
9,OR-CHLIN,Cheltenham/Lincoln,,,,,,,OR,,,,,,,,,
,OR-DAN,Dan,,,,,Corvallis,,OR,,,,44.6038917,-123.3323389,,Pond,Temporary,Artificial
2,OR-DEMP,Dement Pond,,,,,,Coos,OR,County Roads Dept.,,,43.137166,-124.194603,,Pond,Permanent,Natural
2,OR-DIX01,Dixonville 1,,,,,,Douglas,OR,Jenny Gilman,,,43.21082,-123.211825,,Pond,Permanent,Natural
2,OR-DIX02,Dixonville 2,,,,,,,OR,,,,43.212049,-123.211582,,,,
9,OR-DIXCR,Dixonville Creek,,,,,,,OR,,,,,,,,,
2,OR-DOG,Dog Pond,,,,,Rogue River,,OR,Robert Lack and Beverly,5412101981,5418262248,42.52907,-123.14541,,Pond,Permanent,Natural
2,OR-DOUT,Dried-out Pond,,,,,,Jackson,OR,,,,42.3213,-122.9808,,Ditch,Temporary,Natural
9,OR-DWALM,DWA Last Minute,,,,,,,OR,,,,,,,,,
2,OR-DWALT,DWA-Alt,Denman Wetland Area,,,,,Jackson,OR,,,,42.450211,-122.8705,,Pond,Temporary,Natural
2,OR-DWAMA,DWA-Main,Denman Wetland Area,,,,,Jackson,OR,,,,42.45001,-122.869838,,Pond,Temporary,Natural
9,OR-DWLFT,DWA Left Pond,,,,,,,OR,,,,,,,,,
9,OR-ECD00,ECD Pond 0,,,,,,,OR,,,,,,,,,
9,OR-ECD01,ECD Pond 1,,,,,,,OR,,,,,,,,,
9,OR-ECD02,ECD Pond 2,,,,,,,OR,,,,,,,,,
9,OR-ECD03,ECD Pond 3,,,,,,,OR,,,,42.683324,-122.73319,,,,
9,OR-ECD04,ECD Pond 4,,,,,,,OR,,,,42.683324,-122.73319,,,,
2,OR-ECD05,ECD Pond 5,,,,,,,OR,,,,42.683324,-122.73319,,Stream,,
9,OR-ECDT5,ECD Temporary-5,,,,,,,OR,,,,42.68572,-122.735141,,,,
9,OR-ECDT6,ECD Temporary-6,,,,,,,OR,,,,42.68572,-122.735141,,,,
9,OR-ECDT7,ECD Temporary-7,,,,,,,OR,,,,42.68572,-122.735141,,,,
9,OR-EHMP1,EHRV Mid-pond 1,,,,,,,OR,,,,,,,,,
9,OR-EHMP2,EHRV Mid-pond 2,,,,,,,OR,,,,,,,,,
9,OR-EHRV1,EHRV Pond 1,,,,,,,OR,,,,,,,,,
9,OR-EHRV6,EHRV Pond 6,,,,,,,OR,,,,,,,,,
,OR-ELAKE,East Lake,,,,,,Deschutes,OR,,,,43.728511,-121.207064,6388,Lake,Permanent,
2,OR-FANNO,Fanno Creek Pond,,,,,,Deschutes,OR,,,,45.467163,-122.790306,,,,
,OR-FFNA,Foster Floodplain Natural Area,,,,,,,OR,Laura Guderyahn,,,45.473417,-122.54899,,,,
,OR-FLOR,Florence Point Park,Florence Point Park,,,,,Washington,OR,,,,45.456098,-122.75353,,,,
2,OR-GWS,Grey Wolf Site,,,,,,Deschutes,OR,,,,43.8086,-121.493842,,Pond,Temporary,
9,OR-HEMH,Hemholtz Pond,,,,,,,OR,,,,,,,,,
9,OR-HOLD,Holding Pond,,,,,,,OR,,,,,,,,,
9,OR-ILS,Island Lake Subpond,,,,,,,OR,,,,,,,,,
2,OR-JACK,Jacksonville,,,,,Jacksonville,Jackson,OR,None. Park and walk through fence.,,,42.324157,-122.984172,,Pond,Semi-permanent,Artificial
2,OR-JULIE,Julies Pond,,,,,,Jackson,OR,,,,42.318946,-122.984961,,Pond,Temporary,Artificial
,OR-KELLY,Kelly Creek Fish Pond,ALSO KNOW AS OR-KELLYCR,,CITY,,GRESHAM,Multnomah,OR,LAURA GUDERYAHN,,,45.486267,-122.381752,,Pond,Semi-permanent,Artificial
9,OR-LRP,Lone Rock Pond,,,,,,,OR,,,,,,,,,
,OR-MBE,Meadowbrook Marsh,ALSO CALLED MB MARSH,,CITY,,GRESHAM,Multnomah,OR,LAURA GUDERYAHN,,,45.3879,-122.3458,,Pond,,
2,OR-MHCC,MHCC,Mt Hood Community College,,,,,Multnomah,OR,Laura Gudergahm,,,45.518331,-122.388318,,Wetland,Other,
9,OR-MOBCR,Mooney BSA Creek,Mooney BSA,,,,,,OR,,,,,,,,,
,OR-MOBPD,,,,,,,,OR,,,,,,,,,
2,OR-MOBSA,Mooney BSA Pond,Mooney BSA,,,,,Douglas,OR,Ken Mckillip,,5416795151,43.077777,-123.604552,,Pond,Temporary,Artificial
2,OR-MOONY,Mooney Next Door,Mooney BSA,,,,,,OR,Ken McKillip,,5416795751,43.07722,-123.60406,,Pond,,Artificial
2,OR-MOSQU,Mosquito Pond,Mooney BSA,,,,,,OR,,,,43.03585,-122.362056,,Wetland,Temporary,Natural
2,OR-NEW,New Pond,,,,,Rogue River,,OR,Robert Lack,5412101987,5418262248,42.52897,-123.14169,,Pond,Permanent,
9,OR-OWP,Old Willies Pond,,,,,,,OR,,,,,,,,,
,OR-P156G,P156G,Gresham Project,,,,,Multnomah,OR,,,,45.4811,-122.405753,129,Pond,Permanent,
,OR-P30GP,P30 Gresham,Gresham Project,,,,,Multnomah,OR,,,,45.480799,-122.374694,,,,
2,OR-PADLE,Paddle Boat,,,,,Rogue River,Josephine,OR,Robert Lack,,,42.5296,-123.1475,,Pond,Permanent,Natural
9,OR-PERM,Perm Pond near Barry Pond,,,,,,,OR,,,,,,,,,
2,OR-PIN02,La Pine 2,,,,,,,OR,,,,43.67348,-121.53404,,Pond,Temporary,Artificial
2,OR-PIN03,La Pine 3,,,,,,,OR,,,,43.67403,-121.53266,,,,
2,OR-PIN1A,La Pine 1A,,,,,,,OR,Jay Bowerman,,,43.675,-121.529167,,Pond,Temporary,Artificial
2,OR-PIN1B,La Pine 1B,,,,,,,OR,,,,43.675,-121.529167,,,,
2,OR-PN01,La Pine 1,,,,,,,OR,,,,43.67417,-121.53251,,,,
2,OR-PN4.1,La Pine 4 Option 1,,,,,,,OR,,,,43.675,-121.529167,,Pond,Temporary,Artificial
2,OR-PN4.2,La Pine 4 Option 2,,,,,,,OR,,,,43.675,-121.529167,,Pond,Temporary,Artificial
9,OR-PNOLD,La Pine Older Pond,,,,,,,OR,,,,,,,,,
9,OR-PNOXB,La Pine Oxbow,,,,,,,OR,,,,,,,,,
9,OR-RCP,Rock Creek Pond,,,,,,,OR,,,,,,,,,
2,OR-SLDEE,Dee,Sky Lakes Wilderness,,,,,,OR,,,,42.520708,-122.243843,,Pond,,
2,OR-SLNOR,North,Sky Lakes Wilderness,,,,,,OR,,,,42.661316,-122.225496,,Lake,Permanent,Natural
2,OR-SPYGL,Spyglass,Spyglass,,Private,,,Washington,OR,,,,45.541252,-122.844509,60,Permanent,,
9,OR-STINK,Old Stinky,,,,,,,OR,,,,,,,,,
2,OR-TBS,TailBiter,,,,,,,OR,,,,43.8061,-121.49278,,Pond,Temporary,Natural
9,OR-TERRA,Terrabonne,,,,,,,OR,,,,,,,,,
,OR-THNP,Tadpole Pond,Tualatin Hills Nature Park,THNP,,,,Washington,OR,,,,45.501728,-122.83802,58,Pond,Temporary,
,OR-THNPE,East,Tualatin Hills Nature Park,THNP,,,,Washington,OR,,,,45.50194,-122.837872,,Pond,Temporary,
,OR-THNPW,West (she calls south),Tualatin Hills Nature Park,THNP,,,,Washington,OR,,,,45.501323,-122.837844,,Pond,Temporary,
,OR-TILLA,Tillamook,,,,,Tillamook,Tillamook,OR,,,,45.452744,-123.846282,22,,,
5,OR-TLT01,Riverboat Unit,Tualatin River National Wildlife Refuge,TLT,,1,,Washington,OR,,,,45.40398,-122.88647,,,,
5,OR-TLT02,Morand Unit,Tualatin River National Wildlife Refuge,TLT,,1,,Washington,OR,,,,45.3927,-122.82287,,,,
5,OR-TLT03,TLT03,Tualatin River National Wildlife Refuge,TLT,,1,,Washington,OR,,,,45.38126,-122.8358,,,,
2,OR-TOMP,Tom Pearce Pond,Tom Pearce Park,,,,,Washington,OR,,,,42.4287,-123.2816,,Pond,Permanent,Natural
9,OR-TRIMP,Trimbull Pond,,,,,,,OR,,,,,,,,,
9,OR-UPP,Upper Pond,,,,,,,OR,,,,,,,,,
3,OSMP98,OSMP #98,,,OSMP,,Boulder,Boulder,CO,OSMP,,,39.92002,-105.24358,1854,Pond,Temporary,Natural
1,P06,P-06,Henry Coe State Park,HC,California State Parks,,Gilroy,Santa Clara,CA,Tim Reilly,,8316239456,37.14623,-121.405916,490,Pond,Semi-permanent,Artificial
1,P08,P-08,Henry Coe State Park,HC,California State Parks,,Gilroy,Santa Clara,CA,Tim Reilly,,8316239456,37.13751,-121.418606,685,Pond,Permanent,Artificial
1,P10,Fish and Game Pond,Henry Coe State Park,HC,California State Parks,,Gilroy,Santa Clara,CA,Tim Reilly,,8316239456,37.130297,-121.419344,648,Pond,Permanent,Artificial
1,P19,Scherrer Pond,Henry Coe State Park,HC,California State Parks,,Gilroy,Santa Clara,CA,Tim Reilly,,8316239456,37.124332,-121.374193,342,Pond,Permanent,Artificial
1,P20,P-20,Henry Coe State Park,HC,California State Parks,,Gilroy,Santa Clara,CA,Tim Reilly,,8316239456,37.112303,-121.371803,567,Pond,Permanent,Artificial
5,PA-ERE01,Moist Soil Unit #20,Erie National Wildlife Refuge,ERE,,5,,,PA,,,,41.6066,-79.9555,,,,
5,PA-ERE02,Headquarters Pool,Erie National Wildlife Refuge,ERE,,5,,,PA,,,,41.6296,-79.9615,,,,
5,PA-ERE06,Tsuga Trail Pond,Erie National Wildlife Refuge,ERE,,5,,,PA,,,,41.62525,-79.95992,,,,
3,Perry1,Perry Park Culvert (W side of road),,,Douglas County Open Space,,Larkspur,Douglas,CO,Douglas County Open Space,,,39.25562,-104.98961,1963,Stream,Semi-permanent,Artificial
3,Perry2,Perry Park Gateway,,,Douglas County Open Space,,Larkspur,Douglas,CO,Douglas County Open Space,,,39.24012,-104.95708,1972,Pond,Permanent,Artificial
3,Pickup,Pick up Pond,,,Private,,Broomfield,Superior,CO,Private,,,39.94191,-105.15887,1698,Pond,Permanent,Artificial
1,PLOS,Plano Oasis,Henry Coe State Park,HC,California State Parks,,Gilroy,Santa Clara,CA,Tim Reilly,,8316239456,37.14969,-121.373873,429,Pond,Temporary,Natural
1,POGCP,Poison Oak,Joseph Grant County Park,GCP,Santa Clara County Parks,,Alum Rock,Santa Clara,CA,,,,37.304184,-121.69777,502,Pond,Temporary,Artificial
1,Pond14,Pond14,East Bay Municipal Utility District North of Alhambra Rd,MUD,East Bay Municipal Utility District,,,Contra Costa,CA,EBMUD,,,37.984746,-122.21356,,,Temporary,
1,Pond21,Pond21,East Bay Municipal Utility District North of Alhambra Rd,MUD,East Bay Municipal Utility District,,,Contra Costa,CA,EBMUD,,,37.975976,-122.208199,,,Permanent,
,PORTLAND,Portland,,,,,,,OR,,,,,,,,,
1,PPKBOR,Pumpkin,Blue Oaks Ranch Reserve,BOR,UC-Berkeley,,San Jose,Santa Clara,CA,Mike Hamilton,Jeff Wilcox,4247045908,37.392472,-121.743431,698,Pond,Temporary,Artificial
3,Prairie1,Prairie Canyon Ranch Pond 1,,,Douglas County Open Space,,,Douglas,CO,Douglas County Open Space,,,39.30806,-104.72062,2018,,Permanent,Artificial
3,Prairie2,Prairie Canyon Ranch Pond 2,,,Douglas County Open Space,,,Douglas,CO,Douglas County Open Space,,,39.30642,-104.71992,2021,Pond,Permanent,Artificial
,PRBEACH,Newt Beach,Pleasanton Ridge Regional Park,PLR,East Bay Regional Park District,,,Alameda,CA,,,,37.6744864,-121.98385,407,,Permanent,
,PRCANADA,Canada,Pleasanton Ridge Regional Park,PLR,East Bay Regional Park District,,,Alameda,CA,,,,37.664645,-121.9759,408,,Permanent,
,PRCRATER,Crater Pond,Pleasanton Ridge Regional Park,PLR,East Bay Regional Park District,,,Alameda,CA,,,,37.676933,-121.95765,391,,Permanent,
,PREDEN,Eden Pond,Pleasanton Ridge Regional Park,PLR,East Bay Regional Park District,,,Alameda,CA,,,,37.6584448,-121.96987,340,,Permanent,
,PRISEN,Isengard,Pleasanton Ridge Regional Park,PLR,East Bay Regional Park District,,,Alameda,CA,,,,37.6654798,-121.97102,462,,,
123,PRJIVE,Jive turkey,Pleasanton Ridge Regional Park,PLR,East Bay Regional Park District,,Pleasanton,Alameda,CA,Terry Neumann,,,37.641453,-121.962305,319,Pond,Temporary,Artificial
,PRKING,King crab,Pleasanton Ridge Regional Park,PLR,East Bay Regional Park District,,,Alameda,CA,,,,37.665066,-121.981924,317,,,
1,PRNTH1,PRNTH1,Pleasanton Ridge Regional Park,PLR,East Bay Regional Park District,,Pleasanton,Alameda,CA,Steve Quick,,9258622963,37.670918,-121.956277,406,Pond,Permanent,Artificial
1,PRNTH2,PRNTH2,Pleasanton Ridge Regional Park,PLR,East Bay Regional Park District,,Pleasanton,Alameda,CA,Steve Quick,,9258622963,37.671443,-121.962415,414,Pond,Semi-permanent,Artificial
1,PRNTH3,PRNTH3,Pleasanton Ridge Regional Park,PLR,East Bay Regional Park District,,Pleasanton,Alameda,CA,Steve Quick,,9258622963,37.66782,-121.963636,411,Pond,Semi-permanent,Artificial
1,PRNTH4,PRNTH4,Pleasanton Ridge Regional Park,PLR,East Bay Regional Park District,,Pleasanton,Alameda,CA,STEVE QUICK,,,37.66308,-121.96712,468,Pond,Permanent,Artificial
,PRNTHCHR,PRNTHCHAIR,Pleasanton Ridge Regional Park,PLR,East Bay Regional Park District,,Pleasanton,Alameda,CA,Steve Quick,,,37.661759,-121.964781,350,Pond,Temporary,Artificial
1,PRNTHIDK,I DUNNO,Pleasanton Ridge Regional Park,PLR,East Bay Regional Park District,,Pleasanton,Alameda,CA,STEVE QUICK,,,37.65212,-121.95194,480,Pond,Permanent,Artificial
,PRNTHJV,PRNTHJIVE,Pleasanton Ridge Regional Park,PLR,East Bay Regional Park District,,Pleasanton,Alameda,CA,Steve Quick,,,37.641453,-121.962305,,Pond,Temporary,Artificial
,PRNTHKIM,PRNTHKIMYE,Pleasanton Ridge Regional Park,PLR,Private,,Pleasanton,Alameda,CA,STEVE QUICK,,,37.644769,-121.947782,470,Pond,Temporary,Artificial
1,PRNTHMIT,Mittens,Pleasanton Ridge Regional Park,PLR,East Bay Regional Park District,,Pleasanton,Alameda,CA,STEVE QUICK,,,37.65671,-121.95811,483,Pond,Permanent,Artificial
1,PRNTHOWL,Owlhenge,Pleasanton Ridge Regional Park,PLR,East Bay Regional Park District,,Pleasanton,Alameda,CA,STEVE QUICK,,,37.65944,-121.96001,481,Pond,Temporary,Artificial
,PRPIMP,,,,,,,,CA,,,,,,,,,
1,PRPND001,PRPND001,Pleasanton Ridge Regional Park,PLR,East Bay Regional Park District,,Pleasanton,Alameda,CA,Steve Quick,,9258622963,37.59859168,-121.8883578,137,Pond,Semi-permanent,Artificial
1,PRPND002,PRPND002,Pleasanton Ridge Regional Park,PLR,East Bay Regional Park District,,Pleasanton,Alameda,CA,Steve Quick,,9258622963,37.607681,-121.890551,185,Pond,Permanent,Artificial
1,PRPND003,PRPND003,Pleasanton Ridge Regional Park,PLR,East Bay Regional Park District,,Pleasanton,Alameda,CA,Steve Quick,,9258622963,37.61664882,-121.8964405,318,Pond,Permanent,Artificial
1,PRPND004,PRPND004,Pleasanton Ridge Regional Park,PLR,East Bay Regional Park District,,Pleasanton,Alameda,CA,Steve Quick,,9258622963,37.61920895,-121.8978667,343,Pond,Permanent,Artificial
1,PRPND005,PRPND005,Pleasanton Ridge Regional Park,PLR,East Bay Regional Park District,,Pleasanton,Alameda,CA,Steve Quick,,9258622963,37.62967057,-121.9095985,377,Pond,Permanent,Artificial
1,PRPND007,PRPND007,Pleasanton Ridge Regional Park,PLR,East Bay Regional Park District,,Pleasanton,Alameda,CA,Steve Quick,,9258622963,37.62229074,-121.8866388,150,Pond,Semi-permanent,Artificial
1,PRPND008,PRPND008,Pleasanton Ridge Regional Park,PLR,East Bay Regional Park District,,Pleasanton,Alameda,CA,Steve Quick,,9258622963,37.61994388,-121.8914019,240,Pond,Semi-permanent,Artificial
1,PRPND009,Murky Bullfrog,Pleasanton Ridge Regional Park,PLR,East Bay Regional Park District,,Pleasanton,Alameda,CA,Steve Quick,,9258622963,37.64527893,-121.918319,441,Pond,Permanent,Artificial
1,PRPND010,Kevins,Pleasanton Ridge Regional Park,PLR,East Bay Regional Park District,,Pleasanton,Alameda,CA,Steve Quick,,9258622963,37.64720844,-121.9192917,436,Pond,Permanent,Artificial
1,PRPND012,Turtle,Pleasanton Ridge Regional Park,PLR,East Bay Regional Park District,,Pleasanton,Alameda,CA,Steve Quick,,9258622963,37.65705884,-121.9413617,340,Pond,Permanent,Artificial
1,PRPND014,Quick,Pleasanton Ridge Regional Park,PLR,East Bay Regional Park District,,Pleasanton,Alameda,CA,Steve Quick,,9258622963,37.66135714,-121.9315074,431,Pond,Permanent,Artificial
1,PRPND015,Sheep,Pleasanton Ridge Regional Park,PLR,East Bay Regional Park District,,Pleasanton,Alameda,CA,Steve Quick,,9258622963,37.658097,-121.928906,362,Pond,Temporary,Artificial
,PRPONY,,,,,,,,CA,,,,,,,,,
,PRSPRING,,,,,,,,CA,,,,,,,,,
1,PRTY01,PRTY01,Pleasanton Ridge Regional Park,PLR,East Bay Regional Park District,,Pleasanton,Alameda,CA,Steve Quick,,9258622963,37.608427,-121.90598,415,Pond,Temporary,Artificial
1,PRTY02,Secchi Eater,Pleasanton Ridge Regional Park,PLR,East Bay Regional Park District,,Pleasanton,Alameda,CA,Steve Quick,,9258622963,37.604197,-121.901238,345,Pond,Permanent,Artificial
1,PRTY03,PRTY03,Pleasanton Ridge Regional Park,PLR,East Bay Regional Park District,,Pleasanton,Alameda,CA,Steve Quick,,9258622963,37.601461,-121.896337,249,Pond,Semi-permanent,Artificial
1,PSMUD,Pit Stop Pond,East Bay Municipal Utility District,MUD,East Bay Municipal Utility District,,Orinda Village,Contra Costa,CA,,,5102872038,37.972781,-122.209283,150,Pond,Permanent,Artificial
,PUMPPD,Pump Pond,Rancho Jamul Ecological Reserve,RJE,Hopland,1,San Diego,San Diego,CA,Chris Brown,,6192256433,32.677017,-116.865087,215,Pond,Permanent,
,RAINBOW,RAINBOW,BLUEHOLE,,,,,,,,,,,,,,,
1,RBALP,Ritch Bitch,Anderson Lake County Park,ALP,Santa Clara County Parks,,Morgan Hill,Santa Clara,CA,,,4083552201,37.152439,-121.596634,189,Pond,Permanent,Artificial
1,ReefPR,Reefer,Palassou Ridge Open Space,PR,Santa Clara County Open Space,,San Jose,Santa Clara,CA,Patrick Congdon,,4082247476,37.099641,-121.522998,599,Pond,Permanent,Artificial
1,RFGTCRN,Refrigerator,Carnegie State Vehicular Recreational Area,CRN,California State Parks,,Livermore,Alameda,CA,Clint Eisholtz,,9254557873,37.60932,-121.58992,638,Pond,Temporary,Artificial
3,RioSWA1,Rio Grande SWA #1,Rio Grande State Wildlife Area,,CDOW,,Monte Vista,Rio Grande,CO,Kirk Navo,,7195876906,37.576,-106.052102,2329,Stream,Permanent,Artificial
3,RioSWA2,Rio Grande SWA #2,Rio Grande State Wildlife Area,,CDOW,,Monte Vista,Rio Grande,CO,Kirk Navo,,7195876906,37.56978,-106.06106,2325,Pond,Semi-permanent,Artificial
3,RIRE,Rifle Reststop,,,,,Rifle,Garfield,CO,,,,39.52659,-107.782675,1616,Pond,Permanent,Artificial
1,RLSNKGCP,Rattlesnake Pond,Joseph Grant County Park,GCP,Santa Clara County Parks,,Alum Rock,Santa Clara,CA,Mike Maximovich,,4082626980,37.315144,-121.690974,479,Pond,Permanent,Artificial
1,RONJRGCP,Ron Jeremy/Vernal Pool,Joseph Grant County Park,GCP,Santa Clara County Parks,,Alum Rock,Santa Clara,CA,Mike Maximovich,,4082626980,37.349008,-121.725659,515,Pond,Temporary,Natural
1,RoopCL,Roop,Coyote Lake County Park,CL,Santa Clara County Parks,,San Martin,Santa Clara,CA,Coyote Lake Office,,4088427800,37.063391,-121.522467,167,Pond,Permanent,Artificial
1,RSBOR,Ropeswing,Blue Oaks Ranch Reserve,BOR,UC-Berkeley,,San Jose,Santa Clara,CA,Mike Hamilton,Jeff Wilcox,4247045908,37.395493,-121.734372,750,Pond,Permanent,Artificial
,RUNWAY,RUNWAY,BLUEHOLE,,,,,,,,,,,,,,,
3,Russell1,Russell Lakes SWA #1,Russell Lakes SWA,,CDOW,,Saguache,Saguache,CO,CDOW,,,39.96,-106.12315,2321,Pond,Permanent,Artificial
3,Russell2,Russell Lakes SWA #2,Russel Lakes SWA,,CDOW,,Saguache,Saguache,CO,CDOW,,,37.96108,-106.12008,2322,Pond,Permanent,Artificial
3,Russell3,Russell Lakes SWA #3,Russell Lakes SWA,,CDOW,,Saguache,Saguache,CO,CDOW,,,37.95947,-106.11817,2321,Pond,Permanent,Artificial
3,Russell4,Russell Lakes SWA #4,Russel Lakes SWA,,CDOW,,Saguache,Saguache,CO,CDOW,,,37.94828,-106.12008,2319,Pond,Temporary,Artificial
1,RVCRLCRN,Ravine Corral,Carnegie State Vehicular Recreational Area,CRN,California State Parks,,Livermore,Alameda,CA,Clint Eisholtz,,9254557873,37.630778,-121.579061,252,Pond,Temporary,Artificial
,SAANKLE,Ankle Pond,San Antonio Reservoir,,,,,Alameda,CA,,,,37.571191,-121.797238,186,,,
,SABIGJ,SA Big Johnson,San Antonio Reservoir,,San Francisco Public Utilities Commission,Sunol,,Alameda,CA,,,,37.79361,-121.833,,,,
,SABLUE,Blue Pill,San Antonio Reservoir,,,,,Alameda,CA,,,,37.591355,-121.850493,127,,,
,SACHUB,SA Half Chub,San Antonio Reservoir,,,,,Alameda,CA,,,,37.589002,-121.796451,178,,,
,SANICK,Nick Cage,San Antonio Reservoir,,,,,Alameda,CA,,,,37.569098,-121.788849,224,,,
0,SAPOX,small pox,SAN ANTONIO,0,san Francisco water district,,pleasanton,Alameda,CA,,,,37.808333,-121.962778,230,Pond,Permanent,Artificial
,SATREE,Tree Trunk,San Antonio Reservoir,,,,,Alameda,CA,,,,37.593595,-121.840558,129,,,
1,SBOR,South,Blue Oaks Ranch Reserve,BOR,UC-Berkeley,,San Jose,Santa Clara,CA,Mike Hamilton,Jeff Wilcox,4247045908,37.368716,-121.728146,582,Pond,Temporary,Artificial
5,SC-SNT02,SNT02,SANTEE NATIONAL WILDLIFE REFUGE,SNT,,4,,,SC,,,,33.54381,-80.43873,,,,
5,SC-SNT05,SNT05,SANTEE NATIONAL WILDLIFE REFUGE,SNT,,4,,,SC,,,,33.5103,-80.27434,,,,
,SD,South Dakota,,,,,,,SD,,,,42.565923,-96.54376,,,,
,SD-HORSE,Horseshoe Lake,,,,,,,SD,,,,45.205272,-97.635582,,,,
5,SD-WBY02,Headquarters,Waubay National Wildlife Refuge,WBY,,6,,,SD,,,,45.426,-97.3274,,,,
1,SF26,SF26,San Felipe Ranch,SF,San Felipe Ranch,,San Felipe Ranch,Santa Clara,CA,Ralph Jacobson,,4082745303,37.27889,-121.69814,618,Pond,Permanent,Artificial
1,SF27,CA-SF27,San Felipe Ranch,SF,San Felipe Ranch,,San Felipe Ranch,Santa Clara,CA,Ralph Jacobson,,4082745303,37.2894,-121.7029,602,Pond,Permanent,Artificial
1,SF34,SF34,San Felipe Ranch,SF,San Felipe Ranch,,San Felipe Ranch,Santa Clara,CA,Ralph Jacobson,,4082745303,37.30361,-121.69577,504,Pond,Temporary,Artificial
1,SF37,SF37,San Felipe Ranch,SF,San Felipe Ranch,,San Felipe Ranch,Santa Clara,CA,Ralph Jacobson,,4082745303,37.2876,-121.67305,485,Pond,Permanent,Artificial
1,SF40,CA-SF40,San Felipe Ranch,SF,San Felipe Ranch,,San Felipe Ranch,Santa Clara,CA,Ralph Jacobson,,4082745303,37.29903,-121.67149,588,Pond,Temporary,Artificial
1,SF41,CA-SF41,San Felipe Ranch,SF,San Felipe Ranch,,San Felipe Ranch,Santa Clara,CA,Ralph Jacobson,,4082745303,37.3015,-121.67259,583,Pond,Temporary,Artificial
1,SF42,CA-SF42,San Felipe Ranch,SF,San Felipe Ranch,,San Felipe Ranch,Santa Clara,CA,Ralph Jacobson,,4082745303,37.30588,-121.6622,747,Pond,Temporary,Artificial
,SF51,AREASF51,San Felipe Ranch,SF,San Felipe Ranch,,San Felipe,Santa Clara,CA,,,,37.27412,-121.6234,831,Pond,Temporary,Artificial
1,SFDAM,CA-SFDAM,San Felipe Ranch,SF,San Felipe Ranch,,San Felipe Ranch,Santa Clara,CA,Ralph Jacobson,,4082745303,37.28852,-121.68514,357,Lake,Permanent,Artificial
3,shoe,Shoe Pond,,,Private,,Denver,Jefferson,CO,Private,,,39.58801,-105.11435,1740,Pond,Permanent,Artificial
1,SHPTLGCP,Sharptail Pond/Dan's 64,Joseph Grant County Park,GCP,Santa Clara County Parks,,Alum Rock,Santa Clara,CA,Mike Maxomivich,,4082626980,37.309913,-121.694968,677,Pond,Permanent,Artificial
,SLA01,Belo Bite,Lassen National Forest Silver Lake Area,LNF,National Forest Service,,Susanville,Lassen,CA,,,,40.49497,-121.155154,1996,Pond,Semi-permanent,Natural
,SLA03,Fairy Shrimp,Lassen National Forest Silver Lake Area,LNF,National Forest Service,,Susanville,Lassen,CA,,,,40.500223,-121.159944,1980,Lake,Permanent,Natural
,SLA04,False Road,Lassen National Forest Silver Lake Area,LNF,National Forest Service,,Susanville,Lassen,CA,,,,40.494232,-121.139035,1935,Pond,Semi-permanent,Natural
,SLA07,Little Spotty,Lassen National Forest Silver Lake Area,LNF,National Forest Service,,Susanville,Lassen,CA,,,,40.493866,-121.134376,1934,Pond,Temporary,Natural
,SLA08,Big Spotty,Lassen National Forest Silver Lake Area,LNF,National Forest Service,,Susanville,Lassen,CA,,,,40.492851,-121.133508,1934,Lake,Permanent,Natural
,SLA09,Rocky Barren,Lassen National Forest Silver Lake Area,LNF,National Forest Service,,Susanville,Lassen,CA,,,,40.489885,-121.130076,1953,Pond,Semi-permanent,Natural
,SLA23,Tease,Lassen National Forest Silver Lake Area,LNF,National Forest Service,,Susanville,Lassen,CA,,,,40.479109,-121.148908,1996,Pond,Permanent,Natural
,SLCO03,SLCO-03,Santa Lucia,SLC,SLC,,Carmel,Monterry,CA,,,,36.59611,-121.9631,289,Pond,Permanent,Artificial
,SLCPO002,po-002,santa Lucia preserve,SLC,slc,,Carmel,Monterey,CA,,,,36.511389,-121.86972,258,Pond,Permanent,Artificial
,SLCPO02,SLCPO02,Santa Lucia Conservancy,,,,,Monterey,CA,,,,36.506629,-121.868569,,,,
,SLCPO03,SLCPO03,Santa Lucia Conservancy,,,,,Monterey,CA,,,,36.505684,-121.872264,304,,,
0,SLCRO010,slcro. 010,santa Lucia,0,Santa lucia,,Caramel by the sea,Monterey,CA,,,,36.510556,-121.864722,258,Pond,Permanent,Artificial
,SLCRO011,SLCRO011,Santa Lucia,SLC,SLC,,Carmel,Montery,CA,,,,36.52472,-121.8364,247,Pond,Permanent,Artificial
,SLCRO013,Ro-013,santa Lucia Preserve,SLY,slc,,Carmel,Monterey,CA,,,,36.491389,-121.795,587,Pond,Temporary,Artificial
,SLCRO13,SLCRO13,Santa Lucia Conservancy,,,,,Monterey,CA,,,,36.488248,-121.790353,,,,
0,SLCSC027,slcs027,Santa Lucia,P,Santa Lucia,,carmel by the sea,Monterey,CA,,,,36.438611,-121.99416,619,Pond,Permanent,Artificial
,SLCSC27,SLCSC27,Santa Lucia Conservancy,,,,,Monterey,CA,,,,36.43365,-121.743983,620,,,
1,SlimeALP,Slime,Anderson Lake County Park,ALP,Santa Clara County Parks,,Morgan Hill,Santa Clara,CA,,,4083552201,37.162086,-121.628987,152,Pond,Permanent,Artificial
1,SMCRN,Small,Carnegie State Vehicular Recreational Area,CRN,California State Parks,,Livermore,Alameda,CA,Clint Eisholtz,,9254557873,37.624919,-121.600509,565,Pond,Temporary,Artificial
1,SnagCR,Snag Pond,Calero Reservoir County Park,CR,Santa Clara County Parks,,San Jose,Santa Clara,CA,Calero Park Office,,4082683883,37.176291,-121.772767,180,Pond,Permanent,Artificial
1,SNPND001,SNPND001,Sunol Regional Park,SN,East Bay Regional Park District,,Fremont,Alameda,CA,Kelly Barrington,,5105443246,37.5230715,-121.8095865,455,Pond,Permanent,Artificial
1,SNPND002,SNPND002,Sunol Regional Park,SN,East Bay Regional Park District,,Fremont,Alameda,CA,Kelly Barrington,,5105443246,37.52670496,-121.8178226,344,Pond,Permanent,Artificial
1,SNPND003,SNPND003,Sunol Regional Park,SN,East Bay Regional Park District,,Fremont,Alameda,CA,Kelly Barrington,,5105443246,37.5275407,-121.8300597,326,Pond,Permanent,Artificial
1,SNPND006,SNPND006,Sunol Regional Park,SN,East Bay Regional Park District,,Fremont,Alameda,CA,Kelly Barrington,,5105443246,37.50862907,-121.8162763,244,Pond,Permanent,Artificial
1,SNPND007,SNPND007,Sunol Regional Park,SN,East Bay Regional Park District,,Fremont,Alameda,CA,Kelly Barrington,,5105443246,37.51578995,-121.8102699,435,Pond,Permanent,Artificial
1,SNPND008,SNPND008,Ohlone Regional Wilderness,SN,East Bay Regional Park District,,Fremont,Alameda,CA,Kelly Barringon,,5105443246,37.524957,-121.791297,586,Pond,Permanent,Artificial
1,SNPND014,SNPND014,Sunol Regional Park,SN,East Bay Regional Park District,,Fremont,Alameda,CA,Kelly Barrington,,5105443246,37.5079602,-121.8229752,183,Pond,Permanent,Artificial
1,SNPND015,SNPND015,Sunol Regional Park,SN,East Bay Regional Park District,,Fremont,Alameda,CA,Kelly Barrington,,5105443246,37.5178903,-121.8169043,337,Pond,Permanent,Artificial
3,Soccer,Soccer Pond,Bowles Grove Park,,South Suburban parks and recreation,,Denver,Arapahoe,CO,South Suburban parks and recreation,,,39.61391,-105.0279,1611,Pond,Permanent,Artificial
3,Split,Split Pond,,,OSMP,,Boulder,Jefferson,CO,OSMP,,,39.89188,-105.24337,1897,Pond,Temporary,Artificial
,SPUR001,Carson Spur 1,Eldorado National Forest,,National Forest Service,,Kirkwood,Amador,CA,,,,38.705382,-120.104706,2431,Lake,Permanent,Natural
,SPUR002,Carson Spur 2,Eldorado National Forest,,National Forest Service,,Kirkwood,Amador,CA,,,,38.704213,-120.108186,2420,Lake,Permanent,Natural
,SPUR003,Carson Spur 3,Eldorado National Forest,,National Forest Service,,Kirkwood,Amador,CA,,,,38.704209,-120.108222,2416,Lake,Permanent,Natural
3,Squito,Squito Pond,,,OSMP,,Boulder,Boulder,CO,OSMP,,,39.96775,-105.22829,1657,Pond,Permanent,Artificial
,STALACT,STALACTITE,BLUEHOLE,,,,,,,,,,,,,,,
3,Step,Stepford Pond,,,Private,,Superior,Broomfield,CO,Private,,,39.94371,-105.15958,1705,Pond,Permanent,Artificial
3,Stuck,Stuck Pond,,,Private,,Lakewood,Jefferson,CO,Private,,,39.66236,-105.15813,1743,Pond,Permanent,Artificial
1,SVPND002,SVPND002,Sycamore Valley Regional Park,SV,East Bay Regional Park District,,Diablo,Contra Costa,CA,Gordon Willey,,5105443275,37.823317,-121.961245,183,Pond,Permanent,Artificial
1,TGIF,TGIF,Pleasanton Ridge Regional Park,PLR,East Bay Regional Park District,,Pleasanton,Alameda,CA,Steve Quick,,9258622963,37.636306,-121.913061,446,Pond,Permanent,Artificial
1,TIPND001,TIPND001,Tilden Regional Park,TI,East Bay Regional Park District,,Berkeley,Contra Costa,CA,Sergio Huerta,,5105442711,37.911603,-122.267381,167,Pond,Temporary,Artificial
1,TIPND002,TIPND002,Tilden Regional Park,TI,East Bay Regional Park District,,Berkeley,Contra Costa,CA,Sergio Huerta,,5105442711,37.911215,-122.266949,181,Pond,Temporary,Artificial
8,TN-UTPTR,UT Plateau Research,,,,,,,TN,,,,36.01916667,-85.1425,,,,
1,TOADGCP,Toad,Joseph Grant County Park,GCP,Santa Clara County Parks,,Alum Rock,Santa Clara,CA,,,,37.331715,-121.702629,528,Pond,Temporary,Natural
1,TRCNG,Trough,Carnegie State Vehicular Recreational Area,CNG,California State Parks,,Livermore,Alameda,CA,Clint Eisholtz,,9254557873,37.622443,-121.58611,581,Pond,Temporary,Artificial
,TREETRU,Tree truck,San Antonio,SFPUC,SFPUC,,Sunol,Alameda,CA,,,,37.7675,121.8333333,127,Pond,Permanent,Artificial
3,Trinch1,Trinchera Ranch #1,Trinchera Ranch,,Trinchera Ranch,,Ft. Garland,Castillo,CO,Private (Trinchera Ranch),,,37.47157,-105.41108,2516,Pond,Temporary,Artificial
3,Trinch2,Trinchera Ranch #2,Trinchera Ranch,,Trinchera Ranch,,Ft. Garland,Castillo,CO,Private (Trinchera Ranch),,,37.43476,-105.44629,2423,Pond,Permanent,Artificial
3,Trinch3,Trinchera Ranch #3,Trinchera Ranch,,Trinchera Ranch,,Ft. Garland,Castillo,CO,Private (Trinchera Ranch),,,37.4394,-105.4315,2448,Pond,Permanent,Artificial
3,Trinch4,Trinchera Ranch #4,Trinchera Ranch,,Trinchera Ranch,,Ft. Garland,Castillo,CO,Private (Trinchera Ranch),,,37.38952,-105.33526,2550,Pond,Permanent,Artificial
3,Trinch5,Trinchera Ranch #5,Trinchera Ranch,,Trinchera Ranch,,Ft. Garland,Castillo,CO,Private (Trinchera Ranch),,,37.38533,-105.32277,2565,Pond,Permanent,Artificial
3,Trinch6,Trinchera Ranch #6,Trinchera Ranch,,Trinchera Ranch,,Ft. Garland,Castillo,CO,Private (Trinchera Ranch),,,37.34851,-105.36255,2518,Pond,Temporary,Artificial
3,TROPA,Troutman Park,,,,,,Larimer,CO,,,,,,,Pond,Permanent,Artificial
1,TroutTNC,Trout,The Nature Conservancy Kammerer Ranch,KR,The Nature Conservancy,,San Jose,Santa Clara,CA,Larry Sherpa,Mike Hamilton,4247045908,37.410922,-121.732587,858,Pond,Permanent,Artificial
1,TuleHC,Tule Pond,Henry Coe State Park,HC,California State Parks,,Gilroy,Santa Clara,CA,Tim Reilly,,8316239456,37.099088,-121.422343,586,Pond,Permanent,Artificial
1,TurbGCP,Turbid Pond,Joseph Grant County Park,GCP,Santa Clara County Parks,,Alum Rock,Santa Clara,CA,Mike Maximovich,,4082626980,37.33195,-121.726567,801,Pond,Temporary,Artificial
3,turtle1,Big turtle pond #1,,,South suburban parks and recreation,,Denver,Arapahoe,CO,South suburban parks and recreation,,,39.61006,-105.01176,1638,Pond,Permanent,Artificial
3,turtle2,Big turtle pond #2,,,South suburban Parks and recreation,,Denver,Arapahoe,CO,South suburban Parks and recreation,,,39.60867,-105.0099,1643,Ditch,Permanent,Artificial
5,TX-LSD02,Road 2 Bottom Lands,Little Sandy National Wildlife Refuge,LSD,,2,,,TX,,,,32.58432,-95.24779,,,,
5,TX-MLS07,MLS07,Muleshoe National Wildlife Refuge,MLS,,2,,,TX,,,,,,,,,
5,TX-SAB02,McNeil Tract Slough,San Bernard National Wildlife Refuge,SAB,,2,,,TX,,,,28.923355,-95.60004,,,,
5,TX-SBUNK,SAN BERNARD NWR,San Bernard National Wildlife Refuge,SAB,,2,,,TX,,,,28.9184,-95.6036,,,,
1,UCTBOR,Upper Center/Turtle,Blue Oaks Ranch Reserve,BOR,UC-Berkeley,,San Jose,Santa Clara,CA,Mike Hamilton,Jeff Wilcox,4247045908,37.389738,-121.732882,718,Pond,Permanent,Artificial
1,UGTNC,Upper Gorge,The Nature Conservancy Kammerer Ranch,KR,The Nature Conservancy,,San Jose,Santa Clara,CA,Larry Sherpa,Mike Hamilton,4247045908,37.414478,-121.728192,881,Pond,Permanent,Artificial
1,ULTNC,Upper Leakey/Eagle,The Nature Conservancy Kammerer Ranch,KR,The Nature Conservancy,,San Jose,Santa Clara,CA,Larry Sherpa,Mike Hamilton,4247045908,37.407058,-121.733343,832,Pond,Permanent,Artificial
1,UPSTRM,Upstream,Henry Coe State Park,HC,California State Parks,,Gilroy,Santa Clara,CA,Tim Reilly,,8316239456,37.13869,-121.3736,292,Pond,Permanent,Artificial
5,UT-BRR11,BRR11,BEAR RIVER MIGRATORY BIRD REFUGE,BRR,,6,,,UT,,,,41.489789,-112.057925,,,,
5,UT-BRR12,BRR12,BEAR RIVER MIGRATORY BIRD REFUGE,BRR,,6,,,UT,,,,41.48823,-112.06042,,,,
5,UT-BRR13,BRR13,BEAR RIVER MIGRATORY BIRD REFUGE,BRR,,6,,,UT,,,,41.489822,-112.059819,,,,
5,UT-BRR21,PARKING LOT,BEAR RIVER MIGRATORY BIRD REFUGE,BRR,,6,,,UT,,,,41.510829,-112.087633,,,,
5,UT-BRR32,BRR32,BEAR RIVER MIGRATORY BIRD REFUGE,BRR,,6,,,UT,,,,41.510829,-112.096603,,,,
5,UT-BRR34,BRR34,BEAR RIVER MIGRATORY BIRD REFUGE,BRR,,6,,,UT,,,,41.537122,-112.088932,,,,
5,VA-BKB01,BKB01,BACK BAY NATIONAL WILDLIFE REFUGE,BKB,,5,,,VA,,,,36.73431,-75.9679,,,,
5,VA-BKB02,BKB02,BACK BAY NATIONAL WILDLIFE REFUGE,BKB,,5,,,VA,,,,36.70211,-75.97648,,,,
5,VA-DIS01,SOUTH DITCH,GREAT DISMAL SWAMP NATIONAL WILDLIFE REFUGE,DIS,,5,,,VA,,,,36.5603,-76.49105,,,,
1,VPPND001,VPPND001,Vargas Plateau Regional Preserve,VP,East Bay Regional Park District,,Fremont,Alameda,CA,Steve Quick,,9259311335,37.578186,-121.939306,270,Pond,Temporary,Artificial
1,VPPND003,VPPND003,Vargas Plateau Regional Preserve,VP,East Bay Regional Park District,,Fremont,Alameda,CA,Steve Quick,,9259311335,37.58281,-121.942208,283,Pond,Temporary,Artificial
1,VPPND004,VPPND004,Vargas Plateau Regional Preserve,VP,East Bay Regional Park District,,Fremont,Alameda,CA,Steve Quick,,9259311335,37.578194,-121.949268,249,Pond,Permanent,Artificial
1,VPPND005,VPPND005,Vargas Plateau Regional Preserve,VP,East Bay Regional Park District,,Fremont,Alameda,CA,Steve Quick,,9259311335,37.589796,-121.944432,275,Pond,Permanent,Artificial
1,VPPND006,VPPND006,Vargas Plateau Regional Preserve,VP,East Bay Regional Park District,,Fremont,Alameda,CA,Steve Quick,,9259311335,37.585287,-121.935627,326,Pond,Permanent,Artificial
5,VT-MSQ01,Dead Creek Impoundment,Missisquoi National Wildlife Refuge,MSQ,,5,,,VT,,,,44.9585,-73.1423,,,,
5,VT-MSQ02,Trails,Missisquoi National Wildlife Refuge,MSQ,,5,,,VT,,,,44.944,-73.1537,,,,
5,VT-MSQ03,Tabor Pond,Missisquoi National Wildlife Refuge,MSQ,,5,,,VT,,,,44.955,-73.2065,,,,
,WA-BERRY,Berry,,,,,,,WA,,,,,,,,,
,WA-CASEE,Casee,,,,,Gresham,Clark,WA,Laura Guderyahn,,,45.732037,-122.563866,277,Ponda,Permanent,
2,WA-COTON,Cottonwood Elementary,,,,,,,WA,,,,46.585615,-120.632222,,Pond,Permanent,
2,WA-EAST,East Pond,Dishman Hills Wildlife Area,,,,Dishman Hills,,WA,Dishman Hills Recreation Area,,,47.65,-117.29,2186,,,
9,WA-FLLF,FL Lake Fiander,,,,,,,WA,,,,,,,,,
9,WA-LQBP,LQ Beaver Pond,,,,,,,WA,,,,,,,,,
,WA-LUMMI,Lummi Island,,,,,,,WA,Dan Preston,,,48.6805,-122.641533,,,,
2,WA-MARYS,Marys Pond,,,,,Yakima,,WA,Will,,,46.574979,-120.647795,397,Pond,Temporary,Artificial
2,WA-MILOW,Milowood Pond,,,,,Wenatchee,,WA,Wenatchee National Forest,,,47.284413,-120.340035,1128,Other,Permanent,Other
5,WA-RDG03,West Lake Boardwalk,Ridgefield National Wildlife Refuge,RDG,,1,,,WA,,,,45.80348791,-122.7601343,,,,
2,WA-ROUND,Round Lake,,,,,Issaquah,,WA,Margaret McCloud Parks,,,47.5263,-122.011293,145,Lake,Other,Natural
2,WA-SAMER,South America Pond,Gerhard Carlson,,,,Northport,Stevens,WA,,,,48.897,-117.781272,609,Pond,Permanent,Natural
1,WASHGCP,Washburn,Joseph Grant County Park,GCP,Santa Clara County Parks,,Alum Rock,Santa Clara,CA,,,,37.368716,-121.723332,619,Pond,Permanent,Artificial
2,WA-SILVC,Silver Crown Lake,,,,,Northport,,WA,Gerhard Carlson,,,48.90894,-117.77848,2240,Lake,Permanent,Natural
,WA-SOUTH,Washington South,,,,,,,WA,Laura,,,,,,,,
2,WA-STEBR,Steffen Bros Resevoir,,,,,Wenatchee,,WA,Wenatchee National Forest,,,47.286499,-120.339377,1119,Lake,Permanent,Artificial
,WA-SWAMP,Washington Swamp,Fairgrounds,,,,,Clark,WA,Laura G.,,,45.7404444,-122.677611,,,,
2,WA-WEST,West Pond,Dishman Hills Wildlife Area,,,,,,WA,,,,47.651211,-117.295603,,Pond,Permanent,Natural
2,WA-WIN,Winslow Lake,,,,,,,WA,Little Pend Oreille NWR,,,48.4793,-117.6917,,Pond,Temporary,Natural
5,WA-WLP03,WLP,Willapa National Wildlife Refuge,WLP,,1,,,WA,,,,46.36815,-124.0188689,,,,
2,WA-WVHS,West Valley High School,,,,,Yakima,Yakima,WA,,,,46.57602,-120.63607,412,Pond,Permanent,Artificial
1,WDMLGCP,Windmill,Joseph Grant County Park,GCP,Santa Clara County Parks,,Alum Rock,Santa Clara,CA,,,,37.366626,-121.72693,599,Pond,Permanent,Artificial
1,WDTNC,Woodduck,The Nature Conservancy Kammerer Ranch,KR,The Nature Conservancy,,San Jose,Santa Clara,CA,Larry Sherpa,Mike Hamilton,4247045908,37.41371,-121.731124,879,Pond,Permanent,Artificial
1,WeedPR,Weed,Palassou Ridge Open Space,PR,Santa Clara County Open Space,,San Jose,Santa Clara,CA,Patrick Congdon,,4082247476,37.084743,-121.483672,550,Pond,Permanent,Artificial
1,WestBOR,West Pond,Blue Oaks Ranch Reserve,BOR,UC-Berkeley,,Alum Rock,Santa Clara,CA,Mike Hamilton,Jeff Wilcox,4247045908,37.379537,-121.746636,581,Pond,Permanent,Artificial
,WESTWIN,WESTWIN,BLUEHOLE,,,,,,,,,,,,,,,
1,WESTWING,West Wing,Pleasanton Ridge Regional Park,PLR,East Bay Regional Park District,,Pleasanton,Alameda,CA,Steve Quick,,9258622963,37.63934572,-121.9419164,495,Pond,Permanent,Artificial
8,WI-BLRIV,Black River,,,,,,,WI,,,,,,,,,
8,WI-COO,CoO,,,,,,,WI,,,,,,,,,
8,WI-GLD1,Glidden (Ashland Co),,,,,,,WI,,,,46.132727,-90.57373,,,,
8,WI-GLD2,Glidden (Ashland Co),,,,,,,WI,,,,46.129566,-90.569531,,,,
8,WI-GLD3,Glidden (Ashland Co),,,,,,,WI,,,,46.128091,-90.569531,,,,
8,WI-GOOSE,Goose Island,,,,,,,WI,,,,43.73696,-91.22759,,,,
8,WI-La Cr,Hagen Rd,,,,,,,WI,,,,,,,,,
8,WI-LAS,LAS,"Tommy Lasee Property (Catawba, Price Co)",,,,,Price,WI,,,,45.521209,-90.479307,,,,
1,WILLS,Will's Pond,Henry Coe State Park,HC,California State Parks,,Gilroy,Santa Clara,CA,Tim Reilly,,8316239456,37.177176,-121.389238,390,Pond,Permanent,Artificial
8,WI-MYR,Myrick Park Marsh,La Crosse County,,,,,La Crosse,WI,,,,43.825885,-91.230101,,,,
8,WI-NEB1,"Nebagmon Pond 1, aka GLF",Bottens Green Acre Golf Course,suth/lan,,,,,WI,,,,46.504856,-91.680298,,,,
8,WI-NEB3,Nebagamon3,Bottens Green Acre Golf Course,suth/lan,,,,,WI,,,,46.506928,-91.68215,,,,
8,WI-NH441,North Transect 44 12 02,Rick Hartson Transect,,,,,,WI,,,,,,,,,
8,WI-RH003,South Transect 28 02 03,Rick Hartson Transect,,,,,,WI,,,,44.9373,-90.6029,,,,
8,WI-RH010,South Transect 28 02 10,Rick Hartson Transect,,,,,,WI,,,,44.9256,-90.607,,,,
8,WI-RH021,South Transect 29 06 21,Rick Hartson Transect,,,,,,WI,,,,44.97510147,-91.10240173,,,,
8,WI-RH022,South Transect 29 06 22,Rick Hartson Transect,,,,,,WI,,,,44.98699951,-91.08989716,,,,
8,WI-RH200,South Transect 28 02 09,Rick Hartson Transect,,,,,,WI,,,,44.9291,-90.6188,,,,
8,WI-RH201,South Transect 28 07 12,Rick Hartson Transect,,,,,,WI,,,,44.9231987,-91.18490601,,,,
8,WI-RH202,South Transect 28 08 25,Rick Hartson Transect,,,,,,WI,,,,44.8733,-91.2947,,,,
8,WI-RH211,South Transect 28 13 14,Rick Hartson Transect,,,,,,WI,,,,44.909,-91.9343,,,,
8,WI-RH213,South Transect 26 10 36,Rick Hartson Transect,,,,,,WI,,,,44.6954,-91.5465,,,,
8,WI-RH215,South Transect 28 15 11,Rick Hartson Transect,,,,,,WI,,,,44.9185,-92.1647,,,,
8,WI-RH312,South Transect 30 15 28,Rick Hartson Transect,,,,,,WI,,,,45.0544014,-92.21649933,,,,
8,WI-RH313,South Transect 30 15 33,Rick Hartson Transect,,,,,,WI,,,,45.033,-92.1986,,,,
8,WI-RH380,South Transect 31 18 09,Rick Hartson Transect,,,,,,WI,,,,45.19429779,-92.60869598,,,,
8,WI-RH382,South Transect 30 18 23,Rick Hartson Transect,,,,,,WI,,,,45.06920242,-92.53479767,,,,
8,WI-RH402,North Transect 42 03 24,Rick Hartson Transect,,,,,,WI,,,,46.0995,-90.6915,,,,
8,WI-RH407,North Transect 45 07 14,Rick Hartson Transect,,,,,,WI,,,,46.38550186,-91.20939636,,,,
8,WI-RH410,North Transect 43 12 08,Rick Hartson Transect,,,,,,WI,,,,46.21710205,-91.90299225,,,,
8,WI-RH411,North Transect 46 14 19,Rick Hartson Transect,,,,,,WI,,,,46.45530319,-92.16230011,,,,
8,WI-RH412,North Transect 45 13 21,Rick Hartson Transect,,,,,,WI,,,,46.36219788,-91.9885025,,,,
8,WI-RH413,North Transect 45 12 34,Rick Hartson Transect,,,,,,WI,,,,46.33639908,-91.85809326,,,,
8,WI-RH422,North Transect 47 08 22,Rick Hartson Transect,,,,,,WI,,,,46.54330063,-91.35009766,,,,
8,WI-RH472,North Transect 47 05 02,Rick Hartson Transect,,,,,,WI,,,,46.5826,-90.9636,,,,
8,WI-RH516,South Transect 29 05 16,Rick Hartson Transect,,,,,,WI,,,,44.9879,-90.9982,,,,
8,WI-RH607,South Transect 29 06 07,Rick Hartson Transect,,,,,,WI,,,,44.9935,-91.1484,,,,
8,WI-RH612,North Transect 46 10 12,Rick Hartson Transect,,,,,,WI,,,,46.48939896,-91.55529785,,,,
8,WI-TREMP,Trempealeau,Trempealeau County,,,,,,WI,,,,,,,,,
5,WI-UPR01,I-10,Horicon National Wildlife Refuge,UPR,,3,,,WI,,,,43.5309,-88.58512,,,,
5,WI-UPR02,I-2 Hiking trail site,Horicon National Wildlife Refuge,UPR,,3,,,WI,,,,43.62134,-88.67961,,,,
8,WI-WAN,Wanoka Lake,,,,,,,WI,,,,46.54296112,-91.28276062,,,,
8,WI-WGP,Walsh Golf Pond,"Walshs Golf Center, La Crosse",,,,La Crosse,La Crosse,WI,,,,43.862061,-91.1913,,,,
,WLA01,Willow Lake,Lassen National Forest Willow Lake Area,LNF,National Forest Service,,Chester,Plumas,CA,,,,40.402533,-121.360702,1655,Lake,Permanent,Natural
,WLA02,Little Willow Lake,Lassen National Forest Willow Lake Area,LNF,National Forest Service,,Chester,Plumas,CA,,,,40.4099,-121.38899,1928,Lake,Permanent,Natural
,WLA03,East Dimingo,Lassen National Forest Willow Lake Area,LNF,National Forest Service,,Chester,Plumas,CA,,,,40.39644,-121.36679,1798,Pond,Semi-permanent,Artificial
,WLA04,Domingo Lake,Lassen National Forest Willow Lake Area,LNF,National Forest Service,,Chester,Plumas,CA,,,,40.395805,-121.363145,1775,Lake,Permanent,Natural
,WLA05,Wilson lake,Wilson lake area. Lassen NF,LNF,LVNP,,Chester,Plumas,CA,,,,40.342,-121.43649,1605,Lake,Permanent,Natural
1,WMBOR,WindmillBOR,Blue Oaks Ranch Reserve,BOR,UC-Berkeley,,San Jose,Santa Clara,CA,Mike Hamilton,Jeff Wilcox,4247045908,37.387558,-121.748566,566,Pond,Temporary,Natural
5,WV-CAV02,Camp 70 Ponds,Canaan Valley National Wildlife Refuge,CAV,,5,,,WV,,,,39.13487,-79.4056,,,,
5,WY-MRL01,Mortenson Lake,Mortenson National Wildlife Refuge,MRL,,6,,,WY,,,,41.12641,-105.51046,,Pond,Permanent,Natural
,WY-QUARR,Quarry,Bridger Teton National Forest,,National Forest Service,,Moran,Teton,WY,,,,43.832933,-110.3546,2087,Pond,Permanent,Natural
,WY-ROUND,Roundworm,Bridger Teton National Forest,,National Forest Service,,Moran,Teton,WY,,,,43.84078334,-110.33785,2087,Pond,Permanent,Artificial
1,YBBA,Yerba Buena,Joseph Grant County Park,GCP,Santa Clara County Parks,,Alum Rock,Santa Clara,CA,,,,37.335943,-121.689529,684,Pond,Permanent,Artificial
,YOSBEAR,Yosemite Bear Pond,Yosemite National Park,,,,,Madera,CA,,,,37.954258,-119.837917,1535,,,
,YOSQUEEN,Yosemite Queen Pond,Camp Mather Birch Lake,,,,,Madera,CA,,,,37.89915,-119.865282,874,,,